ADDRESS_LINE_1,CITY,STATE_OR_COUNTRY_CODE,ZIP_CODE,COUNTY,MUNICIPALITY
1116 STONE HARBOR BLVD,MIDDLE TWP,NJ  ,8247,CAPE MAY,MIDDLE TWP
8018 3RD AVE,STONE HARBOR,NJ  ,8247,CAPE MAY,STONE HARBOR BORO
401 S MAIN ST,MIDDLE TWP,NJ  ,8210,CAPE MAY,MIDDLE TWP
518 STONE HARBOR BLVD,MIDDLE TWP,NJ  ,8260,CAPE MAY,MIDDLE TWP
233 N MAIN ST,MIDDLE TWP,NJ  ,8210,CAPE MAY,MIDDLE TWP
2889 OCEAN DR,AVALON,NJ  ,8202,CAPE MAY,AVALON BORO
701 OLD AVALON BLVD,MIDDLE TWP,NJ  ,8202,CAPE MAY,MIDDLE TWP
RT 9 & AVALON BLVD,SWAINTON,NJ  ,8210,CAPE MAY,MIDDLE TWP
GARDEN STATE PKWY MM 13.8,MIDDLE TWP,NJ  ,8210,CAPE MAY,MIDDLE TWP
GARDEN STATE PKWY MM 14,MIDDLE TWP,NJ  ,8204,CAPE MAY,MIDDLE TWP
1708 RT 9,SWAINTON,NJ  ,8210,CAPE MAY,MIDDLE TWP
4001 KNEASS AVE,SEA ISLE CITY,NJ  ,8243,CAPE MAY,SEA ISLE CITY
2500 SEA ISLE BLVD,OCEAN VIEW,NJ  ,8230,CAPE MAY,DENNIS TWP
GARDEN STATE PKWY MM 18.3,DENNIS TWP,NJ  ,8250,CAPE MAY,DENNIS TWP
1235 DELSEA DR,DENNIS TWP,NJ  ,8214,CAPE MAY,DENNIS TWP
2080 SHORE RD & RT 50 ,UPPER TWP,NJ  ,8250,CAPE MAY,UPPER TWP
600 KENNEDY DR,WOODBINE,NJ  ,8270,CAPE MAY,WOODBINE BORO
SHELL RD,COMMERCIAL TWP,NJ  ,8349,CUMBERLAND,COMMERCIAL TWP
618 WASHINGTON AVE,WOODBINE,NJ  ,8270,CAPE MAY,WOODBINE BORO
215 24TH ST,OCEAN CITY,NJ  ,8226,CAPE MAY,OCEAN CITY
551 ROOSEVELT BLVD,MARMORA,NJ  ,8223,CAPE MAY,UPPER TWP
30 SHORE RD,MARMORA,NJ  ,8223,CAPE MAY,UPPER TWP
9TH ST & WEST AVE,OCEAN CITY,NJ  ,8226,CAPE MAY,OCEAN CITY
201 E 9TH ST,OCEAN CITY,NJ  ,8226,CAPE MAY,OCEAN CITY
903 BAY AVE,OCEAN CITY,NJ  ,8226,CAPE MAY,OCEAN CITY
1 7 W 9TH ST,OCEAN CITY,NJ  ,8226,CAPE MAY,OCEAN CITY
19 9TH ST,OCEAN CITY,NJ  ,8226,CAPE MAY,OCEAN CITY
3904 DELSEA DR,DORCHESTER,NJ  ,8316,CUMBERLAND,MAURICE RIVER TWP
3890 RT 47,DORCHESTER,NJ  ,8316,CUMBERLAND,MAURICE RIVER TWP
218 MAIN ST,CORBIN CITY,NJ  ,8270,ATLANTIC,CORBIN CITY
129 MAIN ST,DOWNE TWP,NJ  ,8345,CUMBERLAND,DOWNE TWP
1 GOLL AVE ,SOMERS POINT,NJ  ,8232,ATLANTIC,SOMERS POINT CITY
16 MACARTHUR BLVD,SOMERS POINT,NJ  ,8244,ATLANTIC,SOMERS POINT CITY
991 MAYS LANDING RD ,SOMERS POINT,NJ  ,8244,ATLANTIC,SOMERS POINT CITY
303 LONGPORT BLVD,EGG HARBOR TWP,NJ  ,8232,ATLANTIC,EGG HARBOR TWP
660 BAY AVE,SOMERS POINT,NJ  ,8244,ATLANTIC,SOMERS POINT CITY
45 W LAUREL DR ,SOMERS POINT,NJ  ,8244,ATLANTIC,SOMERS POINT CITY
620 642 NEW RD,SOMERS POINT,NJ  ,8244,ATLANTIC,SOMERS POINT CITY
9001 WINCHESTER AVE,MARGATE,NJ  ,8402,ATLANTIC,MARGATE CITY
200 NEW RD,SOMERS POINT,NJ  ,8244,ATLANTIC,SOMERS POINT CITY
7901 VENTNOR AVE,MARGATE,NJ  ,8402,ATLANTIC,MARGATE CITY
112 NEW RD,SOMERS POINT,NJ  ,8244,ATLANTIC,SOMERS POINT CITY
7701 VENTNOR AVE,MARGATE,NJ  ,8402,ATLANTIC,MARGATE CITY
56 58 W MAPLE AVE,CEDARVILLE,NJ  ,8311,CUMBERLAND,LAWRENCE TWP
1711 NEW RD,LINWOOD,NJ  ,8221,ATLANTIC,LINWOOD CITY
3701 VENTNOR AVE,ATLANTIC CITY,NJ  ,8401,ATLANTIC,ATLANTIC CITY
101 111 ALBANY AVE ,ATLANTIC CITY,NJ  ,8401,ATLANTIC,ATLANTIC CITY
3114 ARCTIC AVE,ATLANTIC CITY,NJ  ,8401,ATLANTIC,ATLANTIC CITY
600 NEW RD,LINWOOD,NJ  ,8221,ATLANTIC,LINWOOD CITY
2507 ATLANTIC AVE,ATLANTIC CITY,NJ  ,8401,ATLANTIC,ATLANTIC CITY
9 N ARKANSAS AVE,ATLANTIC CITY,NJ  ,8411,ATLANTIC,ATLANTIC CITY
3001 OCEAN HEIGHTS AVE,EGG HARBOR TWP,NJ  ,8221,ATLANTIC,EGG HARBOR TWP
2401 NEW RD,NORTHFIELD,NJ  ,8225,ATLANTIC,NORTHFIELD CITY
5312 RT 49,MILLVILLE,NJ  ,8332,CUMBERLAND,MILLVILLE CITY
1125 N ALBANY AVE,ATLANTIC CITY,NJ  ,8401,ATLANTIC,ATLANTIC CITY
401 ATLANTIC AVE,ATLANTIC CITY,NJ  ,8401,ATLANTIC,ATLANTIC CITY
1225 1227 DREXEL AVE,ATLANTIC CITY,NJ  ,8401,ATLANTIC,ATLANTIC CITY
2164 OCEAN HEIGHTS AVE,EGG HARBOR TWP,NJ  ,8282,ATLANTIC,EGG HARBOR TWP
1416 ZION RD,NORTHFIELD,NJ  ,8225,ATLANTIC,NORTHFIELD CITY
1403 ABSECON BLVD,ATLANTIC CITY,NJ  ,8400,ATLANTIC,ATLANTIC CITY
ATLANTIC CITY EXPWY,PLEASANTVILLE,NJ  ,8232,ATLANTIC,PLEASANTVILLE CITY
8006 BLACKHORSE PK,EGG HARBOR TWP,NJ  ,8221,ATLANTIC,EGG HARBOR TWP
1101 S MAIN ST,PLEASANTVILLE,NJ  ,8201,ATLANTIC,PLEASANTVILLE CITY
1 BRIDGETON FAIRTON RD,FAIRFIELD TWP,NJ  ,8320,CUMBERLAND,FAIRFIELD TWP
7054 BLACKHORSE PK,EGG HARBOR TWP,NJ  ,8215,ATLANTIC,EGG HARBOR TWP
910 NEW RD,PLEASANTVILLE,NJ  ,8232,ATLANTIC,PLEASANTVILLE CITY
5100 ENGLISH CREEK AVE,EGG HARBOR TWP,NJ  ,8234,ATLANTIC,EGG HARBOR TWP
444 W VERONA AVE,PLEASANTVILLE,NJ  ,8232,ATLANTIC,PLEASANTVILLE CITY
6801 TILTON RD,EGG HARBOR TWP,NJ  ,8232,ATLANTIC,EGG HARBOR TWP
4012 ATLANTIC BRIGANTINE BLVD,BRIGANTINE,NJ  ,8203,ATLANTIC,BRIGANTINE CITY
3600 ATLANTIC BRIGANTINE BLVD,BRIGANTINE,NJ  ,8203,ATLANTIC,BRIGANTINE CITY
1711 E MAIN ST,MILLVILLE CITY,NJ  ,8332,CUMBERLAND,MILLVILLE CITY
3401 ATLANTIC BRIGANTINE BLVD,BRIGANTINE,NJ  ,8203,ATLANTIC,BRIGANTINE CITY
1025 BLACKHORSE PK,PLEASANTVILLE CITY,NJ  ,8234,ATLANTIC,PLEASANTVILLE CITY
129 MAIN ST,MILLVILLE,NJ  ,8332,CUMBERLAND,MILLVILLE CITY
624 W MAIN ST,MILLVILLE,NJ  ,8332,CUMBERLAND,MILLVILLE CITY
RT 322 & FIRE RD,EGG HARBOR TWP,NJ  ,8232,ATLANTIC,EGG HARBOR TWP
6752 BLACKHORSE PK,EGG HARBOR TWP,NJ  ,8232,ATLANTIC,EGG HARBOR TWP
918 W MAIN ST,MILLVILLE,NJ  ,8332,CUMBERLAND,MILLVILLE CITY
864 N MAIN ST,PLEASANTVILLE,NJ  ,8232,ATLANTIC,PLEASANTVILLE CITY
900 N MAIN ST,PLEASANTVILLE,NJ  ,8232,ATLANTIC,PLEASANTVILLE CITY
6710 BLACKHORSE PK,EGG HARBOR TWP,NJ  ,8221,ATLANTIC,EGG HARBOR TWP
812 N 2ND ST,MILLVILLE,NJ  ,8332,CUMBERLAND,MILLVILLE CITY
815 WHEATON AVE,MILLVILLE,NJ  ,8332,CUMBERLAND,MILLVILLE CITY
110 SUNSET BLVD ,WEST CAPE MAY,NJ  ,8204,CAPE MAY,WEST CAPE MAY BORO
1381 WASHINGTON ST,CAPE MAY,NJ  ,8204,CAPE MAY,CAPE MAY CITY
1231 RT 109,LOWER TWP,NJ  ,8204,CAPE MAY,LOWER TWP
1121 RT 109,LOWER TWP,NJ  ,8204,CAPE MAY,LOWER TWP
900 OCEAN DR,LOWER TWP,NJ  ,8204,CAPE MAY,LOWER TWP
930 976 OCEAN DR,LOWER TWP,NJ  ,8204,CAPE MAY,LOWER TWP
795 RT 109,CAPE MAY,NJ  ,8204,CAPE MAY,CAPE MAY CITY
838 SEASHORE RD,LOWER TWP,NJ  ,8204,CAPE MAY,LOWER TWP
3836 BAYSHORE RD,NORTH CAPE MAY,NJ  ,8204,CAPE MAY,LOWER TWP
3731 BAYSHORE RD,NORTH CAPE MAY,NJ  ,8204,CAPE MAY,LOWER TWP
3719 BAYSHORE AVE,NORTH CAPE MAY,NJ  ,8204,CAPE MAY,LOWER TWP
4800 PARK BLVD,WILDWOOD,NJ  ,8260,CAPE MAY,WILDWOOD CITY
305 319 W RIO GRANDE AVE,WILDWOOD,NJ  ,8260,CAPE MAY,WILDWOOD CITY
325 W RIO GRANDE AVE,WILDWOOD,NJ  ,8260,CAPE MAY,WILDWOOD CITY
410 RIO GRANDE AVE,WILDWOOD,NJ  ,8260,CAPE MAY,WILDWOOD CITY
5100 LAKE RD,LOWER TWP,NJ  ,8242,CAPE MAY,LOWER TWP
1402 DELSEA DR,RIO GRANDE,NJ  ,8242,CAPE MAY,MIDDLE TWP
1 WILDWOOD BLVD,RIO GRANDE,NJ  ,8242,CAPE MAY,MIDDLE TWP
511 W OAK AVE,NORTH WILDWOOD,NJ  ,8260,CAPE MAY,NORTH WILDWOOD CITY
3601 RT 9,RIO GRANDE,NJ  ,8242,CAPE MAY,MIDDLE TWP
1515 BAYSHORE RD,VILLAS,NJ  ,8251,CAPE MAY,LOWER TWP
509 DELSEA DR,GREEN CREEK,NJ  ,8219,CAPE MAY,MIDDLE TWP
513 W DELILAH RD,PLEASANTVILLE,NJ  ,8232,ATLANTIC,PLEASANTVILLE CITY
901 915 N NEW RD,PLEASANTVILLE,NJ  ,8232,ATLANTIC,PLEASANTVILLE CITY
6678 BLACKHORSE PK,EGG HARBOR TWP,NJ  ,8234,ATLANTIC,EGG HARBOR TWP
1211 HIGH ST,MILLVILLE,NJ  ,8332,CUMBERLAND,MILLVILLE CITY
2601 FIRE RD,EGG HARBOR TWP,NJ  ,8234,ATLANTIC,EGG HARBOR TWP
2584 TILTON RD,CARDIFF,NJ  ,8234,ATLANTIC,EGG HARBOR TWP
235 ABSECON BLVD,ABSECON,NJ  ,8109,ATLANTIC,ABSECON CITY
2105 2107 N 2ND ST,MILLVILLE,NJ  ,8332,CUMBERLAND,MILLVILLE CITY
101 ABSECON BLVD,ABSECON,NJ  ,8201,ATLANTIC,ABSECON CITY
2 ABSECON BLVD,ABSECON,NJ  ,8201,ATLANTIC,ABSECON CITY
2110 DELSEA DR,MILLVILLE,NJ  ,8332,CUMBERLAND,MILLVILLE CITY
800 COMMERCE ST,BRIDGETON,NJ  ,8302,CUMBERLAND,BRIDGETON CITY
4133 S MAIN RD,VINELAND,NJ  ,8360,CUMBERLAND,VINELAND CITY
748 RT 49,BRIDGETON,NJ  ,8302,CUMBERLAND,BRIDGETON CITY
8 N BURLINGTON RD,BRIDGETON,NJ  ,8302,CUMBERLAND,BRIDGETON CITY
520 E COMMERCE ST,BRIDGETON,NJ  ,8302,CUMBERLAND,BRIDGETON CITY
471 WHITEHORSE PK,ABSECON,NJ  ,8232,ATLANTIC,ABSECON CITY
69 W BROAD ST,BRIDGETON,NJ  ,8360,CUMBERLAND,BRIDGETON CITY
6501 DELILAH RD,FARMINGTON,NJ  ,8234,ATLANTIC,EGG HARBOR TWP
200 BROAD ST,BRIDGETON,NJ  ,8302,CUMBERLAND,BRIDGETON CITY
3849 DELSEA DR,VINELAND,NJ  ,8360,CUMBERLAND,VINELAND CITY
860 N PEARL ST,BRIDGETON,NJ  ,8318,CUMBERLAND,BRIDGETON CITY
281 S NEW YORK RD,GALLOWAY,NJ  ,8205,ATLANTIC,GALLOWAY TWP
1812 S LINCOLN AVE,VINELAND,NJ  ,8360,CUMBERLAND,VINELAND CITY
965 RT 50,MAYS LANDING,NJ  ,8330,ATLANTIC,HAMILTON TWP
330 336 PITNEY RD,ABSECON,NJ  ,8201,ATLANTIC,ABSECON CITY
8 LANDIS AVE,BRIDGETON,NJ  ,8302,CUMBERLAND,BRIDGETON CITY
1090 N PEARL ST,BRIDGETON,NJ  ,8302,CUMBERLAND,BRIDGETON CITY
145 LANDIS AVE,UPPER DEERFIELD TWP,NJ  ,8302,CUMBERLAND,UPPER DEERFIELD TWP
GARDEN STATE PKWY MM 41.3,GALLOWAY TWP,NJ  ,8215,ATLANTIC,GALLOWAY TWP
17 JIMMIE LEEDS RD,ABSECON HIGHLANDS,NJ  ,8201,ATLANTIC,GALLOWAY TWP
2615 E CHESTNUT AVE,VINELAND,NJ  ,8360,CUMBERLAND,VINELAND CITY
702 DELSEA DR,VINELAND,NJ  ,8360,CUMBERLAND,VINELAND CITY
903 CHESTNUT AVE,VINELAND,NJ  ,8360,CUMBERLAND,VINELAND CITY
521 DELSEA DR,VINELAND,NJ  ,8360,CUMBERLAND,VINELAND CITY
469 DELSEA DR,VINELAND,NJ  ,8360,CUMBERLAND,VINELAND CITY
797 LANDIS AVE,DEERFIELD TWP,NJ  ,8352,CUMBERLAND,DEERFIELD TWP
733 LANDIS AVE,DEERFIELD TWP,NJ  ,8352,CUMBERLAND,DEERFIELD TWP
7 N LINCOLN AVE,VINELAND,NJ  ,8361,CUMBERLAND,VINELAND CITY
271 DELSEA DR,VINELAND,NJ  ,8362,CUMBERLAND,VINELAND CITY
760 LANDIS AVE,ROSENHAYN,NJ  ,8352,CUMBERLAND,DEERFIELD TWP
61 S MAIN RD,VINELAND,NJ  ,8361,CUMBERLAND,VINELAND CITY
301 W LANDIS AVE,VINELAND,NJ  ,8360,CUMBERLAND,VINELAND CITY
402 W LANDIS AVE,VINELAND,NJ  ,8360,CUMBERLAND,VINELAND CITY
1422 W LANDIS AVE,VINELAND,NJ  ,8360,CUMBERLAND,VINELAND CITY
1335 HARDING HWY,RICHLAND,NJ  ,8360,ATLANTIC,BUENA VISTA TWP
14 S NEW YORK RD,SMITHVILLE,NJ  ,8201,ATLANTIC,GALLOWAY TWP
714 PARK AVE,VINELAND CITY,NJ  ,8360,CUMBERLAND,VINELAND CITY
N DELSEA DR & PARK AVE,VINELAND,NJ  ,8360,CUMBERLAND,VINELAND CITY
6417 BLACKHORSE PK,MAYS LANDING,NJ  ,8330,ATLANTIC,HAMILTON TWP
501 DELSEA DR,VINELAND,NJ  ,8360,CUMBERLAND,VINELAND CITY
716 WHITEHORSE PK,GALLOWAY TWP,NJ  ,8215,ATLANTIC,GALLOWAY TWP
734 WHITEHORSE PK,COLOGNE,NJ  ,8213,ATLANTIC,GALLOWAY TWP
1197 N MAIN RD,VINELAND,NJ  ,8360,CUMBERLAND,VINELAND CITY
1269 N MAIN RD,VINELAND,NJ  ,8360,CUMBERLAND,VINELAND CITY
760 HARDING HWY,BUENA VISTA TWP,NJ  ,8310,ATLANTIC,BUENA VISTA TWP
1955 N MAIN RD,VINELAND,NJ  ,8043,CUMBERLAND,VINELAND CITY
751 HARDING HWY,BUENA VISTA TWP,NJ  ,8310,ATLANTIC,BUENA VISTA TWP
731 HARDING HWY,BUENA,NJ  ,8310,ATLANTIC,BUENA BORO
2169 DELSEA DR,VINELAND,NJ  ,8360,CUMBERLAND,VINELAND CITY
1451 WHITEHORSE PK,EGG HARBOR,NJ  ,8215,ATLANTIC,EGG HARBOR CITY
104 HARDING HWY,LANDISVILLE,NJ  ,8326,ATLANTIC,BUENA BORO
2422 2428 TILTON RD,EGG HARBOR TWP,NJ  ,8234,ATLANTIC,EGG HARBOR TWP
6101 BLACKHORSE PK,EGG HARBOR TWP,NJ  ,8232,ATLANTIC,EGG HARBOR TWP
176 N PEARL ST,BRIDGETON,NJ  ,8302,CUMBERLAND,BRIDGETON CITY
177 N PEARL ST,BRIDGETON,NJ  ,8302,CUMBERLAND,BRIDGETON CITY
6027 BLACKHORSE PK,EGG HARBOR TWP,NJ  ,8221,ATLANTIC,EGG HARBOR TWP
3422 DELSEA DR,VINELAND,NJ  ,8360,CUMBERLAND,VINELAND CITY
345 WHITEHORSE PK,GALLOWAY TWP,NJ  ,8205,ATLANTIC,GALLOWAY TWP
619 621 SHILOH PK,HOPEWELL TWP,NJ  ,8302,CUMBERLAND,HOPEWELL TWP
360 N NEW YORK RD,GALLOWAY TWP,NJ  ,8201,ATLANTIC,GALLOWAY TWP
261 WHITEHORSE PK,GALLOWAY TWP,NJ  ,8201,ATLANTIC,GALLOWAY TWP
4262 BLACKHORSE PK,MAYS LANDING,NJ  ,8330,ATLANTIC,HAMILTON TWP
2787 S MAIN RD,VINELAND,NJ  ,8360,CUMBERLAND,VINELAND CITY
719 5TH AVE,GALLOWAY TWP,NJ  ,8201,ATLANTIC,GALLOWAY TWP
615 N PEARL ST,BRIDGETON,NJ  ,8302,CUMBERLAND,BRIDGETON CITY
2802 DELSEA DR,VINELAND,NJ  ,8360,CUMBERLAND,VINELAND CITY
6390 HARDING HWY,MAYS LANDING,NJ  ,8330,ATLANTIC,HAMILTON TWP
RT 50 & HARDING HWY,MAYS LANDING,NJ  ,8330,ATLANTIC,HAMILTON TWP
6298 HARDING HWY,MAYS LANDING,NJ  ,8330,ATLANTIC,HAMILTON TWP
210 CAPE MAY AVE,MAYS LANDING,NJ  ,8330,ATLANTIC,HAMILTON TWP
1824 DENNIS FOREMAN DR,MAYS LANDING,NJ  ,8330,ATLANTIC,HAMILTON TWP
3731 N MILL RD,VINELAND,NJ  ,8360,CUMBERLAND,VINELAND CITY
3970 N DELSEA DR ,VINELAND,NJ  ,8344,CUMBERLAND,VINELAND CITY
ATLANTIC CITY EXPWY MM 21.4,HAMILTON TWP,NJ  ,8330,ATLANTIC,HAMILTON TWP
32 S GREENWICH ST,ALLOWAY,NJ  ,8001,SALEM,ALLOWAY TWP
500 SALEM QUINTON RD,QUINTON,NJ  ,8079,SALEM,QUINTON TWP
20 WEST AVE,BEACH HAVEN,NJ  ,8008,OCEAN,BEACH HAVEN BORO
525 2ND ST,BEACH HAVEN,NJ  ,8008,OCEAN,BEACH HAVEN BORO
413 E BROADWAY,SALEM,NJ  ,8079,SALEM,SALEM CITY
1411 BLACKHORSE PK,FOLSOM,NJ  ,8037,ATLANTIC,FOLSOM BORO
450 DELSEA DR,MALAGA,NJ  ,8328,GLOUCESTER,FRANKLIN TWP
461 DELSEA DR,MALAGA,NJ  ,8328,GLOUCESTER,FRANKLIN TWP
724 DELSEA DR ,MALAGA,NJ  ,8328,GLOUCESTER,FRANKLIN TWP
4531 S WHITE HORSE PK,ELWOOD,NJ  ,8217,ATLANTIC,MULLICA TWP
724 DELSEA DR,MALAGA,NJ  ,8328,GLOUCESTER,FRANKLIN TWP
1045 BLUE ANCHOR RD,BUENA VISTA TWP,NJ  ,8310,ATLANTIC,BUENA VISTA TWP
199 MATHISTOWN RD,MYSTIC ISLANDS,NJ  ,8087,OCEAN,LITTLE EGG HARBOR TWP
DELSEA DR & MARSHALL MILL RD,MALAGA,NJ  ,8328,GLOUCESTER,FRANKLIN TWP
13601 LONG BEACH BLVD,LONG BEACH TWP,NJ  ,8008,OCEAN,LONG BEACH TWP
19 W 32ND ST ,BEACH HAVEN GARDENS,NJ  ,8008,OCEAN,LONG BEACH TWP
4491 HARDING HWY,FRANKLIN TWP,NJ  ,8360,GLOUCESTER,FRANKLIN TWP
191 MATHISTOWN RD,LITTLE EGG HARBOR TWP,NJ  ,8087,OCEAN,LITTLE EGG HARBOR TWP
3344 TUCKAHOE RD,FRANKLINVILLE,NJ  ,8322,GLOUCESTER,FRANKLIN TWP
762 STAGE RD,BASS RIVER,NJ  ,8224,BURLINGTON,BASS RIVER TWP
1201 1205 RT 539,LITTLE EGG HARBOR,NJ  ,8087,OCEAN,LITTLE EGG HARBOR TWP
734 12TH ST,HAMMONTON,NJ  ,8037,ATLANTIC,HAMMONTON TOWN
725 12TH ST,HAMMONTON,NJ  ,8037,ATLANTIC,HAMMONTON TOWN
730 12TH ST,HAMMONTON TOWN,NJ  ,8037,ATLANTIC,HAMMONTON TOWN
605 12TH ST,HAMMONTON,NJ  ,8330,ATLANTIC,HAMMONTON TOWN
153 CEMETERY RD,PILESGROVE TWP,NJ  ,8098,SALEM,PILESGROVE TWP
1363 RT 539,LITTLE EGG HARBOR TWP,NJ  ,8087,OCEAN,LITTLE EGG HARBOR TWP
3426 NESCO RD,MULLICA TWP,NJ  ,8217,ATLANTIC,MULLICA TWP
183 DELAWARE DR,PENNSVILLE,NJ  ,8070,SALEM,PENNSVILLE TWP
331 RT 9,WEST CREEK,NJ  ,8092,OCEAN,EAGLESWOOD TWP
1080 1520 RT 539,LITTLE EGG HARBOR,NJ  ,8721,OCEAN,LITTLE EGG HARBOR TWP
876 RT 45,PILESGROVE TWP,NJ  ,8098,SALEM,PILESGROVE TWP
RT 9 S & COX AVE,WEST CREEK,NJ  ,8092,OCEAN,EAGLESWOOD TWP
1008 HARDING HWY,PILESGROVE TWP,NJ  ,8098,SALEM,PILESGROVE TWP
90 WHITEHORSE PK,HAMMONTON,NJ  ,8037,ATLANTIC,HAMMONTON TOWN
435 DELSEA DR,CLAYTON,NJ  ,8312,GLOUCESTER,CLAYTON BORO
1170 HARDING HWY,PILESGROVE TWP,NJ  ,8098,SALEM,PILESGROVE TWP
237 W 8TH ST,SHIP BOTTOM,NJ  ,8008,OCEAN,SHIP BOTTOM BORO
161 S BROADWAY,PENNSVILLE TWP,NJ  ,8070,SALEM,PENNSVILLE TWP
439 RT 9,EAGLESWOOD TWP,NJ  ,8092,OCEAN,EAGLESWOOD TWP
90 WEST AVE,WOODSTOWN,NJ  ,8098,SALEM,WOODSTOWN BORO
301 W 8TH ST,SHIP BOTTOM,NJ  ,8008,OCEAN,SHIP BOTTOM BORO
N MAIN ST & EAST AVE,WOODSTOWN,NJ  ,8098,SALEM,WOODSTOWN BORO
600 BUCK RD,ELK TWP,NJ  ,8343,GLOUCESTER,ELK TWP
2200 E BAY AVE,MANAHAWKIN,NJ  ,8008,OCEAN,STAFFORD TWP
843 HARDING HWY,SHARPTOWN,NJ  ,8098,SALEM,PILESGROVE TWP
100 AIRPORT RD,EAGLESWOOD TWP,NJ  ,8092,OCEAN,EAGLESWOOD TWP
425 RT 73,WINSLOW,NJ  ,8037,CAMDEN,WINSLOW TWP
1413 1445 S BLACKHORSE PK,WILLIAMSTOWN,NJ  ,8094,GLOUCESTER,MONROE TWP
207 N BROADWAY,PENNSVILLE,NJ  ,8070,SALEM,PENNSVILLE TWP
125 VIRGINIA AVE,WILLIAMSTOWN,NJ  ,8094,GLOUCESTER,MONROE TWP
980 BAY AVE,STAFFORD TWP,NJ  ,8721,OCEAN,STAFFORD TWP
418 N BROADWAY,PENNSVILLE,NJ  ,8070,SALEM,PENNSVILLE TWP
700 RT 72,MANAHAWKIN,NJ  ,8050,OCEAN,STAFFORD TWP
352 362 HARDING HWY,CARNEYS POINT,NJ  ,8069,SALEM,CARNEYS POINT TWP
600 6010 S PENNSVILLE AUBURN RD,CARNEYS POINT,NJ  ,8060,SALEM,CARNEYS POINT TWP
377 BLACKHORSE PK,WILLIAMSTOWN,NJ  ,8094,GLOUCESTER,MONROE TWP
I-295 & NEW JERSEY TPKE ,CARNEYS POINT,NJ  ,8069,SALEM,CARNEYS POINT TWP
215 NEW BROOKLYN RD,WILLIAMSTOWN,NJ  ,8094,GLOUCESTER,MONROE TWP
5601 RT 9,BASS RIVER,NJ  ,8224,BURLINGTON,BASS RIVER TWP
1512 MAYS LANDING BLUE ANCHOR RD,FOLSOM,NJ  ,8037,ATLANTIC,FOLSOM BORO
5695 RT 9,NEW GRETNA,NJ  ,8224,BURLINGTON,BASS RIVER TWP
5724 RT 9,NEW GRETNA,NJ  ,8224,BURLINGTON,BASS RIVER TWP
56 CHESTNUT ST,ELMER,NJ  ,8318,SALEM,ELMER BORO
MAIN ST & FRONT ST,ELMER,NJ  ,8343,SALEM,ELMER BORO
290 HARDING HWY,UPPER PITTSGROVE TWP,NJ  ,8318,SALEM,UPPER PITTSGROVE TWP
118 W MAIN ST,TUCKERTON,NJ  ,8087,OCEAN,TUCKERTON BORO
7 GIFFORD LN,LITTLE EGG HARBOR TWP,NJ  ,8087,OCEAN,LITTLE EGG HARBOR TWP
109 E MAIN ST,TUCKERTON,NJ  ,8087,OCEAN,TUCKERTON BORO
2 BLACKHORSE PK,FOLSOM,NJ  ,8332,ATLANTIC,FOLSOM BORO
330 E MAIN ST,TUCKERTON,NJ  ,8087,OCEAN,TUCKERTON BORO
1986 DELSEA DR,FRANKLINVILLE,NJ  ,8322,GLOUCESTER,FRANKLIN TWP
8101 LONG BEACH BLVD,LONG BEACH,NJ  ,8092,OCEAN,LONG BEACH TWP
1 TROOPERS LN,HAMMONTON,NJ  ,8037,ATLANTIC,HAMMONTON TOWN
950 S WHITEHORSE PK,HAMMONTON,NJ  ,8037,ATLANTIC,HAMMONTON TOWN
700 S BROADWAY,PENNSVILLE,NJ  ,8070,SALEM,PENNSVILLE TWP
880 S WHITEHORSE PK,HAMMONTON,NJ  ,8037,ATLANTIC,HAMMONTON TOWN
760 HARDING HWY,UPPER PITTSGROVE TWP,NJ  ,8318,SALEM,UPPER PITTSGROVE TWP
HARDING HWY & RT 77 CIR,UPPER PITTSGROVE TWP,NJ  ,8318,SALEM,UPPER PITTSGROVE TWP
245 STAFFORD PARK BLVD,STAFFORD TWP,NJ  ,8050,OCEAN,STAFFORD TWP
470 N MAIN ST,MANAHAWKIN,NJ  ,8050,OCEAN,STAFFORD TWP
581 WILLIAMSTOWN NEW FREEDOM RD,SICKLERVILLE,NJ  ,8081,CAMDEN,WINSLOW TWP
2944 FRIES MILL RD,WILLIAMSTOWN,NJ  ,8094,GLOUCESTER,MONROE TWP
350 DELSEA DR,GLASSBORO,NJ  ,8028,GLOUCESTER,GLASSBORO BORO
341 DELSEA DR,GLASSBORO,NJ  ,8028,GLOUCESTER,GLASSBORO BORO
254 SICKLERVILLE RD,WINSLOW TWP,NJ  ,8081,CAMDEN,WINSLOW TWP
ATLANTIC CITY EXPWY MM 39 W,WINSLOW,NJ  ,8081,CAMDEN,WINSLOW TWP
300 WHITEHORSE PK,WINSLOW TWP,NJ  ,8089,CAMDEN,WINSLOW TWP
251 SHELL RD,CARNEYS POINT,NJ  ,8069,SALEM,CARNEYS POINT TWP
521 WILLIAMSTOWN NEW FREEDM RD,SICKLERVILLE,NJ  ,8037,CAMDEN,WINSLOW TWP
336 SICKLERVILLE RD,WINSLOW TWP,NJ  ,8081,CAMDEN,WINSLOW TWP
737 N MAIN ST ,GLASSBORO,NJ  ,8028,GLOUCESTER,GLASSBORO BORO
705 MULLICA HILL GLASSBORO RD,HARRISON TWP,NJ  ,8028,GLOUCESTER,HARRISON TWP
744 RT 206,HAMMONTON TOWN,NJ  ,8037,ATLANTIC,HAMMONTON TOWN
692 DELSEA DR,GLASSBORO,NJ  ,8028,GLOUCESTER,GLASSBORO BORO
400 SICKLERVILLE RD,SICKLERVILLE,NJ  ,8081,CAMDEN,WINSLOW TWP
102 WHITEHORSE PK,WINSLOW TWP,NJ  ,8081,CAMDEN,WINSLOW TWP
631 MULLICA HILL RD,MULLICA HILL,NJ  ,8062,GLOUCESTER,HARRISON TWP
246 FRIES MILL RD,TURNERSVILLE,NJ  ,8012,GLOUCESTER,WASHINGTON TWP
438 WILLIAMSTOWN NEW FREEDOM RD,WINSLOW TWP,NJ  ,8081,CAMDEN,WINSLOW TWP
3441 BLACKHORSE PK,WASHINGTON TWP,NJ  ,8012,GLOUCESTER,WASHINGTON TWP
135 E MAIN ST,PENNS GROVE,NJ  ,8069,SALEM,PENNS GROVE BORO
129 N VIRGINIA AVE,CARNEYS POINT,NJ  ,8069,SALEM,CARNEYS POINT TWP
4 S WOODBURY AVE,PITMAN,NJ  ,8071,GLOUCESTER,PITMAN BORO
20 N WOODBURY AVE,PITMAN,NJ  ,8071,GLOUCESTER,PITMAN BORO
5 WOODBURY GLASSBORO RD ,PITMAN,NJ  ,8071,GLOUCESTER,PITMAN BORO
585 BERLIN CROSS KEYS RD,GLOUCESTER TWP,NJ  ,8009,CAMDEN,GLOUCESTER TWP
4231 BLACKHORSE PK,TURNERSVILLE,NJ  ,8012,GLOUCESTER,WASHINGTON TWP
101 N WOODBURY AVE,PITMAN,NJ  ,8071,GLOUCESTER,PITMAN BORO
690 DELSEA DR,WASHINGTON TWP,NJ  ,8071,GLOUCESTER,WASHINGTON TWP
1 MCCLURE DR,WASHINGTON TWP,NJ  ,8012,GLOUCESTER,WASHINGTON TWP
511 CROSS KEYS RD,GLOUCESTER TWP,NJ  ,8081,CAMDEN,GLOUCESTER TWP
4800 BLACKHORSE PK,TURNERSVILLE,NJ  ,8012,GLOUCESTER,WASHINGTON TWP
1501 KINGS HWY,SWEDESBORO,NJ  ,8085,GLOUCESTER,SWEDESBORO BORO
1801 CENTRAL AVE,BARNEGAT LIGHT,NJ  ,8006,OCEAN,BARNEGAT LIGHT BORO
1700 CENTER SQUARE RD ,LOGAN TWP,NJ  ,8085,GLOUCESTER,LOGAN TWP
401 EGG HARBOR RD,WASHINGTON TWP,NJ  ,8080,GLOUCESTER,WASHINGTON TWP
535 WOODBURY GLASSBORO RD,SEWELL,NJ  ,8080,GLOUCESTER,MANTUA TWP
5150 BLACKHORSE PK,TURNERSVILLE,NJ  ,8012,GLOUCESTER,WASHINGTON TWP
5201 BLACKHORSE PK,TURNERSVILLE,NJ  ,8012,GLOUCESTER,WASHINGTON TWP
13TH ST & BAYVIEW AVE,BARNEGAT LIGHT,NJ  ,8006,OCEAN,BARNEGAT LIGHT BORO
326 SLAPES CORNER RD,CARNEYS POINT,NJ  ,8069,SALEM,CARNEYS POINT TWP
320 RT 72,MANAHAWKIN,NJ  ,8050,OCEAN,STAFFORD TWP
327 SLAPES CORNER RD,CARNEYS POINT,NJ  ,8023,SALEM,CARNEYS POINT TWP
1040 GLASSBORO WILLIAMSTOWN RD,WILLIAMSTOWN,NJ  ,8094,GLOUCESTER,MONROE TWP
136 DELSEA DR,GLASSBORO,NJ  ,8028,GLOUCESTER,GLASSBORO BORO
328 BLACKHORSE PK,MONROE TWP,NJ  ,8065,GLOUCESTER,MONROE TWP
505 BLACKHORSE PK,WILLIAMSTOWN,NJ  ,8094,GLOUCESTER,MONROE TWP
455 SHELL RD,CARNEYS POINT,NJ  ,8069,SALEM,CARNEYS POINT TWP
172 RT 73,BRADDOCK,NJ  ,8037,CAMDEN,WINSLOW TWP
GREENBANK CHATSWORTH RD & PENN PLACE RD,WASHINGTON TWP,NJ  ,8019,BURLINGTON,WASHINGTON TWP
NEW JERSEY TPKE MM 5.4 N,OLDMANS TWP,NJ  ,8067,SALEM,OLDMANS TWP
244 RT 72,MANAHAWKIN,NJ  ,8050,OCEAN,STAFFORD TWP
142 MAIN ST,GLASSBORO BORO,NJ  ,8028,GLOUCESTER,GLASSBORO BORO
748 SICKLERVILLE RD,MONROE TWP,NJ  ,8904,GLOUCESTER,MONROE TWP
428 ELLIS ST,GLASSBORO,NJ  ,8322,GLOUCESTER,GLASSBORO BORO
NEW JERSEY TPKE MM 5.4 S,OLDMANS TWP,NJ  ,8067,SALEM,OLDMANS TWP
125 RT 73,BRADDOCK,NJ  ,8037,CAMDEN,WINSLOW TWP
6 DELSEA DR,GLASSBORO,NJ  ,8028,GLOUCESTER,GLASSBORO BORO
524 RT 72,MANAHAWKIN,NJ  ,8573,OCEAN,STAFFORD TWP
555 RT 72 ,STAFFORD TWP,NJ  ,8721,OCEAN,STAFFORD TWP
100 DELSEA DR,GLASSBORO,NJ  ,8028,GLOUCESTER,GLASSBORO BORO
541 KINGS HWY,WOOLWICH TWP,NJ  ,8085,GLOUCESTER,WOOLWICH TWP
5321 BLACKHORSE PK,WASHINGTON TWP,NJ  ,8012,GLOUCESTER,WASHINGTON TWP
784 W BAY AVE,BARNEGAT,NJ  ,8005,OCEAN,BARNEGAT TWP
5440 BLACKHORSE PK,WASHINGTON TWP,NJ  ,8032,GLOUCESTER,WASHINGTON TWP
866 W BAY AVE,BARNEGAT,NJ  ,8005,OCEAN,BARNEGAT TWP
GARDEN STATE PKWY MM 68,BARNEGAT,NJ  ,8005,OCEAN,BARNEGAT TWP
NEW JERSEY TPKE MM 13.0 N,WOOLWICH TWP,NJ  ,8085,GLOUCESTER,WOOLWICH TWP
945 W BAY AVE,BARNEGAT,NJ  ,8005,OCEAN,BARNEGAT TWP
1111 RT 322,WOOLWICH TWP,NJ  ,8085,GLOUCESTER,WOOLWICH TWP
19 6TH ST ,BARNEGAT LIGHT,NJ  ,8006,OCEAN,BARNEGAT LIGHT BORO
123 PAULSBORO SWEDESBORO RD,WOOLWICH TWP,NJ  ,8085,GLOUCESTER,WOOLWICH TWP
1705 CENTER SQUARE RD ,LOGAN TWP,NJ  ,8085,GLOUCESTER,LOGAN TWP
5880 BLACKHORSE PK,TURNERSVILLE,NJ  ,8012,GLOUCESTER,WASHINGTON TWP
2011 RT 322 ,WOOLWICH TWP,NJ  ,8085,GLOUCESTER,WOOLWICH TWP
6001 BLACKHORSE PK,TURNERSVILLE,NJ  ,8012,GLOUCESTER,WASHINGTON TWP
400 WHITEHORSE PK,ATCO,NJ  ,8004,CAMDEN,WATERFORD TWP
698 WOODBURY GLASSBORO RD,SEWELL,NJ  ,8080,GLOUCESTER,MANTUA TWP
2722 SICKLERVILLE RD,SICKLERVILLE,NJ  ,8081,CAMDEN,GLOUCESTER TWP
800 TURNERVILLE RD,PINE HILL,NJ  ,8021,CAMDEN,PINE HILL BORO
144 CROSS KEYS RD,WINSLOW TWP,NJ  ,8009,CAMDEN,WINSLOW TWP
208 JACKSON RD,ATCO,NJ  ,8004,CAMDEN,WATERFORD TWP
21 COHAWKIN RD,EAST GREENWICH TWP,NJ  ,8020,GLOUCESTER,EAST GREENWICH TWP
1106 MANTUA PK,DEPTFORD TWP,NJ  ,8800,GLOUCESTER,DEPTFORD TWP
1680 BLACKWOOD CLEMENTON RD,GLOUCESTER TWP,NJ  ,8012,CAMDEN,GLOUCESTER TWP
201 WHITEHORSE PK ,BERLIN,NJ  ,8009,CAMDEN,BERLIN BORO
1685 BLACKWOOD CLEMENTON RD,GLOUCESTER TWP,NJ  ,8012,CAMDEN,GLOUCESTER TWP
1400 BLACKWOOD CLEMENTON RD,GLOUCESTER TWP,NJ  ,8021,CAMDEN,GLOUCESTER TWP
119 RT 73,BERLIN TWP,NJ  ,8091,CAMDEN,BERLIN TWP
1431 BLACKWOOD CLEMENTON RD,GLOUCESTER TWP,NJ  ,8012,CAMDEN,GLOUCESTER TWP
1205 LAUREL RD,LINDENWOLD,NJ  ,8021,CAMDEN,LINDENWOLD BORO
1545 HURFFVILLE RD,DEPTFORD TWP,NJ  ,8096,GLOUCESTER,DEPTFORD TWP
229 KINGS HWY,EAST GREENWICH TWP,NJ  ,8020,GLOUCESTER,EAST GREENWICH TWP
100 CHEWS LANDING RD,CLEMENTON,NJ  ,8021,CAMDEN,CLEMENTON BORO
1070 MANTUA AVE,DEPTFORD TWP,NJ  ,8096,GLOUCESTER,DEPTFORD TWP
250 RT 73,BERLIN TWP,NJ  ,8091,CAMDEN,BERLIN TWP
1231 RT 206,SHAMONG TWP,NJ  ,8088,BURLINGTON,SHAMONG TWP
1496 HURFFVILLE RD,DEPTFORD TWP,NJ  ,8096,GLOUCESTER,DEPTFORD TWP
398 RT 73,WEST BERLIN,NJ  ,8091,CAMDEN,BERLIN TWP
1500 LAUREL AVE,LINDENWOLD,NJ  ,8021,CAMDEN,LINDENWOLD BORO
12 WHITEHORSE PK,CLEMENTON,NJ  ,8021,CAMDEN,CLEMENTON BORO
800 BLACKHORSE PK,BLACKWOOD,NJ  ,8012,CAMDEN,GLOUCESTER TWP
575 FOX RUN RD,DEPTFORD TWP,NJ  ,8096,GLOUCESTER,DEPTFORD TWP
851 WHITEHORSE PK,LINDENWOLD,NJ  ,8021,CAMDEN,LINDENWOLD BORO
2311 EGG HARBOR RD,LINDENWOLD,NJ  ,8021,CAMDEN,LINDENWOLD BORO
421 WHITEHORSE PK,LINDENWOLD,NJ  ,8021,CAMDEN,LINDENWOLD BORO
304 WHITEHORSE PK,LINDENWOLD,NJ  ,8021,CAMDEN,LINDENWOLD BORO
1400 HURFFVILLE RD,DEPTFORD TWP,NJ  ,8096,GLOUCESTER,DEPTFORD TWP
1395 HURFFVILLE RD,DEPTFORD TWP,NJ  ,8096,GLOUCESTER,DEPTFORD TWP
775 TANYARD RD,WOODBURY HEIGHTS,NJ  ,8096,GLOUCESTER,WOODBURY HEIGHTS BORO
897 MANTUA PK,WEST DEPTFORD TWP,NJ  ,8096,GLOUCESTER,WEST DEPTFORD TWP
594 RT 73 ,BERLIN TWP,NJ  ,8091,CAMDEN,BERLIN TWP
171 BERKLEY AVE,EAST GREENWICH TWP,NJ  ,8066,GLOUCESTER,EAST GREENWICH TWP
874 MANTUA AVE,WOODBURY HEIGHTS BORO,NJ  ,8097,GLOUCESTER,WOODBURY HEIGHTS BORO
500 GIBBSBORO RD,LINDENWOLD,NJ  ,8021,CAMDEN,LINDENWOLD BORO
1280 CHEWS LANDING RD,GLOUCESTER TWP,NJ  ,8030,CAMDEN,GLOUCESTER TWP
94 S DELAWARE ST,PAULSBORO,NJ  ,8066,GLOUCESTER,PAULSBORO BORO
856 MANTUA PK,WOODBURY HEIGHTS,NJ  ,8097,GLOUCESTER,WOODBURY HEIGHTS BORO
161 167 HURFFVILLE RD,DEPTFORD TWP,NJ  ,8096,GLOUCESTER,DEPTFORD TWP
51 BERKLEY RD,PAULSBORO,NJ  ,8066,GLOUCESTER,PAULSBORO BORO
1295 HURFFVILLE RD,DEPTFORD TWP,NJ  ,8096,GLOUCESTER,DEPTFORD TWP
1414 BLACKHORSE PK,GLOUCESTER TWP,NJ  ,8029,CAMDEN,GLOUCESTER TWP
1305 COOPER ST,DEPTFORD TWP,NJ  ,8096,GLOUCESTER,DEPTFORD TWP
520 MANTUA BLVD,MANTUA,NJ  ,8080,GLOUCESTER,MANTUA TWP
109 DELSEA DR,WASHINGTON TWP,NJ  ,8080,GLOUCESTER,WASHINGTON TWP
108 DELSEA DR,HURFFVILLE,NJ  ,8080,GLOUCESTER,WASHINGTON TWP
101 CROSS KEYS RD ,PINE HILL BORO,NJ  ,8009,CAMDEN,PINE HILL BORO
406 412 RT 9,OCEAN TWP,NJ  ,8758,OCEAN,OCEAN TWP
898 RT 73,BERLIN TWP,NJ  ,8009,CAMDEN,BERLIN TWP
899 RT 73,WEST BERLIN,NJ  ,8019,CAMDEN,BERLIN TWP
101 BALTIC AVE,OCEAN TWP,NJ  ,8758,OCEAN,OCEAN TWP
64 RAILROAD AVE,WARETOWN,NJ  ,8758,OCEAN,OCEAN TWP
912 BLACKHORSE PK S,BLACKWOOD,NJ  ,8012,CAMDEN,GLOUCESTER TWP
1729 ERIAL RD,GLOUCESTER TWP,NJ  ,8012,CAMDEN,GLOUCESTER TWP
249 ERIAL RD,PINE HILL,NJ  ,8021,CAMDEN,PINE HILL BORO
104 MAIN ST,WARETOWN,NJ  ,8758,OCEAN,OCEAN TWP
1027 ERIAL RD,BLACKWOOD,NJ  ,8012,CAMDEN,GLOUCESTER TWP
100 DAVISTOWN RD,GLOUCESTER TWP,NJ  ,8012,CAMDEN,GLOUCESTER TWP
850 ERIAL RD,GLOUCESTER TWP,NJ  ,8012,CAMDEN,GLOUCESTER TWP
33 WHITEHORSE PK,BERLIN,NJ  ,8009,CAMDEN,BERLIN BORO
3 HAINES AVE,BERLIN,NJ  ,8009,CAMDEN,BERLIN BORO
RT 73 & BEECH AVE,BERLIN,NJ  ,8009,CAMDEN,BERLIN BORO
302 BLACKHORSE PK,BLACKWOOD,NJ  ,8012,CAMDEN,GLOUCESTER TWP
528 530 RT 9,WARETOWN,NJ  ,8758,OCEAN,OCEAN TWP
2 BROADWAY & WHITEHORSE PK,LAUREL SPRINGS,NJ  ,8021,CAMDEN,LAUREL SPRINGS BORO
1803 S DELAWARE ST,PAULSBORO,NJ  ,8066,GLOUCESTER,PAULSBORO BORO
651 S EVERGREEN AVE,WOODBURY,NJ  ,8096,GLOUCESTER,WOODBURY CITY
362 E LACEY RD,FORKED RIVER,NJ  ,8731,OCEAN,LACEY TWP
537 S EVERGREEN AVE,WOODBURY,NJ  ,8096,GLOUCESTER,WOODBURY CITY
642 BROAD ST,PAULSBORO,NJ  ,8066,GLOUCESTER,PAULSBORO BORO
1100 COOPER ST,DEPTFORD TWP,NJ  ,8096,GLOUCESTER,DEPTFORD TWP
839 KINGS HWY,WEST DEPTFORD TWP,NJ  ,8096,GLOUCESTER,WEST DEPTFORD TWP
526 W BROAD ST,PAULSBORO,NJ  ,8066,GLOUCESTER,PAULSBORO BORO
222 MARINE PLAZA,FORKED RIVER,NJ  ,8731,OCEAN,LACEY TWP
1396 DELSEA DR,DEPTFORD TWP,NJ  ,8096,GLOUCESTER,DEPTFORD TWP
75 WHITEHORSE PK,STRATFORD,NJ  ,8084,CAMDEN,STRATFORD BORO
212 S EVERGREEN AVE,WOODBURY,NJ  ,8096,GLOUCESTER,WOODBURY CITY
1910 DEPTFORD CENTER RD,DEPTFORD TWP,NJ  ,8096,GLOUCESTER,DEPTFORD TWP
MANTUA AVE & SALEM AVE,WOODBURY,NJ  ,8096,GLOUCESTER,WOODBURY CITY
129 RT 73,VOORHEES,NJ  ,8043,CAMDEN,VOORHEES TWP
1 WHITEHORSE PK,STRATFORD,NJ  ,8084,CAMDEN,STRATFORD BORO
WHITEHORSE PK & PINELAWN AVE,LINDENWOLD,NJ  ,8021,CAMDEN,LINDENWOLD BORO
2000 CLEMENTS BRIDGE RD ,DEPTFORD TWP,NJ  ,8096,GLOUCESTER,DEPTFORD TWP
RT 561 & CLEMENTON AVE,GIBBSBORO,NJ  ,8026,CAMDEN,GIBBSBORO BORO
I-295 & RT 130,WEST DEPTFORD TWP,NJ  ,8086,GLOUCESTER,WEST DEPTFORD TWP
NEW JERSEY TPKE ROW & ROSE AVE,RUNNEMEDE,NJ  ,8078,CAMDEN,RUNNEMEDE BORO
18 HADDONFIELD BERLIN RD,VOORHEES,NJ  ,8043,CAMDEN,VOORHEES TWP
602 RT 9,LANOKA HARBOR,NJ  ,8734,OCEAN,LACEY TWP
339 345 WHITEHORSE PK,MAGNOLIA,NJ  ,8049,CAMDEN,MAGNOLIA BORO
800 LACEY RD,LACEY TWP,NJ  ,8731,OCEAN,LACEY TWP
7 BURNT MILL RD,CHERRY HILL,NJ  ,8003,CAMDEN,CHERRY HILL TWP
3 BERLIN RD,VOORHEES TWP,NJ  ,8043,CAMDEN,VOORHEES TWP
1607 EVESHAM RD,VOORHEES,NJ  ,8043,CAMDEN,VOORHEES TWP
1241 1253 BLACKHORSE PK,RUNNEMEDE,NJ  ,8078,CAMDEN,RUNNEMEDE BORO
502 LAUREL BLVD,LACEY,NJ  ,8734,OCEAN,LACEY TWP
930 LACEY RD,FORKED RIVER,NJ  ,8731,OCEAN,LACEY TWP
701 N MAIN ST,LACEY TWP,NJ  ,8731,OCEAN,LACEY TWP
9 MUNICIPAL LN,FORKED RIVER,NJ  ,8731,OCEAN,LACEY TWP
80 HELLER PL,BELLMAWR,NJ  ,8031,CAMDEN,BELLMAWR BORO
RT 42 & LEAF AVE,BELLMAWR,NJ  ,8031,CAMDEN,BELLMAWR BORO
1100 HESSIAN AVE,NATIONAL PARK,NJ  ,8063,GLOUCESTER,NATIONAL PARK BORO
220 BLACKHORSE PK,BELLMAWR,NJ  ,8031,CAMDEN,BELLMAWR BORO
700 CLEMENTS BRIDGE RD,BARRINGTON,NJ  ,8007,CAMDEN,BARRINGTON BORO
121 BLACKHORSE PK,BELLMAWR,NJ  ,8031,CAMDEN,BELLMAWR BORO
112 EDGEWOOD AVE,BELLMAWR BORO,NJ  ,8031,CAMDEN,BELLMAWR BORO
716 STOKES RD,MEDFORD,NJ  ,8055,BURLINGTON,MEDFORD TWP
1 CREEK RD,BELLMAWR,NJ  ,8031,CAMDEN,BELLMAWR BORO
BAYWAY AVE,LANOKA HARBOR,NJ  ,8734,OCEAN,LACEY TWP
111 WHITEHORSE PK,LAWNSIDE,NJ  ,8999,CAMDEN,LAWNSIDE BORO
888 BAYWAY AVE,LANOKA HARBOR,NJ  ,8734,OCEAN,LACEY TWP
65 BLACKHORSE PK,BELLMAWR,NJ  ,8031,CAMDEN,BELLMAWR BORO
210 TUCKERTON RD,MEDFORD,NJ  ,8055,BURLINGTON,MEDFORD TWP
103 TAUNTON BLVD,MEDFORD TWP,NJ  ,8055,BURLINGTON,MEDFORD TWP
1040 CREEK RD,BELLMAWR,NJ  ,8099,CAMDEN,BELLMAWR BORO
132 BLACKHORSE PK,BELLMAWR,NJ  ,8543,CAMDEN,BELLMAWR BORO
314 WHITEHORSE PK,LAWNSIDE,NJ  ,8045,CAMDEN,LAWNSIDE BORO
GARDEN STATE PKWY MM 76.0,LACEY TWP,NJ  ,8731,OCEAN,LACEY TWP
I-295 & BLACKHORSE PK,MOUNT EPHRAIM,NJ  ,8059,CAMDEN,MOUNT EPHRAIM BORO
305 BLACKHORSE PK,MOUNT EPHRAIM,NJ  ,8059,CAMDEN,MOUNT EPHRAIM BORO
STOKES RD & JACKSON RD,MEDFORD TWP,NJ  ,8055,BURLINGTON,MEDFORD TWP
342 RT 130,BROOKLAWN,NJ  ,8030,CAMDEN,BROOKLAWN BORO
1401 HADDONFLD BERLIN RD,CHERRY HILL,NJ  ,8034,CAMDEN,CHERRY HILL TWP
299 CRESCENT BLVD ,BROOKLAWN,NJ  ,8030,CAMDEN,BROOKLAWN BORO
CRESCENT BLVD & BROOKLAWN CIR,BROOKLAWN,NJ  ,8030,CAMDEN,BROOKLAWN BORO
504 506 WHITEHORSE PK,HADDON HEIGHTS,NJ  ,8035,CAMDEN,HADDON HEIGHTS BORO
1498 HADDONFIELD BERLIN RD,CHERRY HILL,NJ  ,8034,CAMDEN,CHERRY HILL TWP
706 BROWNING RD,BROOKLAWN,NJ  ,8030,CAMDEN,BROOKLAWN BORO
941 RT 9,BAYVILLE,NJ  ,8721,OCEAN,BERKELEY TWP
500 N BROAD ST,WOODBURY,NJ  ,8096,GLOUCESTER,WOODBURY CITY
2 N WHITEHORSE PK,SOMERDALE,NJ  ,8083,CAMDEN,SOMERDALE BORO
GRAVELLY HOLLOW RD,MEDFORD TWP,NJ  ,8055,BURLINGTON,MEDFORD TWP
1100 HADDONFIELD BERLIN RD,VOORHEES,NJ  ,8043,CAMDEN,VOORHEES TWP
196 CROWN POINT RD ,WEST DEPTFORD TWP,NJ  ,8086,GLOUCESTER,WEST DEPTFORD TWP
846 N BROAD ST,WOODBURY,NJ  ,8096,GLOUCESTER,WOODBURY CITY
341 RT 9,FORKED RIVER,NJ  ,8734,OCEAN,LACEY TWP
118 BLACKHORSE PK,RUNNEMEDE,NJ  ,8078,CAMDEN,RUNNEMEDE BORO
819 W EVESHAM RD,MAGNOLIA,NJ  ,8049,CAMDEN,MAGNOLIA BORO
819 EVESHAM RD,MAGNOLIA,NJ  ,8049,CAMDEN,MAGNOLIA BORO
1524 1528 RT 206,TABERNACLE,NJ  ,8088,BURLINGTON,TABERNACLE TWP
405 CLEMENTS BRIDGE RD,RUNNEMEDE,NJ  ,8078,CAMDEN,RUNNEMEDE BORO
303 WHITEHORSE PK,MAGNOLIA,NJ  ,8049,CAMDEN,MAGNOLIA BORO
I-295 & RT 130,WEST DEPTFORD TWP,NJ  ,8086,GLOUCESTER,WEST DEPTFORD TWP
1058 DELSEA DR,WESTVILLE,NJ  ,8096,GLOUCESTER,WESTVILLE BORO
945 RED BANK AVE,THOROFARE,NJ  ,8086,GLOUCESTER,WEST DEPTFORD TWP
1553 RT 206 ,TABERNACLE,NJ  ,8088,BURLINGTON,TABERNACLE TWP
105 WHITE HORSE PK,MAGNOLIA,NJ  ,8049,CAMDEN,MAGNOLIA BORO
825 BLACKHORSE PK,RUNNEMEDE,NJ  ,8078,CAMDEN,RUNNEMEDE BORO
212 BARRETT AVE,MAGNOLIA,NJ  ,8049,CAMDEN,MAGNOLIA BORO
1010 DELSEA DR,DEPTFORD TWP,NJ  ,8093,GLOUCESTER,DEPTFORD TWP
1716 RT 206,SOUTHAMPTON TWP,NJ  ,8088,BURLINGTON,SOUTHAMPTON TWP
135 E MAIN ST,EVESHAM TWP,NJ  ,8053,BURLINGTON,EVESHAM TWP
298 BUTLER BLVD,BAYVILLE,NJ  ,8721,OCEAN,BERKELEY TWP
NEW JERSEY TPKE MM 29.0 S & MM 30 ,CHERRY HILL TWP,NJ  ,8101,CAMDEN,CHERRY HILL TWP
RT 73 & MAPLE AVE,EVESHAM TWP,NJ  ,8053,BURLINGTON,EVESHAM TWP
750 KINGS HWY,AUDUBON,NJ  ,8106,CAMDEN,AUDUBON BORO
602 BLACKHORSE PK,MOUNT EPHRAIM,NJ  ,8059,CAMDEN,MOUNT EPHRAIM BORO
1771 RT 206,VINCENTOWN,NJ  ,8088,BURLINGTON,SOUTHAMPTON TWP
798 HADDENFIELD BERLIN RD,CHERRY HILL,NJ  ,8034,CAMDEN,CHERRY HILL TWP
620 KRESSON RD,CHERRY HILL,NJ  ,8034,CAMDEN,CHERRY HILL TWP
200 HADDONFIELD BERLIN RD,CHERRY HILL,NJ  ,8034,CAMDEN,CHERRY HILL TWP
768 RT 9,BAYVILLE,NJ  ,8721,OCEAN,BERKELEY TWP
80 RT 70,MARLTON,NJ  ,8053,BURLINGTON,EVESHAM TWP
300 KRESSON RD,CHERRY HILL TWP,NJ  ,8034,CAMDEN,CHERRY HILL TWP
174 BROADWAY,GLOUCESTER CITY,NJ  ,8999,CAMDEN,GLOUCESTER CITY
1400 BRACE RD,CHERRY HILL,NJ  ,8034,CAMDEN,CHERRY HILL TWP
250 336 RT 70 W,MARLTON,NJ  ,8053,BURLINGTON,EVESHAM TWP
210 RT 70,MARLTON,NJ  ,8053,BURLINGTON,EVESHAM TWP
145 S BROADWAY,GLOUCESTER CITY,NJ  ,8030,CAMDEN,GLOUCESTER CITY
787 RT 70,MARLTON,NJ  ,8053,BURLINGTON,EVESHAM TWP
257 NICHOLSON RD,AUDUBON,NJ  ,8106,CAMDEN,AUDUBON BORO
1849 MARLTON PK,CHERRY HILL,NJ  ,8002,CAMDEN,CHERRY HILL TWP
1823 MARLTON PK,CHERRY HILL,NJ  ,8003,CAMDEN,CHERRY HILL TWP
1824 1840 MARLTON PK,CHERRY HILL,NJ  ,8003,CAMDEN,CHERRY HILL TWP
CRESCENT BLVD & ELDRIDGE ST,HADDON TWP,NJ  ,8107,CAMDEN,HADDON TWP
RED LION RD,VINCENTOWN,NJ  ,8088,BURLINGTON,SOUTHAMPTON TWP
339 HADDON AVE,WESTMONT,NJ  ,8108,CAMDEN,HADDON TWP
124 MEDFORD MT HOLLY RD,MEDFORD,NJ  ,8055,BURLINGTON,MEDFORD TWP
2920 CRESCENT BLVD,HADDON TWP,NJ  ,8108,CAMDEN,HADDON TWP
2885 MT EPHRAIM AVE,CAMDEN,NJ  ,8104,CAMDEN,CAMDEN CITY
1503 MARLTON PK,CHERRY HILL,NJ  ,8034,CAMDEN,CHERRY HILL TWP
1390 E MARLTON PK,CHERRY HILL,NJ  ,8034,CAMDEN,CHERRY HILL TWP
50 HADDON AVE,HADDON TWP,NJ  ,8002,CAMDEN,HADDON TWP
1000 MARLTON PK,CHERRY HILL TWP,NJ  ,8002,CAMDEN,CHERRY HILL TWP
701 CRESCENT BLVD,COLLINGSWOOD,NJ  ,8360,CAMDEN,COLLINGSWOOD BORO
270 GREENTREE RD,MARLTON,NJ  ,8053,BURLINGTON,EVESHAM TWP
2061 SPRINGDALE RD,CHERRY HILL,NJ  ,8003,CAMDEN,CHERRY HILL TWP
2 MARLTON PK,CHERRY HILL,NJ  ,8002,CAMDEN,CHERRY HILL TWP
580 CRESCENT BLVD,COLLINGSWOOD,NJ  ,8107,CAMDEN,COLLINGSWOOD BORO
550 CRESCENT BLVD,COLLINGSWOOD,NJ  ,8108,CAMDEN,COLLINGSWOOD BORO
1605 KINGS HWY,CHERRY HILL,NJ  ,8101,CAMDEN,CHERRY HILL TWP
1508 KINGS HWY,CHERRY HILL,NJ  ,8002,CAMDEN,CHERRY HILL TWP
4525 CHURCH RD,MOUNT LAUREL TWP,NJ  ,8054,BURLINGTON,MOUNT LAUREL TWP
1010 MARLTON PK,CHERRY HILL,NJ  ,8002,CAMDEN,CHERRY HILL TWP
385 RT 9,BAYVILLE,NJ  ,8721,OCEAN,BERKELEY TWP
2100 MT EPHRAIM AVE,WOODLYNNE,NJ  ,8108,CAMDEN,WOODLYNNE BORO
1212 KINGS HWY ,CHERRY HILL,NJ  ,8034,CAMDEN,CHERRY HILL TWP
1820 MARLTON PK,CHERRY HILL,NJ  ,8034,CAMDEN,CHERRY HILL TWP
MARLTON PK & BEIDEMAN AVE,CHERRY HILL,NJ  ,8002,CAMDEN,CHERRY HILL TWP
1201 RT 73,MOUNT LAUREL TWP,NJ  ,8054,BURLINGTON,MOUNT LAUREL TWP
220 RT 9,BAYVILLE,NJ  ,8721,OCEAN,BERKELEY TWP
1110 RT 73,MOUNT LAUREL TWP,NJ  ,8054,BURLINGTON,MOUNT LAUREL TWP
1115 RT 73,MOUNT LAUREL TWP,NJ  ,8054,BURLINGTON,MOUNT LAUREL TWP
141 ATLANTIC CITY BLVD,BAYVILLE,NJ  ,8721,OCEAN,BERKELEY TWP
400 RT 9,PINE BEACH,NJ  ,8741,OCEAN,PINE BEACH BORO
8005 CRESCENT BLVD S,PENNSAUKEN,NJ  ,8110,CAMDEN,PENNSAUKEN TWP
36 CHURCH RD,MAPLE SHADE,NJ  ,8052,BURLINGTON,MAPLE SHADE TWP
921 FELLOWSHIP RD,MOUNT LAUREL TWP,NJ  ,8054,BURLINGTON,MOUNT LAUREL TWP
1033 KAIGHNS AVE,CAMDEN,NJ  ,8105,CAMDEN,CAMDEN CITY
912 RT 73,MOUNT LAUREL TWP,NJ  ,8054,BURLINGTON,MOUNT LAUREL TWP
5252 MARLTON PK,PENNSAUKEN,NJ  ,8110,CAMDEN,PENNSAUKEN TWP
500 HADDONFIELD RD,CHERRY HILL,NJ  ,8034,CAMDEN,CHERRY HILL TWP
5221 RT 70,PENNSAUKEN,NJ  ,8109,CAMDEN,PENNSAUKEN TWP
5420 RT 38,PENNSAUKEN,NJ  ,8109,CAMDEN,PENNSAUKEN TWP
500 CRESCENT BLVD,GLOUCESTER CITY,NJ  ,8030,CAMDEN,HADDON TWP
501 NICHOLSON RD,HADDON TWP,NJ  ,8108,CAMDEN,HADDON TWP
501 CRESCENT BLVD,HADDON TWP,NJ  ,8030,CAMDEN,HADDON TWP
771 RT 70,MARLTON,NJ  ,8053,BURLINGTON,EVESHAM TWP
18 RT 72,WOODLAND TWP,NJ  ,8088,BURLINGTON,WOODLAND TWP
925 RT 70,MARLTON,NJ  ,8053,BURLINGTON,EVESHAM TWP
929 RT 70,EVESHAM TWP,NJ  ,8053,BURLINGTON,EVESHAM TWP
21 WHITEHORSE PK,AUDUBON,NJ  ,8512,CAMDEN,AUDUBON BORO
160 RT 73,EVESHAM TWP,NJ  ,8053,BURLINGTON,EVESHAM TWP
150 BLACKHORSE PK,WEST COLLINGSWOOD,NJ  ,8059,CAMDEN,HADDON TWP
670 ATLANTIC CITY BLVD,BAYVILLE,NJ  ,8721,OCEAN,BERKELEY TWP
132 RT 70,MEDFORD TWP,NJ  ,8055,BURLINGTON,MEDFORD TWP
1 CHAIRVILLE RD,MEDFORD,NJ  ,8055,BURLINGTON,MEDFORD TWP
1 PERINA BLVD,CHERRY HILL,NJ  ,8101,CAMDEN,CHERRY HILL TWP
720 WHITEHORSE PK,OAKHURST,NJ  ,8107,CAMDEN,OAKLYN BORO
257 RT 70,MEDFORD,NJ  ,8053,BURLINGTON,MEDFORD TWP
1869 1898 MARLTON PK,CHERRY HILL,NJ  ,8002,CAMDEN,CHERRY HILL TWP
302 COLLONGSWOOD AVE,OAKHURST,NJ  ,8107,CAMDEN,OAKLYN BORO
1155 157 MARLKRESS RD,CHERRY HILL,NJ  ,8034,CAMDEN,CHERRY HILL TWP
576 CUTHBERT BLVD,WESTMONT,NJ  ,8108,CAMDEN,HADDON TWP
515 HADDON AVE,HADDONFIELD,NJ  ,8033,CAMDEN,HADDONFIELD BORO
2474 BAIRD BLVD,CAMDEN,NJ  ,8105,CAMDEN,CAMDEN CITY
600 RT 38 ,MAPLE SHADE TWP,NJ  ,8052,BURLINGTON,MAPLE SHADE TWP
330 MT LAUREL RD,MOUNT LAUREL TWP,NJ  ,8054,BURLINGTON,MOUNT LAUREL TWP
597 RT 38 ,MAPLE SHADE TWP,NJ  ,8052,BURLINGTON,MAPLE SHADE TWP
2213 2217 FEDERAL ST,CAMDEN,NJ  ,8105,CAMDEN,CAMDEN CITY
7TH ST & COOPER ST,CAMDEN,NJ  ,8102,CAMDEN,CAMDEN CITY
698 COOPER ST,CAMDEN,NJ  ,8103,CAMDEN,CAMDEN CITY
587 KINGS HWY ,MAPLE SHADE,NJ  ,8052,BURLINGTON,MAPLE SHADE TWP
50 54 HADDENFIELD RD,CHERRY HILL,NJ  ,8002,CAMDEN,CHERRY HILL TWP
100 KINGS HWY,MAPLE SHADE,NJ  ,8052,BURLINGTON,MAPLE SHADE TWP
2920 RT 73 ,MAPLE SHADE,NJ  ,8052,BURLINGTON,MAPLE SHADE TWP
3006 RT 37,TOMS RIVER,NJ  ,8753,OCEAN,TOMS RIVER TWP
1677 RT 37,ISLAND HEIGHTS BORO,NJ  ,8732,OCEAN,ISLAND HEIGHTS BORO
1693 RT 37,ISLAND HEIGHTS BORO,NJ  ,8732,OCEAN,ISLAND HEIGHTS BORO
1690 RT 37,TOMS RIVER,NJ  ,8753,OCEAN,TOMS RIVER TWP
1000 MAPLE AVE,CHERRY HILL,NJ  ,8034,CAMDEN,CHERRY HILL TWP
100 LACEY RD,WHITING,NJ  ,8759,OCEAN,MANCHESTER TWP
538 LAKEHURST RD,BROWNS MILLS,NJ  ,8015,BURLINGTON,PEMBERTON TWP
121 RT 539,MANCHESTER TWP,NJ  ,8759,OCEAN,MANCHESTER TWP
4998 CRESCENT BLVD,PENNSAUKEN,NJ  ,8109,CAMDEN,PENNSAUKEN TWP
6501 PARK AVE,PENNSAUKEN,NJ  ,8109,CAMDEN,PENNSAUKEN TWP
201 RT 38,MOORESTOWN,NJ  ,8057,BURLINGTON,MOORESTOWN TWP
106 112 MAIN ST,MAPLE SHADE TWP,NJ  ,8052,BURLINGTON,MAPLE SHADE TWP
440 RT 37,TOMS RIVER,NJ  ,8756,OCEAN,TOMS RIVER TWP
NEW JERSEY TPKE MM 38.0 N,MOUNT LAUREL TWP,NJ  ,8054,BURLINGTON,MOUNT LAUREL TWP
1919 BAY BLVD,ORTLEY BEACH,NJ  ,8751,OCEAN,TOMS RIVER TWP
605 FISCHER BLVD,TOMS RIVER,NJ  ,8753,OCEAN,TOMS RIVER TWP
370 RT 37,DOVER TWP,NJ  ,8753,OCEAN,TOMS RIVER TWP
201 CAMDEN AVE,MOORESTOWN TWP,NJ  ,8057,BURLINGTON,MOORESTOWN TWP
107 W CAMDEN AVE,LENOLA,NJ  ,8057,BURLINGTON,MOORESTOWN TWP
100 MT LAUREL RD,MOUNT LAUREL TWP,NJ  ,8054,BURLINGTON,MOUNT LAUREL TWP
1180 RT 70,WHITING,NJ  ,8759,OCEAN,MANCHESTER TWP
281 RT 37,TOMS RIVER,NJ  ,8753,OCEAN,TOMS RIVER TWP
401 MT LAUREL RD,MOORESTOWN,NJ  ,8057,BURLINGTON,MOORESTOWN TWP
253 W MAIN ST,MOORESTOWN,NJ  ,8057,BURLINGTON,MOORESTOWN TWP
179 RT 37,DOVER TWP,NJ  ,8753,OCEAN,TOMS RIVER TWP
13 RT 37 ,DOVER TWP,NJ  ,8753,OCEAN,TOMS RIVER TWP
2007 GRAND CENTRAL AVE,LAVALLETTE,NJ  ,8735,OCEAN,LAVALLETTE BORO
3611 RIVER RD,PENNSAUKEN,NJ  ,8110,CAMDEN,PENNSAUKEN TWP
3034 3400 RT 73,MAPLE SHADE TWP,NJ  ,8052,BURLINGTON,MAPLE SHADE TWP
6725 WAYNE AVE,PENNSAUKEN,NJ  ,8110,CAMDEN,PENNSAUKEN TWP
58 RT 37,TOMS RIVER,NJ  ,8753,OCEAN,TOMS RIVER TWP
7300 S CRESCENT BLVD,PENNSAUKEN,NJ  ,8109,CAMDEN,PENNSAUKEN TWP
5301 KAIGHN AVE,PENNSAUKEN,NJ  ,8110,CAMDEN,PENNSAUKEN TWP
544 RT 9,BEACHWOOD,NJ  ,8722,OCEAN,BEACHWOOD BORO
500 RT 38,CHERRY HILL TWP,NJ  ,8002,CAMDEN,CHERRY HILL TWP
710 BROADWAY,CAMDEN,NJ  ,8103,CAMDEN,CAMDEN CITY
6850 CRESCENT BLVD,PENNSAUKEN,NJ  ,8110,CAMDEN,PENNSAUKEN TWP
1501 RT 38,CHERRY HILL,NJ  ,8034,CAMDEN,CHERRY HILL TWP
6807 CRESCENT BLVD,PENNSAUKEN,NJ  ,8110,CAMDEN,PENNSAUKEN TWP
2802 RT 73 ,MAPLE SHADE,NJ  ,8052,BURLINGTON,MAPLE SHADE TWP
1510 RT 38,CHERRY HILL,NJ  ,8002,CAMDEN,CHERRY HILL TWP
2811 RT 73,MAPLE SHADE TWP,NJ  ,8052,BURLINGTON,MAPLE SHADE TWP
6711 CRESCENT BLVD,PENNSAUKEN,NJ  ,8110,CAMDEN,PENNSAUKEN TWP
2225 ADMIRAL WILSON BLVD,CAMDEN,NJ  ,8105,CAMDEN,CAMDEN CITY
2815 RT 73,MAPLE SHADE,NJ  ,8052,BURLINGTON,MAPLE SHADE TWP
4695 LENOLA RD,MAPLE SHADE,NJ  ,8052,BURLINGTON,MAPLE SHADE TWP
10 LAKE DR,ISLAND HEIGHTS BORO,NJ  ,8732,OCEAN,ISLAND HEIGHTS BORO
1901 ADMIRAL WILSON BLVD,CAMDEN,NJ  ,8102,CAMDEN,CAMDEN CITY
1839 ADMIRAL WILSON BLVD,CAMDEN,NJ  ,8109,CAMDEN,CAMDEN CITY
400 RT 38 E,MAPLE SHADE,NJ  ,8052,BURLINGTON,MAPLE SHADE TWP
721 CHURCH ST,MOUNT LAUREL,NJ  ,8054,BURLINGTON,MOUNT LAUREL TWP
1420 ADMIRAL WILSON BLVD,CAMDEN,NJ  ,8105,CAMDEN,CAMDEN CITY
475 RT 38,MAPLE SHADE,NJ  ,8052,BURLINGTON,MAPLE SHADE TWP
3013 RT 73,MAPLE SHADE,NJ  ,8052,BURLINGTON,MAPLE SHADE TWP
2290 CLEMENT AVE,PENNSAUKEN,NJ  ,8030,CAMDEN,PENNSAUKEN TWP
4915 CRESCENT BLVD,PENNSAUKEN,NJ  ,8110,CAMDEN,PENNSAUKEN TWP
3347 HADDONFIELD RD,PENNSAUKEN,NJ  ,8109,CAMDEN,PENNSAUKEN TWP
227 PEMBERTON BROWNS MILLS RD,PEMBERTON TWP,NJ  ,8068,BURLINGTON,PEMBERTON TWP
3530 RT 38,MOUNT LAUREL TWP,NJ  ,8054,BURLINGTON,MOUNT LAUREL TWP
247 RT 37,DOVER TWP,NJ  ,8753,OCEAN,TOMS RIVER TWP
209 211 HANOVER ST ,PEMBERTON,NJ  ,8068,BURLINGTON,PEMBERTON BORO
225 CHESTER AVE,MOORESTOWN,NJ  ,8057,BURLINGTON,MOORESTOWN TWP
7024 WESTFIELD AVE,PENNSAUKEN,NJ  ,8110,CAMDEN,PENNSAUKEN TWP
206 HANOVER ST,PEMBERTON,NJ  ,8068,BURLINGTON,PEMBERTON BORO
644 RT 37,TOMS RIVER,NJ  ,8753,OCEAN,TOMS RIVER TWP
1306 GRAND CENTRAL AVE,LAVALLETTE,NJ  ,8735,OCEAN,LAVALLETTE BORO
820 FISCHER BLVD,TOMS RIVER,NJ  ,8753,OCEAN,TOMS RIVER TWP
2344 RT 206,SOUTHAMPTON TWP,NJ  ,8068,BURLINGTON,SOUTHAMPTON TWP
2 LAKEHURST RD,PEMBERTON TWP,NJ  ,8015,BURLINGTON,PEMBERTON TWP
3240 RT 38,MOUNT LAUREL TWP,NJ  ,8054,BURLINGTON,MOUNT LAUREL TWP
700 RT 37,TOMS RIVER,NJ  ,8753,OCEAN,TOMS RIVER TWP
826 FISCHER BLVD,TOMS RIVER,NJ  ,8753,OCEAN,TOMS RIVER TWP
RT 38 & HARTFORD RD,MOUNT LAUREL TWP,NJ  ,8054,BURLINGTON,MOUNT LAUREL TWP
3101 RT 73,MAPLE SHADE,NJ  ,8052,BURLINGTON,MAPLE SHADE TWP
1299 HOOPER AVE,TOMS RIVER,NJ  ,8753,OCEAN,TOMS RIVER TWP
2521 RT 130,CINNAMINSON,NJ  ,8077,BURLINGTON,CINNAMINSON TWP
1505 RT 73,PENNSAUKEN TWP,NJ  ,8110,CAMDEN,PENNSAUKEN TWP
3245 RT 35,DOVER TWP,NJ  ,8735,OCEAN,TOMS RIVER TWP
104 RT 130,CINNAMINSON TWP,NJ  ,8077,BURLINGTON,CINNAMINSON TWP
1600 RT 37 W,DOVER TWP,NJ  ,8753,OCEAN,TOMS RIVER TWP
1200 RT 73,PENNSAUKEN,NJ  ,8110,CAMDEN,PENNSAUKEN TWP
1350 RT 9,DOVER TWP,NJ  ,8753,OCEAN,TOMS RIVER TWP
409 RT 130,CINNAMINSON,NJ  ,8077,BURLINGTON,CINNAMINSON TWP
799 CENTERTON RD ,MOUNT LAUREL TWP,NJ  ,8054,BURLINGTON,MOUNT LAUREL TWP
2523 RT 206,EASTAMPTON TWP,NJ  ,8827,BURLINGTON,EASTAMPTON TWP
400 STRICKLAND BLVD,TOMS RIVER TWP,NJ  ,8735,OCEAN,TOMS RIVER TWP
GARDEN STATE PKWY MM 84.7,DOVER TWP,NJ  ,8999,OCEAN,TOMS RIVER TWP
1 COMMONWEALTH BLVD,MANCHESTER TWP,NJ  ,8000,OCEAN,MANCHESTER TWP
700 RT 73,PALMYRA,NJ  ,8065,BURLINGTON,PALMYRA BORO
908 912 RT 130,CINNAMINSON,NJ  ,8077,BURLINGTON,CINNAMINSON TWP
208 212 HIGH ST,MOUNT HOLLY,NJ  ,8060,BURLINGTON,MOUNT HOLLY TWP
1001 RT 130,CINNAMINSON TWP,NJ  ,8077,BURLINGTON,CINNAMINSON TWP
1619 1621 RIVERTON RD,CINNAMINSON TWP,NJ  ,8077,BURLINGTON,CINNAMINSON TWP
1400 RT 130,CINNAMINSON,NJ  ,8077,BURLINGTON,CINNAMINSON TWP
201 RT 73,PALMYRA,NJ  ,8065,BURLINGTON,PALMYRA BORO
RT 73 & MADISON ST & JEFFERSON ST,PALMYRA,NJ  ,8065,BURLINGTON,PALMYRA BORO
1725 HOOPER AVE,TOMS RIVER,NJ  ,8753,OCEAN,TOMS RIVER TWP
1205 RT 73,PALMYRA,NJ  ,8065,BURLINGTON,PALMYRA BORO
RT 73 & VANDERVEER ST,PALMYRA,NJ  ,8065,BURLINGTON,PALMYRA BORO
1301 WOODLANE RD,EASTAMPTON TWP,NJ  ,8060,BURLINGTON,EASTAMPTON TWP
19 RT 73,PALMYRA,NJ  ,8065,BURLINGTON,PALMYRA BORO
213 BROAD ST,PALMYRA,NJ  ,8065,BURLINGTON,PALMYRA BORO
939 WOODLANE RD,WESTAMPTON,NJ  ,8060,BURLINGTON,WESTAMPTON TWP
1601 UNION LANDING RD,CINNAMINSON TWP,NJ  ,8077,BURLINGTON,CINNAMINSON TWP
584 RANCOCAS RD,WESTAMPTON TWP,NJ  ,8060,BURLINGTON,WESTAMPTON TWP
1843 BURLINGTON MT HOLLY RD,WESTAMPTON TWP,NJ  ,8060,BURLINGTON,WESTAMPTON TWP
1820 1826 HOOPER AVE,SILVERTON,NJ  ,8753,OCEAN,TOMS RIVER TWP
3000 RT 130,DELRAN TWP,NJ  ,8075,BURLINGTON,DELRAN TWP
1681 LAKEWOOD RD,DOVER TWP,NJ  ,8753,OCEAN,TOMS RIVER TWP
1680 LAKEWOOD RD,TOMS RIVER,NJ  ,8753,OCEAN,TOMS RIVER TWP
1866 BURLINGTON MT HOLLY RD,WESTAMPTON TWP,NJ  ,8073,BURLINGTON,WESTAMPTON TWP
200 RT 37,LAKEHURST,NJ  ,8733,OCEAN,LAKEHURST BORO
3029 RT 130,DELRAN TWP,NJ  ,8975,BURLINGTON,DELRAN TWP
16 HAINES MILL RD,DELRAN TWP,NJ  ,8075,BURLINGTON,DELRAN TWP
1879 HOOPER AVE,DOVER TWP,NJ  ,8753,OCEAN,TOMS RIVER TWP
99 RT 70,LAKEHURST,NJ  ,8733,OCEAN,LAKEHURST BORO
2356 RT 206,SOUTHAMPTON TWP,NJ  ,8088,BURLINGTON,SOUTHAMPTON TWP
851 RT 37,TOMS RIVER,NJ  ,8753,OCEAN,TOMS RIVER TWP
3051 RT 38,MOUNT LAUREL TWP,NJ  ,8054,BURLINGTON,MOUNT LAUREL TWP
100 CENTERTON RD,MOUNT LAUREL,NJ  ,8054,BURLINGTON,MOUNT LAUREL TWP
869 FISCHER BLVD,TOMS RIVER,NJ  ,8753,OCEAN,TOMS RIVER TWP
7724 CRESCENT BLVD,PENNSAUKEN,NJ  ,8110,CAMDEN,PENNSAUKEN TWP
1095 RT 37,TOMS RIVER,NJ  ,8756,OCEAN,TOMS RIVER TWP
3 ARNEYS MOUNT RD,PEMBERTON TWP,NJ  ,8068,BURLINGTON,PEMBERTON TWP
8275 CRESCENT BLVD,PENNSAUKEN,NJ  ,8110,CAMDEN,PENNSAUKEN TWP
1194 RT 37,TOMS RIVER,NJ  ,8753,OCEAN,TOMS RIVER TWP
1473 RT 38,HAINESPORT,NJ  ,8036,BURLINGTON,HAINESPORT TWP
2100 HADDONFIELD RD,PENNSAUKEN,NJ  ,8110,CAMDEN,PENNSAUKEN TWP
2403 MARNE HWY,HAINESPORT,NJ  ,8060,BURLINGTON,HAINESPORT TWP
NEW JERSEY TPKE MM 39.3 N ,MOUNT LAUREL,NJ  ,8054,BURLINGTON,MOUNT LAUREL TWP
1572 RT 38,LUMBERTON,NJ  ,8048,BURLINGTON,LUMBERTON TWP
9375 CRESCENT BLVD,PENNSAUKEN,NJ  ,8110,CAMDEN,PENNSAUKEN TWP
1543 RT 38,LUMBERTON TWP,NJ  ,8048,BURLINGTON,LUMBERTON TWP
1653 RT 38,MOUNT HOLLY,NJ  ,8060,BURLINGTON,MOUNT HOLLY TWP
1651 RT 38,MOUNT HOLLY,NJ  ,8060,BURLINGTON,MOUNT HOLLY TWP
1633 RT 38,LUMBERTON TWP,NJ  ,8048,BURLINGTON,LUMBERTON TWP
1215 RT 166,TOMS RIVER,NJ  ,8753,OCEAN,TOMS RIVER TWP
1672 CHURCH RD,TOMS RIVER,NJ  ,8753,OCEAN,TOMS RIVER TWP
100 JFK WAY,WILLINGBORO,NJ  ,8046,BURLINGTON,WILLINGBORO TWP
4061 RT 130,DELRAN TWP,NJ  ,8075,BURLINGTON,DELRAN TWP
1900 HOOPER AVE,TOMS RIVER,NJ  ,8753,OCEAN,TOMS RIVER TWP
5010 RT 130 ,DELRAN,NJ  ,8075,BURLINGTON,DELRAN TWP
102 JFK WAY,WILLINGBORO,NJ  ,8046,BURLINGTON,WILLINGBORO TWP
1930 BURLINGTON MT HOLLY RD,WESTAMPTON TWP,NJ  ,8060,BURLINGTON,WESTAMPTON TWP
8004 RT 130,DELRAN TWP,NJ  ,8075,BURLINGTON,DELRAN TWP
3001 RIDGEWAY RD,MANCHESTER TWP,NJ  ,8759,OCEAN,MANCHESTER TWP
75 SPRINGSIDE RD,WESTAMPTON TWP,NJ  ,8060,BURLINGTON,WESTAMPTON TWP
487 WOODLANE RD,WESTAMPTON TWP,NJ  ,8046,BURLINGTON,WESTAMPTON TWP
99 SALEM RD,WILLINGBORO,NJ  ,8046,BURLINGTON,WILLINGBORO TWP
63 PILOT DR,BRICK TOWN,NJ  ,8723,OCEAN,BRICK TWP
2096 LAKEWOOD RD,DOVER TWP,NJ  ,8753,OCEAN,TOMS RIVER TWP
116 BRICK BLVD,BRICK TWP,NJ  ,8723,OCEAN,BRICK TWP
38 INDUSTRIAL DR,WILLINGBORO,NJ  ,8046,BURLINGTON,WILLINGBORO TWP
2056 BURLINGTON MT HOLLY RD,WESTAMPTON TWP,NJ  ,8016,BURLINGTON,WESTAMPTON TWP
175 BRICK BLVD,BRICK TOWN,NJ  ,8723,OCEAN,BRICK TWP
2048 BURLINGTON MT HOLLY RD,WESTAMPTON TWP,NJ  ,8073,BURLINGTON,WESTAMPTON TWP
341 CARROL ST,RIVERSIDE,NJ  ,8075,BURLINGTON,RIVERSIDE TWP
1 RAILROAD AVE,WRIGHTSTOWN,NJ  ,8562,BURLINGTON,WRIGHTSTOWN BORO
500 DRUM POINT RD ,BRICKTOWN,NJ  ,8723,OCEAN,BRICK TWP
RT 70 & NEW HAMPSHIRE AVE,LAKEWOOD,NJ  ,8701,OCEAN,LAKEWOOD TWP
2006 MT HOLLY RD,BURLINGTON TWP,NJ  ,8500,BURLINGTON,BURLINGTON TWP
901 BURLINGTON AVE,DELANCO,NJ  ,8075,BURLINGTON,DELANCO TWP
2001 2003 BURLINGTON MT HOLLY RD,BURLINGTON TWP,NJ  ,8016,BURLINGTON,BURLINGTON TWP
1139 COOPER ST,EDGEWATER PARK,NJ  ,8010,BURLINGTON,EDGEWATER PARK TWP
RT 130 & WOODLANE RD,EDGEWATER PARK,NJ  ,8010,BURLINGTON,EDGEWATER PARK TWP
1650 RT 70,LAKEWOOD,NJ  ,8701,OCEAN,LAKEWOOD TWP
1255 RIVER AVE,LAKEWOOD,NJ  ,8701,OCEAN,LAKEWOOD TWP
600 BRICK BLVD,BRICK TOWN,NJ  ,8723,OCEAN,BRICK TWP
465 RT 70,BRICK TWP,NJ  ,8757,OCEAN,BRICK TWP
2951 RT 206,SPRINGFIELD TWP,NJ  ,8022,BURLINGTON,SPRINGFIELD TWP
20 BRICK BLVD,BRICK TOWN,NJ  ,8723,OCEAN,BRICK TWP
52 CHAMBERS BRIDGE RD,BRICKTOWN,NJ  ,8723,OCEAN,BRICK TWP
592 RT 70,BRICK TOWN,NJ  ,8723,OCEAN,BRICK TWP
704 PRINCETON AVE,BRICKTOWN,NJ  ,8724,OCEAN,BRICK TWP
213 GEORGETOWN RD,SPRINGFIELD,NJ  ,8041,BURLINGTON,SPRINGFIELD TWP
37 DIVISION ST,BRICK TOWN,NJ  ,8724,OCEAN,BRICK TWP
666 LAKE AVE,BAY HEAD,NJ  ,8742,OCEAN,BAY HEAD BORO
1616 BEAVER DAM RD,POINT PLEASANT,NJ  ,8742,OCEAN,POINT PLEASANT BORO
189 CHAMBERS BRIDGE RD,BRICK TOWN,NJ  ,8723,OCEAN,BRICK TWP
915 HIGH ST,BURLINGTON,NJ  ,8016,BURLINGTON,BURLINGTON CITY
851 OLD YORK RD,BURLINGTON TWP,NJ  ,8016,BURLINGTON,BURLINGTON TWP
274 WHITESVILLE RD,JACKSON TWP,NJ  ,8527,OCEAN,JACKSON TWP
1011 RT 130,BURLINGTON CITY,NJ  ,8016,BURLINGTON,BURLINGTON CITY
741 RIVER AVE,LAKEWOOD,NJ  ,8701,OCEAN,LAKEWOOD TWP
710 VASSAR AVE,LAKEWOOD,NJ  ,8701,OCEAN,LAKEWOOD TWP
701 SALEM RD,BURLINGTON,NJ  ,8016,BURLINGTON,BURLINGTON CITY
58 RT 130,BURLINGTON,NJ  ,8016,BURLINGTON,BURLINGTON CITY
301 CHAMBERS BRIDGE RD,BRICK TOWN,NJ  ,8924,OCEAN,BRICK TWP
325 RT 130,BURLINGTON,NJ  ,8016,BURLINGTON,BURLINGTON CITY
629 HIGH ST,BURLINGTON,NJ  ,8016,BURLINGTON,BURLINGTON CITY
350 RT 130 ,BURLINGTON CITY,NJ  ,8016,BURLINGTON,BURLINGTON CITY
357 RT 130,BURLINGTON,NJ  ,8016,BURLINGTON,BURLINGTON CITY
346 CHAMBERS BRIDGE RD,BRICK TOWN,NJ  ,8724,OCEAN,BRICK TWP
1672 RT 88,BRICK TOWN,NJ  ,8723,OCEAN,BRICK TWP
2501 BRIDGE AVE,POINT PLEASANT,NJ  ,8742,OCEAN,POINT PLEASANT BORO
420 KEIM BLVD,BURLINGTON,NJ  ,8016,BURLINGTON,BURLINGTON CITY
2901 BRIDGE AVE,POINT PLEASANT,NJ  ,8742,OCEAN,POINT PLEASANT BORO
2081 RT 88,BRICK TOWN,NJ  ,8077,OCEAN,BRICK TWP
2064 RT 88,BRICKTOWN,NJ  ,8723,OCEAN,BRICK TWP
2086 RT 88,BRICKTOWN,NJ  ,8723,OCEAN,BRICK TWP
401 CHAMBERS BRIDGE RD,BRICKTOWN,NJ  ,8723,OCEAN,BRICK TWP
844 COLUMBUS RD,BURLINGTON,NJ  ,8016,BURLINGTON,BURLINGTON CITY
199 RT 70,DOVER TWP,NJ  ,8753,OCEAN,TOMS RIVER TWP
74 NORMAN AVE,DELRAN TWP,NJ  ,8075,BURLINGTON,DELRAN TWP
2503 BURLINGTON MT HOLLY RD,BURLINGTON TWP,NJ  ,8500,BURLINGTON,BURLINGTON TWP
4212 RT 130,WILLINGBORO,NJ  ,8046,BURLINGTON,WILLINGBORO TWP
534 WRIGHTSTOWN SYKESVILLE RD,NORTH HANOVER TWP,NJ  ,8562,BURLINGTON,NORTH HANOVER TWP
94 RT 70,TOMS RIVER,NJ  ,8755,OCEAN,TOMS RIVER TWP
181 DRUM POINT RD,BRICK TOWN,NJ  ,8732,OCEAN,BRICK TWP
4266 RT 130,WILLINGBORO,NJ  ,8046,BURLINGTON,WILLINGBORO TWP
584 MANTOLOKING RD,BRICK TOWN,NJ  ,8723,OCEAN,BRICK TWP
2218 BURLINGTON MT HOLLY RD,BURLINGTON TWP,NJ  ,8016,BURLINGTON,BURLINGTON TWP
4302 RT 130,WILLINGBORO,NJ  ,8046,BURLINGTON,WILLINGBORO TWP
631 643 MANTOLOKING RD,BRETON WOODS,NJ  ,8723,OCEAN,BRICK TWP
1505 RIVER RD,LAKEWOOD,NJ  ,8701,OCEAN,LAKEWOOD TWP
2212 BURLINGTON MT HOLLY RD,BURLINGTON TWP,NJ  ,8016,BURLINGTON,BURLINGTON TWP
135 RT 70,LAKEWOOD,NJ  ,8701,OCEAN,LAKEWOOD TWP
2201 BURLINGTON MT HOLLY RD,BURLINGTON TWP,NJ  ,8016,BURLINGTON,BURLINGTON TWP
15E 70 & NEW HAMPSHIRE,LAKEWOOD,NJ  ,8701,OCEAN,LAKEWOOD TWP
6 COOKSTOWN NEW EGYPT RD,NORTH HANOVER TWP,NJ  ,8511,BURLINGTON,NORTH HANOVER TWP
814 SUNSET RD,BURLINGTON TWP,NJ  ,8016,BURLINGTON,BURLINGTON TWP
33 LEVITT PKWY,WILLINGBORO,NJ  ,8046,BURLINGTON,WILLINGBORO TWP
700 BURLINGTON AVE,DELANCO,NJ  ,8075,BURLINGTON,DELANCO TWP
3164 RT 88,POINT PLEASANT,NJ  ,8742,OCEAN,POINT PLEASANT BORO
730 ALBERT E CLIFTON AVE,POINT PLEASANT,NJ  ,8742,OCEAN,POINT PLEASANT BORO
1444 OCEAN AVE,LAKEWOOD,NJ  ,8701,OCEAN,LAKEWOOD TWP
2801 RT 88,POINT PLEASANT,NJ  ,8742,OCEAN,POINT PLEASANT BORO
700 RT 88,POINT PLEASANT,NJ  ,8142,OCEAN,POINT PLEASANT BORO
1441 RT 88,LAKEWOOD,NJ  ,8701,OCEAN,LAKEWOOD TWP
1150 OCEAN AVE,LAKEWOOD,NJ  ,8701,OCEAN,LAKEWOOD TWP
633 RT 539,PLUMSTED TWP,NJ  ,8533,OCEAN,PLUMSTED TWP
1120 E VETERANS HWY,JACKSON TWP,NJ  ,8527,OCEAN,JACKSON TWP
100 RIVER AVE,LAKEWOOD,NJ  ,8701,OCEAN,LAKEWOOD TWP
100 MADISON AVE,LAKEWOOD TWP,NJ  ,8790,OCEAN,LAKEWOOD TWP
3146 RT 206,MANSFIELD,NJ  ,8022,BURLINGTON,MANSFIELD TWP
1088 RT 88,LAKEWOOD,NJ  ,8701,OCEAN,LAKEWOOD TWP
103 RIVER AVE,LAKEWOOD,NJ  ,8701,OCEAN,LAKEWOOD TWP
1104 RICHMOND AVE,POINT PLEASANT BEACH,NJ  ,8742,OCEAN,POINT PLEASANT BEACH BORO
300 HURLEY AVE,LAKEWOOD TWP,NJ  ,8754,OCEAN,LAKEWOOD TWP
27 MADISON AVE,LAKEWOOD,NJ  ,8701,OCEAN,LAKEWOOD TWP
201 RT 88,LAKEWOOD,NJ  ,8701,OCEAN,LAKEWOOD TWP
601 RICHMOND AVE,POINT PLEASANT BEACH,NJ  ,8742,OCEAN,POINT PLEASANT BEACH BORO
2080 LANES MILL RD,LAKEWOOD,NJ  ,8701,OCEAN,LAKEWOOD TWP
847 ARNOLD AVE,POINT PLEASANT BORO,NJ  ,8742,OCEAN,POINT PLEASANT BORO
380 HERBERTSVILLE RD,BRICK TOWN,NJ  ,8723,OCEAN,BRICK TWP
2141 RT 130 ,ROEBLING,NJ  ,8518,BURLINGTON,FLORENCE TWP
3372 RT 206,MANSFIELD,NJ  ,8022,BURLINGTON,MANSFIELD TWP
2008 RT 206,BORDENTOWN TWP,NJ  ,8505,BURLINGTON,BORDENTOWN TWP
65 UNION AVE,MANASQUAN,NJ  ,8736,MONMOUTH,MANASQUAN BORO
2100 W COUNTY LINE RD,JACKSON TWP,NJ  ,8527,OCEAN,JACKSON TWP
199 E MAIN ST,MANASQUAN,NJ  ,8736,MONMOUTH,MANASQUAN BORO
2000 RT 206,BORDENTOWN TWP,NJ  ,8505,BURLINGTON,BORDENTOWN TWP
836 RIDGE RD,BRICKTOWN,NJ  ,8723,OCEAN,BRICK TWP
1080 RT 206,BORDENTOWN TWP,NJ  ,8505,BURLINGTON,BORDENTOWN TWP
5371 RT 9 ,HOWELL,NJ  ,7731,MONMOUTH,HOWELL TWP
218 PARKER AVER,MANASQUAN,NJ  ,8736,MONMOUTH,MANASQUAN BORO
2301 W COUNTY LINE RD,BENNETTS MILLS,NJ  ,8527,OCEAN,JACKSON TWP
1077 RT 206,BORDENTOWN TWP,NJ  ,8505,BURLINGTON,BORDENTOWN TWP
2 COUNTY LINE RD,JACKSON TWP,NJ  ,8527,OCEAN,JACKSON TWP
RT 71 & SEA GIRT AVE,MANASQUAN,NJ  ,8736,MONMOUTH,MANASQUAN BORO
231 RT 539,UPPER FREEHOLD TWP,NJ  ,8526,MONMOUTH,UPPER FREEHOLD TWP
1037 RT 206,BORDENTOWN,NJ  ,8505,BURLINGTON,BORDENTOWN CITY
1324 SEA GIRT AVE,WALL,NJ  ,8750,MONMOUTH,WALL TWP
4690 RT 9,HOWELL,NJ  ,7731,MONMOUTH,HOWELL TWP
N COOKS BRIDGE RD & COUNTY LINE RD ,JACKSON TWP,NJ  ,8527,OCEAN,JACKSON TWP
247 RT 130,BORDENTOWN TWP,NJ  ,8505,BURLINGTON,BORDENTOWN TWP
252 RT 130,BORDENTOWN TWP,NJ  ,8505,BURLINGTON,BORDENTOWN TWP
TILTONS CORNER RD,WALL,NJ  ,7719,MONMOUTH,WALL TWP
4545 RT 9,HOWELL,NJ  ,7731,MONMOUTH,HOWELL TWP
231 RT 206,BORDENTOWN TWP,NJ  ,8505,BURLINGTON,BORDENTOWN TWP
RT 34 & ATLANTIC AVE,ALLENWOOD,NJ  ,8720,MONMOUTH,WALL TWP
258 260 RT 130 ,BORDENTOWN,NJ  ,8505,BURLINGTON,BORDENTOWN CITY
196 251 RT 130,BORDENTOWN,NJ  ,8505,BURLINGTON,BORDENTOWN CITY
231 RT 130,BORDENTOWN,NJ  ,8505,BURLINGTON,BORDENTOWN CITY
156 RT 130 ,BORDENTOWN,NJ  ,8505,BURLINGTON,BORDENTOWN CITY
RT 34 & ALLAIRE RD,ALLENWOOD,NJ  ,8720,MONMOUTH,WALL TWP
300 W COMMODORE BLVD,JACKSON TWP,NJ  ,8527,OCEAN,JACKSON TWP
RT 71 & WARREN AVE,SPRING LAKE HEIGHTS,NJ  ,7762,MONMOUTH,SPRING LAKE HEIGHTS BORO
1001 RT 71,SPRING LAKE HEIGHTS,NJ  ,7762,MONMOUTH,SPRING LAKE HEIGHTS BORO
2060 HOSPITAL RD ,ALLENWOOD,NJ  ,8720,MONMOUTH,WALL TWP
2004 RT 35,WALL TWP,NJ  ,7719,MONMOUTH,WALL TWP
1939 RT 35,WALL,NJ  ,7009,MONMOUTH,WALL TWP
4001 RT 9,HOWELL,NJ  ,7731,MONMOUTH,HOWELL TWP
NEW JERSEY TPKE MM 57.0 N,CROSSWICKS,NJ  ,8515,BURLINGTON,CHESTERFIELD TWP
1951 RT 34,WALL,NJ  ,7719,MONMOUTH,WALL TWP
548 MONMOUTH RD,MILLSTONE TWP,NJ  ,8514,MONMOUTH,MILLSTONE TWP
1940 RT 34,WALL TWP,NJ  ,7719,MONMOUTH,WALL TWP
50 HANNAH HILL RD,JACKSON TWP,NJ  ,8527,OCEAN,JACKSON TWP
2012 RT 130,FLORENCE,NJ  ,8518,BURLINGTON,FLORENCE TWP
1150 BURNT TAVERN RD,BRICKTOWN,NJ  ,8723,OCEAN,BRICK TWP
BRICK BLVD & BURNT TAVERN RD,BRICK TOWN,NJ  ,8701,OCEAN,BRICK TWP
224 HAWTHORNE AVE,POINT PLEASANT BEACH,NJ  ,8742,OCEAN,POINT PLEASANT BEACH BORO
200 RIVER AVE,POINT PLEASANT BEACH,NJ  ,8742,OCEAN,POINT PLEASANT BEACH BORO
951 MADISON AVE,LAKEWOOD TWP,NJ  ,8754,OCEAN,LAKEWOOD TWP
1001 MADISON AVE,LAKEWOOD,NJ  ,8701,OCEAN,LAKEWOOD TWP
RT 70 & OLD BRIDGE RD,BRIELLE,NJ  ,8730,MONMOUTH,BRIELLE BORO
218 BROADWAY,POINT PLEASANT BEACH,NJ  ,8742,OCEAN,POINT PLEASANT BEACH BORO
2060 RT 130,FLORENCE,NJ  ,8518,BURLINGTON,FLORENCE TWP
2051 RT 130,FLORENCE,NJ  ,8016,BURLINGTON,FLORENCE TWP
151 165 DON CONNOR BLVD,JACKSON TWP,NJ  ,8527,OCEAN,JACKSON TWP
1625 CLIFTON AVE,LAKEWOOD,NJ  ,8701,OCEAN,LAKEWOOD TWP
1690 MADISON AVE,LAKEWOOD,NJ  ,8701,OCEAN,LAKEWOOD TWP
1715 MADISON AVE,LAKEWOOD,NJ  ,8701,OCEAN,LAKEWOOD TWP
201 UNION LN,BRIELLE,NJ  ,8730,MONMOUTH,BRIELLE BORO
602 GREEN AVE,BRIELLE,NJ  ,8730,MONMOUTH,BRIELLE BORO
787 RT 537,PLUMSTED TWP,NJ  ,8514,OCEAN,PLUMSTED TWP
6870 RT 9,HOWELL,NJ  ,7731,MONMOUTH,HOWELL TWP
8 BENNETTS MILLS RD,JACKSON TWP,NJ  ,8527,OCEAN,JACKSON TWP
2630 RT 70,WALL,NJ  ,8736,MONMOUTH,WALL TWP
5 LEESVILLE RD,JACKSON TWP,NJ  ,8527,OCEAN,JACKSON TWP
4364 S BROAD ST,YARDVILLE,NJ  ,8620,MERCER,HAMILTON TWP
1650 OLD YORK RD,UPPER FREEHOLD TWP,NJ  ,8501,MONMOUTH,UPPER FREEHOLD TWP
4165 S BROAD ST,YARDVILLE,NJ  ,8620,MERCER,HAMILTON TWP
2001 RT 9,HOWELL,NJ  ,7731,MONMOUTH,HOWELL TWP
3240 BELMAR BLVD,WALL TWP,NJ  ,7719,MONMOUTH,WALL TWP
3750 S BROAD ST,HAMILTON,NJ  ,8610,MERCER,HAMILTON TWP
646 RT 130,HAMILTON,NJ  ,8620,MERCER,HAMILTON TWP
2596 S BROAD ST,HAMILTON,NJ  ,8610,MERCER,HAMILTON TWP
680 RT 130,MERCERVILLE,NJ  ,8650,MERCER,HAMILTON TWP
2482 S BROAD ST,HAMILTON,NJ  ,8610,MERCER,HAMILTON TWP
2340 S BROAD ST,HAMILTON,NJ  ,8610,MERCER,HAMILTON TWP
43 STEINER AVE,NEPTUNE CITY BORO,NJ  ,7753,MONMOUTH,NEPTUNE CITY BORO
2101 2105 S BROAD ST,HAMILTON,NJ  ,8610,MERCER,HAMILTON TWP
68 W SYLVANIA AVE,NEPTUNE CITY,NJ  ,7753,MONMOUTH,NEPTUNE CITY BORO
28 MAIN ST,FARMINGDALE,NJ  ,7727,MONMOUTH,FARMINGDALE BORO
312 MONMOUTH RD,MILLSTONE TWP,NJ  ,7728,MONMOUTH,MILLSTONE TWP
2042 S BROAD ST,HAMILTON,NJ  ,8610,MERCER,HAMILTON TWP
79 W SYLVANIA AVE,NEPTUNE CITY,NJ  ,7753,MONMOUTH,NEPTUNE CITY BORO
602 LALOR ST,TRENTON,NJ  ,8611,MERCER,TRENTON CITY
700 LALOR ST,TRENTON,NJ  ,8610,MERCER,TRENTON CITY
23 W MAIN ST,FARMINGDALE,NJ  ,7727,MONMOUTH,FARMINGDALE BORO
117 MAIN ST,BRADLEY BEACH,NJ  ,7720,MONMOUTH,BRADLEY BEACH BORO
GARDEN STATE PKWY MM 100,WALL TWP,NJ  ,7719,MONMOUTH,WALL TWP
158 W SYLVANIA AVE,NEPTUNE CITY,NJ  ,7000,MONMOUTH,NEPTUNE CITY BORO
1200 NEGRON DR,HAMILTON,NJ  ,8691,MERCER,HAMILTON TWP
2231 S OLDEN AVE,HAMILTON,NJ  ,8610,MERCER,HAMILTON TWP
1065 S BROAD ST,TRENTON,NJ  ,8611,MERCER,TRENTON CITY
708 RT 35,NEPTUNE TWP,NJ  ,7753,MONMOUTH,NEPTUNE TWP
KUSER RD,HAMILTON,NJ  ,8620,MERCER,HAMILTON TWP
1870 KUSER RD,HAMILTON,NJ  ,8690,MERCER,HAMILTON TWP
1406 CHAMBERS ST,HAMILTON,NJ  ,8610,MERCER,HAMILTON TWP
1711 S OLDEN AVE,HAMILTON,NJ  ,8610,MERCER,HAMILTON TWP
2 BRIGHTON AVE,NEPTUNE CITY,NJ  ,7753,MONMOUTH,NEPTUNE CITY BORO
1070 WHITEHORSE MERCERVILLE RD,HAMILTON,NJ  ,8610,MERCER,HAMILTON TWP
907 MAIN ST,BRADLEY BEACH,NJ  ,7720,MONMOUTH,BRADLEY BEACH BORO
2439 CORLIES AVE,NEPTUNE TWP,NJ  ,7753,MONMOUTH,NEPTUNE TWP
1511 1515 S OLDEN AVE,HAMILTON,NJ  ,8610,MERCER,HAMILTON TWP
1800 CORLIES AVE,NEPTUNE TWP,NJ  ,7753,MONMOUTH,NEPTUNE TWP
1140 1144 CHAMBERS ST,HAMILTON,NJ  ,8610,MERCER,HAMILTON TWP
1705 CORLIES AVE,NEPTUNE TWP,NJ  ,7753,MONMOUTH,NEPTUNE TWP
1106 CHAMBERS ST,HAMILTON,NJ  ,8610,MERCER,HAMILTON TWP
1380 S OLDEN AVE,HAMILTON,NJ  ,8610,MERCER,HAMILTON TWP
3400 RT 9,HOWELL,NJ  ,7731,MONMOUTH,HOWELL TWP
3401 RT 9,HOWELL,NJ  ,7731,MONMOUTH,HOWELL TWP
1852 RT 35,WEST BELMAR,NJ  ,7719,MONMOUTH,WALL TWP
2313 RT 71,SPRING LAKE HEIGHTS,NJ  ,7762,MONMOUTH,SPRING LAKE HEIGHTS BORO
2400 RT 71,SPRING LAKE HEIGHTS,NJ  ,7662,MONMOUTH,SPRING LAKE HEIGHTS BORO
521 MONMOUTH RD,JACKSON TWP,NJ  ,8527,OCEAN,JACKSON TWP
504 MONMOUTH RD,MILLSTONE TWP,NJ  ,8510,MONMOUTH,MILLSTONE TWP
42 RT 130 S,BORDENTOWN TWP,NJ  ,8505,BURLINGTON,BORDENTOWN TWP
51 RT 130,BORDENTOWN TWP,NJ  ,8620,BURLINGTON,BORDENTOWN TWP
686 RT 206,BORDENTOWN TWP,NJ  ,8505,BURLINGTON,BORDENTOWN TWP
1734 RT 35,WALL,NJ  ,7719,MONMOUTH,WALL TWP
2510 RT 9,HOWELL,NJ  ,7731,MONMOUTH,HOWELL TWP
1407 1411 F ST,BELMAR,NJ  ,7719,MONMOUTH,BELMAR BORO
NEW JERSEY TPKE MM 58.7 N,HAMILTON,NJ  ,8650,MERCER,HAMILTON TWP
2402 BELMAR BLVD,WALL,NJ  ,7719,MONMOUTH,WALL TWP
1601 RT 35,WALL TWP,NJ  ,7719,MONMOUTH,WALL TWP
NEW JERSEY TPKE MM 58.7 ,HAMILTON,NJ  ,8330,MERCER,HAMILTON TWP
3 WALKER ST,ALLENTOWN,NJ  ,8501,MONMOUTH,ALLENTOWN BORO
2485 RT 9,HOWELL,NJ  ,7731,MONMOUTH,HOWELL TWP
4495 S BROAD ST,YARDVILLE,NJ  ,8620,MERCER,HAMILTON TWP
900 MARINA AVE,BELMAR,NJ  ,7719,MONMOUTH,BELMAR BORO
639 RT 9,HOWELL,NJ  ,7731,MONMOUTH,HOWELL TWP
3321 CORLIES AVE,NEPTUNE TWP,NJ  ,7753,MONMOUTH,NEPTUNE TWP
1344 CORLIES AVE,NEPTUNE TWP,NJ  ,7753,MONMOUTH,NEPTUNE TWP
579 585 S BROAD ST,TRENTON,NJ  ,8611,MERCER,TRENTON CITY
1060 CHAMBERS ST,TRENTON,NJ  ,8611,MERCER,TRENTON CITY
3562 CORLIES AVE,NEPTUNE TWP,NJ  ,7753,MONMOUTH,NEPTUNE TWP
3655 CORLIES AVE,NEPTUNE TWP,NJ  ,7533,MONMOUTH,NEPTUNE TWP
1100 S OLDEN AVE,HAMILTON,NJ  ,8610,MERCER,HAMILTON TWP
1053 S OLDEN AVE,HAMILTON,NJ  ,8610,MERCER,HAMILTON TWP
1118 RT 130,ROBBINSVILLE,NJ  ,8691,MERCER,ROBBINSVILLE TWP
MAIN ST & LAKE AVE,ASBURY PARK,NJ  ,7712,MONMOUTH,ASBURY PARK CITY
RT 34 & WYCKOFF RD,WALL,NJ  ,7727,MONMOUTH,WALL TWP
406 410 GREENWOOD AVE,TRENTON,NJ  ,8609,MERCER,TRENTON CITY
1300 RT 34,WALL TWP,NJ  ,7727,MONMOUTH,WALL TWP
750 GREENWOOD AVE,TRENTON,NJ  ,8609,MERCER,TRENTON CITY
5004 COLLINGSWOOD PK CIR,WALL TWP,NJ  ,8736,MONMOUTH,WALL TWP
800 GREENWOOD AVE,TRENTON,NJ  ,8609,MERCER,TRENTON CITY
2101 RT 33,HAMILTON SQUARE,NJ  ,8690,MERCER,HAMILTON TWP
RT 33 & GEORGE DYE RD,HAMILTON,NJ  ,8690,MERCER,HAMILTON TWP
33 39 CALHOUN ST,TRENTON,NJ  ,8618,MERCER,TRENTON CITY
110 CALHOUN ST,TRENTON,NJ  ,8618,MERCER,TRENTON CITY
1824 WHITEHORSE MERCERVILLE RD,MERCERVILLE,NJ  ,8619,MERCER,HAMILTON TWP
2901 ASBURY AVE,OCEAN,NJ  ,7755,MONMOUTH,OCEAN TWP
2582 WHITEHORSE MERCERVILLE RD,HAMILTON,NJ  ,8619,MERCER,HAMILTON TWP
410 MAIN ST,ALLENHURST,NJ  ,7711,MONMOUTH,ALLENHURST BORO
376 STILLWELLS CORNER RD,FREEHOLD TWP,NJ  ,7728,MONMOUTH,FREEHOLD TWP
801 N OLDEN AVE,TRENTON,NJ  ,8638,MERCER,TRENTON CITY
3541 RT 9,FREEHOLD TWP,NJ  ,7728,MONMOUTH,FREEHOLD TWP
1001 RT 35,OCEAN,NJ  ,7712,MONMOUTH,OCEAN TWP
334 MULBERRY ST,TRENTON,NJ  ,8638,MERCER,TRENTON CITY
1299 RT 130,WASHINGTON TWP,NJ  ,8000,MERCER,ROBBINSVILLE TWP
110 SANHICAN DR,TRENTON,NJ  ,8618,MERCER,TRENTON CITY
909 RT 33,HOWELL,NJ  ,7728,MONMOUTH,HOWELL TWP
RT 35 & SUNSET AVE,OCEAN,NJ  ,7755,MONMOUTH,OCEAN TWP
3503 3605 SUNSET AVE,OCEAN,NJ  ,7712,MONMOUTH,OCEAN TWP
60 SCHANCK RD,FREEHOLD TWP,NJ  ,7728,MONMOUTH,FREEHOLD TWP
905 RT 33,HOWELL,NJ  ,7727,MONMOUTH,HOWELL TWP
1513 PRINCETON AVE,EWING TWP,NJ  ,8628,MERCER,EWING TWP
1570 PRINCETON AVE,TRENTON CITY,NJ  ,8628,MERCER,TRENTON CITY
270 SOUTH ST,FREEHOLD TWP,NJ  ,7728,MONMOUTH,FREEHOLD TWP
1372 RT 130,WASHINGTON TWP,NJ  ,8561,MERCER,ROBBINSVILLE TWP
3639 RT 9,FREEHOLD TWP,NJ  ,7728,MONMOUTH,FREEHOLD TWP
1120 RT 35,WANAMASSA,NJ  ,7712,MONMOUTH,OCEAN TWP
3635 RT 9,FREEHOLD TWP,NJ  ,7728,MONMOUTH,FREEHOLD TWP
1389 1391 RT 130 N,WASHINGTON TWP,NJ  ,8561,MERCER,ROBBINSVILLE TWP
303 BRUNSWICK AVE EXT,LAWRENCE TWP,NJ  ,8648,MERCER,LAWRENCE TWP
1497 PROSPECT ST,EWING TWP,NJ  ,8638,MERCER,EWING TWP
3060 QUAKERBRIDGE RD,MERCERVILLE,NJ  ,8619,MERCER,HAMILTON TWP
135 LAWRENCEVILLE RD,LAWRENCEVILLE,NJ  ,8532,MERCER,LAWRENCE TWP
1418 RT 35,WANAMASSA,NJ  ,7712,MONMOUTH,OCEAN TWP
1720 BRUNSWICK PK,LAWRENCEVILLE,NJ  ,8648,MERCER,LAWRENCE TWP
1400 RT 130,ROBBINSVILLE TWP,NJ  ,8561,MERCER,ROBBINSVILLE TWP
86 KLOCKNER RD,HAMILTON,NJ  ,8609,MERCER,HAMILTON TWP
3217 QUAKERBRIDGE RD,HAMILTON,NJ  ,8619,MERCER,HAMILTON TWP
1496 PENNINGTON RD,EWING TWP,NJ  ,8638,MERCER,EWING TWP
238 JERSEYVILLE RD,FREEHOLD TWP,NJ  ,7728,MONMOUTH,FREEHOLD TWP
1500 PENNINGTON RD,EWING,NJ  ,8638,MERCER,EWING TWP
360 LAWRENCE RD,LAWRENCEVILLE,NJ  ,8648,MERCER,LAWRENCE TWP
2243 SPRUCE ST,EWING TWP,NJ  ,8638,MERCER,EWING TWP
798 PARKWAY AVE ,EWING,NJ  ,8618,MERCER,EWING TWP
805 DEAL RD,OCEAN,NJ  ,7755,MONMOUTH,OCEAN TWP
140 RT 33,MANALAPAN,NJ  ,7726,MONMOUTH,MANALAPAN TWP
146 WOODWARD RD,MANALAPAN TWP,NJ  ,7726,MONMOUTH,MANALAPAN TWP
1590 PARKSIDE AVE,EWING,NJ  ,8638,MERCER,EWING TWP
436 RT 33,MANALAPAN,NJ  ,7726,MONMOUTH,MANALAPAN TWP
44 SOUTH ST,FREEHOLD,NJ  ,7728,MONMOUTH,FREEHOLD BORO
305 N BROAD ST,TRENTON,NJ  ,8650,MERCER,TRENTON CITY
1729 ASBURY AVE,NEPTUNE TWP,NJ  ,7753,MONMOUTH,NEPTUNE TWP
102 S OLDEN AVE,TRENTON,NJ  ,8609,MERCER,TRENTON CITY
3520 RT 66,NEPTUNE,NJ  ,7753,MONMOUTH,NEPTUNE TWP
RT 35 & 66 CIR,OCEAN,NJ  ,7712,MONMOUTH,OCEAN TWP
2000 RT 66,NEPTUNE TWP,NJ  ,7000,MONMOUTH,NEPTUNE TWP
1704 GREENWOOD AVE,HAMILTON,NJ  ,8619,MERCER,HAMILTON TWP
1741 GREENWOOD AVE,HAMILTON,NJ  ,8609,MERCER,HAMILTON TWP
1761 GREENWOOD AVE,HAMILTON,NJ  ,8690,MERCER,HAMILTON TWP
1296 RT 33,HAMILTON SQUARE,NJ  ,8690,MERCER,HAMILTON TWP
3330 RT 66,NEPTUNE TWP,NJ  ,8857,MONMOUTH,NEPTUNE TWP
2415 ASBURY AVE ,OCEAN,NJ  ,7712,MONMOUTH,OCEAN TWP
1060 RT 33,HAMILTON SQUARE,NJ  ,8690,MERCER,HAMILTON TWP
178 182 PENNINGTON AVE,TRENTON,NJ  ,8618,MERCER,TRENTON CITY
406 BRUNSWICK AVE,TRENTON,NJ  ,8638,MERCER,TRENTON CITY
1685 NOTTINGHAM WAY,HAMILTON,NJ  ,8619,MERCER,HAMILTON TWP
511 RT 33,HAMILTON,NJ  ,8619,MERCER,HAMILTON TWP
101 SHADY LN,HAMILTON,NJ  ,8619,MERCER,HAMILTON TWP
2101 SUNSET AVE,OCEAN,NJ  ,7712,MONMOUTH,OCEAN TWP
1930 NOTTINGHAM WAY,HAMILTON,NJ  ,8619,MERCER,HAMILTON TWP
249 RT 33,HAMILTON,NJ  ,8619,MERCER,HAMILTON TWP
2409 NOTTINGHAM WAY,HAMILTON,NJ  ,8619,MERCER,HAMILTON TWP
2361 RT 66,OCEAN,NJ  ,7712,MONMOUTH,OCEAN TWP
2000 SHAFTO RD,TINTON FALLS,NJ  ,7724,MONMOUTH,TINTON FALLS BORO
454 RT 33,MILLSTONE TWP,NJ  ,8510,MONMOUTH,MILLSTONE TWP
440 GRAND AVE,EWING TWP,NJ  ,8628,MERCER,EWING TWP
1071 PARKWAY AVE,EWING TWP,NJ  ,8618,MERCER,EWING TWP
2515 BRUNSWICK PK,LAWRENCE STATION,NJ  ,8648,MERCER,LAWRENCE TWP
519 RT 33,CLARKSBURG,NJ  ,8510,MONMOUTH,MILLSTONE TWP
62 THROCKMORTON ST,FREEHOLD,NJ  ,7728,MONMOUTH,FREEHOLD BORO
2501 BRUNSWICK PK,LAWRENCE TWP,NJ  ,8648,MERCER,LAWRENCE TWP
207 MONMOUTH RD,OAKHURST,NJ  ,7755,MONMOUTH,OCEAN TWP
203 MONMOUTH RD,OAKHURST,NJ  ,7755,MONMOUTH,OCEAN TWP
61 63 E MAIN ST,FREEHOLD,NJ  ,7728,MONMOUTH,FREEHOLD BORO
843 RT 33,MONROE TWP,NJ  ,8831,MIDDLESEX,MONROE TWP
3732 QUAKERBRIDGE RD,HAMILTON,NJ  ,8650,MERCER,HAMILTON TWP
1252 PARKWAY AVE,EWING TWP,NJ  ,8628,MERCER,EWING TWP
103 E MAIN ST,FREEHOLD,NJ  ,7728,MONMOUTH,FREEHOLD BORO
1034 RIVER RD,WEST TRENTON,NJ  ,8625,MERCER,EWING TWP
1075 NORWOOD AVE,ELBERON,NJ  ,7740,MONMOUTH,LONG BRANCH CITY
315 MERCER ST,HIGHTSTOWN,NJ  ,8520,MERCER,HIGHTSTOWN BORO
577 GRAND AVE,EWING TWP,NJ  ,8628,MERCER,EWING TWP
NEW JERSEY TPKE MM 67.6 S,EAST WINDSOR,NJ  ,8520,MERCER,EAST WINDSOR TWP
308 MERCER ST,HIGHTSTOWN,NJ  ,8520,MERCER,HIGHTSTOWN BORO
670 RT 33,EAST WINDSOR TWP,NJ  ,8520,MERCER,EAST WINDSOR TWP
941 BEAR TAVERN RD,EWING TWP,NJ  ,8638,MERCER,EWING TWP
373 MONMOUTH RD,WEST LONG BRANCH,NJ  ,7764,MONMOUTH,WEST LONG BRANCH BORO
632 2ND AVE,LONG BRANCH,NJ  ,7740,MONMOUTH,LONG BRANCH CITY
325 PRINCETON HIGHSTOWN RD,EAST WINDSOR,NJ  ,8543,MERCER,EAST WINDSOR TWP
4412 RT 9,FREEHOLD TWP,NJ  ,7728,MONMOUTH,FREEHOLD TWP
4140 QUAKERBRIDGE RD,LAWRENCE TWP,NJ  ,8648,MERCER,LAWRENCE TWP
187 WALL ST,WEST LONG BRANCH,NJ  ,7764,MONMOUTH,WEST LONG BRANCH BORO
135 OLD CRANBURY RD,EAST WINDSOR,NJ  ,8512,MERCER,EAST WINDSOR TWP
70 FREEHOLD RD,MANALAPAN,NJ  ,7726,MONMOUTH,MANALAPAN TWP
2417 MAIN ST,LAWRENCEVILLE,NJ  ,8648,MERCER,LAWRENCE TWP
401 PRINCETON HIGHTSTOWN RD,WEST WINDSOR TWP,NJ  ,8512,MERCER,WEST WINDSOR TWP
1160 PINEBROOK RD,TINTON FALLS,NJ  ,7724,MONMOUTH,TINTON FALLS BORO
2736 RT 130,CRANBURY,NJ  ,8512,MIDDLESEX,CRANBURY TWP
401 HIGHTSTOWN RD,WEST WINDSOR TWP,NJ  ,8550,MERCER,WEST WINDSOR TWP
2734 RT 130,CRANBURY,NJ  ,8512,MIDDLESEX,CRANBURY TWP
800 RT 36,EATONTOWN,NJ  ,7724,MONMOUTH,EATONTOWN BORO
2731 RT 130 S,CRANBURY,NJ  ,8512,MIDDLESEX,CRANBURY TWP
207 MONMOUTH RD,WEST LONG BRANCH,NJ  ,7764,MONMOUTH,WEST LONG BRANCH BORO
46 RT 9,MANALAPAN TWP,NJ  ,7726,MONMOUTH,MANALAPAN TWP
150 RT 35 ,EATONTOWN,NJ  ,7724,MONMOUTH,EATONTOWN BORO
1340 RIVER RD,TITUSVILLE,NJ  ,8560,MERCER,HOPEWELL TWP
556 TINTON AVE,TINTON FALLS,NJ  ,7724,MONMOUTH,TINTON FALLS BORO
133 RT 36,WEST LONG BRANCH,NJ  ,7764,MONMOUTH,WEST LONG BRANCH BORO
199 RT 9,MANALAPAN,NJ  ,7726,MONMOUTH,MANALAPAN TWP
1 WILSON AVE,ENGLISHTOWN,NJ  ,7726,MONMOUTH,ENGLISHTOWN BORO
208 RT 9,MANALAPAN TWP,NJ  ,7726,MONMOUTH,MANALAPAN TWP
71 MONMOUTH PARK HWY,WEST LONG BRANCH,NJ  ,7764,MONMOUTH,WEST LONG BRANCH BORO
RT 35 & SOUTH ST,EATONTOWN,NJ  ,7724,MONMOUTH,EATONTOWN BORO
706 TINTON AVE,TINTON FALLS,NJ  ,7724,MONMOUTH,TINTON FALLS BORO
248 250 BROADWAY,LONG BRANCH,NJ  ,7740,MONMOUTH,LONG BRANCH CITY
570 JOLINE AVE,LONG BRANCH,NJ  ,7740,MONMOUTH,LONG BRANCH CITY
208 BRANCHPORT AVE,LONG BRANCH,NJ  ,7740,MONMOUTH,LONG BRANCH CITY
120 RT 35,EATONTOWN,NJ  ,7724,MONMOUTH,EATONTOWN BORO
2551 RT 31 & PENNINGTON CIR ,HOPEWELL TWP,NJ  ,8534,MERCER,HOPEWELL TWP
104 WASHINGTON CROSSING PENNINGTON RD,HOPEWELL TWP,NJ  ,8534,MERCER,HOPEWELL TWP
157 BROAD ST,EATONTOWN,NJ  ,7724,MONMOUTH,EATONTOWN BORO
2558 PENNINGTON RD,HOPEWELL TWP,NJ  ,8665,MERCER,HOPEWELL TWP
226 RT 31 @ PENNINGTON CIR ,HOPEWELL TWP,NJ  ,8534,MERCER,HOPEWELL TWP
247 GORDONS CORNER RD,MANALAPAN,NJ  ,7726,MONMOUTH,MANALAPAN TWP
203 WASHINGTON CROSSING PENNINGTON RD,HOPEWELL TWP,NJ  ,8535,MERCER,HOPEWELL TWP
3513 RT 1,WEST WINDSOR TWP,NJ  ,8550,MERCER,WEST WINDSOR TWP
300 GORDONS CORNER RD,MANALAPAN,NJ  ,7726,MONMOUTH,MANALAPAN TWP
522 RT 130,EAST WINDSOR,NJ  ,8520,MERCER,EAST WINDSOR TWP
960 RT 33 ,MONROE TWP,NJ  ,8831,MIDDLESEX,MONROE TWP
992 RT 33,MONROE TWP,NJ  ,8852,MIDDLESEX,MONROE TWP
1 LAKE DR ,EAST WINDSOR TWP,NJ  ,8520,MERCER,EAST WINDSOR TWP
665 RT 33,EAST WINDSOR,NJ  ,8520,MERCER,EAST WINDSOR TWP
1543 PARKWAY AVE,EWING,NJ  ,8628,MERCER,EWING TWP
160 164 MERCER ST,HIGHTSTOWN,NJ  ,8520,MERCER,HIGHTSTOWN BORO
2119 RT 35,OAKHURST,NJ  ,7755,MONMOUTH,OCEAN TWP
2890 BRUNSWICK PK,LAWRENCEVILLE,NJ  ,8648,MERCER,LAWRENCE TWP
423 RT 130,EAST WINDSOR TWP,NJ  ,8520,MERCER,EAST WINDSOR TWP
430 RT 130,EAST WINDSOR,NJ  ,8520,MERCER,EAST WINDSOR TWP
2936 BRUNSWICK PK,LAWRENCE TWP,NJ  ,8648,MERCER,LAWRENCE TWP
231 RT 34,COLTS NECK,NJ  ,7722,MONMOUTH,COLTS NECK TWP
2137 RT 35,OAKHURST,NJ  ,7755,MONMOUTH,OCEAN TWP
4200 RT9,FREEHOLD TWP,NJ  ,7728,MONMOUTH,FREEHOLD TWP
4211 RT 9 ,FREEHOLD TWP,NJ  ,7728,MONMOUTH,FREEHOLD TWP
2961 BRUNSWICK PK,LAWRENCEVILLE,NJ  ,8648,MERCER,LAWRENCE TWP
2098 PENNINGTON RD,EWING,NJ  ,8618,MERCER,EWING TWP
2085 PENNINGTON RD,EWING TWP,NJ  ,8618,MERCER,EWING TWP
2095 PENNINGTON RD,EWING TWP,NJ  ,8638,MERCER,EWING TWP
267 RT 34 ,COLTS NECK,NJ  ,7722,MONMOUTH,COLTS NECK TWP
4090 QUAKERBRIDGE RD,LAWRENCE TWP,NJ  ,8648,MERCER,LAWRENCE TWP
1480 RIVER RD,TITUSVILLE,NJ  ,8560,MERCER,HOPEWELL TWP
78 HIGHTSTOWN RD,PRINCETON JUNCTION,NJ  ,8550,MERCER,WEST WINDSOR TWP
74 RT 571,PRINCETON JUNCTION,NJ  ,8550,MERCER,WEST WINDSOR TWP
76 GRAVEL HILL SPOTSWOOD RD,MONROE TWP,NJ  ,8831,MIDDLESEX,MONROE TWP
360 RT 9,MANALAPAN TWP,NJ  ,7726,MONMOUTH,MANALAPAN TWP
54 56 HIGHTSTOWN RD,PRINCETON JUNCTION,NJ  ,8550,MERCER,WEST WINDSOR TWP
434 BRANCHPORT AVE,OCEANPORT,NJ  ,7757,MONMOUTH,OCEANPORT BORO
1600 PERRINEVILLE HIGHTSTOWN RD,MONROE TWP,NJ  ,8831,MIDDLESEX,MONROE TWP
2 MAIN ST,MARLBORO,NJ  ,7746,MONMOUTH,MARLBORO TWP
105 RT 31,HOPEWELL TWP,NJ  ,8534,MERCER,HOPEWELL TWP
2677 RT 130,CRANBURY TWP,NJ  ,8512,MIDDLESEX,CRANBURY TWP
391 RT 9 ,MANALAPAN TWP,NJ  ,7726,MONMOUTH,MANALAPAN TWP
NEW JERSEY TPKE MM 71.1 S,CRANBURY,NJ  ,8512,MIDDLESEX,CRANBURY TWP
PROSPECT PLAINS & HALF ACRE RD,MONROE TWP,NJ  ,8831,MIDDLESEX,MONROE TWP
4 OCEAN AVE,MONMOUTH BEACH,NJ  ,7750,MONMOUTH,MONMOUTH BEACH BORO
661 SHREWSBURY AVE,SHREWSBURY,NJ  ,7702,MONMOUTH,SHREWSBURY BORO
PERRINEVILLE RD,MONROE TWP,NJ  ,8831,MIDDLESEX,MONROE TWP
PERRINEVILLE RD,MONROE TWP,NJ  ,8884,MIDDLESEX,MONROE TWP
100 DEY RD,CRANBURY TWP,NJ  ,8512,MIDDLESEX,CRANBURY TWP
720 BRANCH AVE,LITTLE SILVER,NJ  ,7739,MONMOUTH,LITTLE SILVER BORO
1 RT 31,PENNINGTON,NJ  ,8534,MERCER,PENNINGTON BORO
75 CHESTNUT ST,RED BANK,NJ  ,7701,MONMOUTH,RED BANK BORO
1410 OCEAN AVE,SEA BRIGHT,NJ  ,7760,MONMOUTH,SEA BRIGHT BORO
271 NASSAU ST,PRINCETON,NJ  ,8540,MERCER,PRINCETON
273 NASSAU ST,PRINCETON,NJ  ,8540,MERCER,PRINCETON
232 GATZMER AVE,JAMESBURG,NJ  ,8831,MIDDLESEX,JAMESBURG BORO
70 RT 9,MARLBORO,NJ  ,7727,MONMOUTH,MARLBORO TWP
171 BAYARD LN,PRINCETON TWP,NJ  ,8542,MERCER,PRINCETON
1886 ENGLISHTOWN RD,OLD BRIDGE TWP,NJ  ,8857,MIDDLESEX,OLD BRIDGE TWP
127 RT 31,HOPEWELL TWP,NJ  ,8560,MERCER,HOPEWELL TWP
2432 RT 130,SOUTH BRUNSWICK TWP,NJ  ,8810,MIDDLESEX,SOUTH BRUNSWICK TWP
3RD ST & MAPLE AVE,FAIR HAVEN,NJ  ,7704,MONMOUTH,FAIR HAVEN BORO
18 RT 9,MARLBORO,NJ  ,7746,MONMOUTH,MARLBORO TWP
554 RIVER RD,FAIR HAVEN,NJ  ,7701,MONMOUTH,FAIR HAVEN BORO
626 RIVER RD,FAIR HAVEN,NJ  ,7701,MONMOUTH,FAIR HAVEN BORO
237 RT 35,MIDDLETOWN,NJ  ,7701,MONMOUTH,MIDDLETOWN TWP
1010 OCEAN AVE,SEA BRIGHT,NJ  ,7760,MONMOUTH,SEA BRIGHT BORO
32 S FRANKLIN ST,LAMBERTVILLE,NJ  ,8530,HUNTERDON,LAMBERTVILLE CITY
1006 OCEAN AVE,SEA BRIGHT,NJ  ,7760,MONMOUTH,SEA BRIGHT BORO
83 BRIDGE ST,LAMBERTVILLE,NJ  ,8530,HUNTERDON,LAMBERTVILLE CITY
82 BRIDGE ST ,LAMBERTVILLE,NJ  ,8530,HUNTERDON,LAMBERTVILLE CITY
347 RT 35,EATONTOWN,NJ  ,7701,MONMOUTH,EATONTOWN BORO
417 RT 35,MIDDLETOWN,NJ  ,7758,MONMOUTH,MIDDLETOWN TWP
RT 35 & OAK HILL RD,MIDDLETOWN TWP,NJ  ,7748,MONMOUTH,MIDDLETOWN TWP
939 CRANBURY SOUTH RIVER RD,SOUTH BRUNSWICK TWP,NJ  ,8852,MIDDLESEX,SOUTH BRUNSWICK TWP
3699 CHEESEQUAKE BROWNTOWN RD,OLD BRIDGE TWP,NJ  ,8857,MIDDLESEX,OLD BRIDGE TWP
431 435 RT 35,MIDDLETOWN TWP,NJ  ,7748,MONMOUTH,MIDDLETOWN TWP
27 W RIVER RD,RUMSON,NJ  ,7760,MONMOUTH,RUMSON BORO
3600 3610 RT 9,OLD BRIDGE TWP,NJ  ,8857,MIDDLESEX,OLD BRIDGE TWP
885 CRANBURY SOUTH RIVER RD,SOUTH BRUNSWICK TWP,NJ  ,8831,MIDDLESEX,SOUTH BRUNSWICK TWP
4217 RT 1,SOUTH BRUNSWICK TWP,NJ  ,8852,MIDDLESEX,SOUTH BRUNSWICK TWP
VALLEY RD & MT LUCAS RD,PRINCETON TWP,NJ  ,8540,MERCER,PRINCETON
3617 RT 9 N,OLD BRIDGE TWP,NJ  ,8857,MIDDLESEX,OLD BRIDGE TWP
28 MAIN ST,HELMETTA,NJ  ,8828,MIDDLESEX,HELMETTA BORO
2260 2262 RT 130,DAYTON,NJ  ,8810,MIDDLESEX,SOUTH BRUNSWICK TWP
DEVOE AVE,MONROE TWP,NJ  ,8884,MIDDLESEX,MONROE TWP
2256 RT 130,DAYTON,NJ  ,8810,MIDDLESEX,SOUTH BRUNSWICK TWP
540 RIDGE RD,SOUTH BRUNSWICK TWP,NJ  ,8852,MIDDLESEX,SOUTH BRUNSWICK TWP
469 RT 79,MORGANVILLE,NJ  ,7751,MONMOUTH,MARLBORO TWP
4150 RT 1,SOUTH BRUNSWICK TWP,NJ  ,8852,MIDDLESEX,SOUTH BRUNSWICK TWP
49 KANES LN,MIDDLETOWN,NJ  ,7748,MONMOUTH,MIDDLETOWN TWP
59 PRINCETON AVE,HOPEWELL,NJ  ,8525,MERCER,HOPEWELL BORO
301 MT AIRY HARBOURTON RD,WEST AMWELL TWP,NJ  ,8530,HUNTERDON,WEST AMWELL TWP
697 BRANCH AVE,LITTLE SILVER,NJ  ,7750,MONMOUTH,LITTLE SILVER BORO
333 WILLOW DR,LITTLE SILVER,NJ  ,7739,MONMOUTH,LITTLE SILVER BORO
423 BUCKELEW AVE,MONROE TWP,NJ  ,8831,MIDDLESEX,MONROE TWP
590 SHREWSBURY AVE,TINTON FALLS BORO,NJ  ,7724,MONMOUTH,TINTON FALLS BORO
2633 RT 130,SOUTH BRUNSWICK TWP,NJ  ,8852,MIDDLESEX,SOUTH BRUNSWICK TWP
264 WASHINGTON RD,WEST WINDSOR TWP,NJ  ,8550,MERCER,WEST WINDSOR TWP
699 NEWMAN SPRINGS RD,LINCROFT,NJ  ,7738,MONMOUTH,MIDDLETOWN TWP
695 NEWMAN SPRNGS RD,LINCROFT,NJ  ,7738,MONMOUTH,MIDDLETOWN TWP
3717 RT 1,WEST WINDSOR TWP,NJ  ,8541,MERCER,WEST WINDSOR TWP
461 NEWMAN SPRINGS RD,MARLBORO,NJ  ,7746,MONMOUTH,MARLBORO TWP
182 PENSION RD,OLD BRIDGE TWP,NJ  ,7726,MIDDLESEX,OLD BRIDGE TWP
33 WEST ST,MONMOUTH BEACH,NJ  ,7750,MONMOUTH,MONMOUTH BEACH BORO
3729 3771 RT 1,WEST WINDSOR TWP,NJ  ,8540,MERCER,WEST WINDSOR TWP
219 NEWMAN SPRINGS RD,SHREWSBURY,NJ  ,7701,MONMOUTH,SHREWSBURY BORO
220 NEWMAN SPRINGS RD,RED BANK,NJ  ,7701,MONMOUTH,RED BANK BORO
390 SHREWSBURY AVE,RED BANK,NJ  ,7701,MONMOUTH,RED BANK BORO
215 RT 9 ,MARLBORO,NJ  ,7746,MONMOUTH,MARLBORO TWP
46 E MAIN ST,HOLMDEL,NJ  ,7733,MONMOUTH,HOLMDEL TWP
217 RT 34,HOLMDEL TWP,NJ  ,7733,MONMOUTH,HOLMDEL TWP
181 RT 9,MARLBORO TWP,NJ  ,7746,MONMOUTH,MARLBORO TWP
239 FORSGATE DR,JAMESBURG BORO,NJ  ,8831,MIDDLESEX,JAMESBURG BORO
132 136 MILLBURN AVE,MILLBURN,NJ  ,7041,ESSEX,MILLBURN TWP
808 COMMUNIPAW AVE,JERSEY CITY,NJ  ,7303,HUDSON,JERSEY CITY
42 46 MORRIS ESSEX TPKE,SUMMIT,NJ  ,7901,UNION,SUMMIT CITY
754 LYONS AVE,IRVINGTON,NJ  ,7111,ESSEX,IRVINGTON TWP
17 FRELINGHUYSEN AVE,NEWARK,NJ  ,7108,ESSEX,NEWARK CITY
185 WILSON AVE,NEWARK,NJ  ,7105,ESSEX,NEWARK CITY
1 ELIZABETH AVE,NEWARK,NJ  ,7108,ESSEX,NEWARK CITY
938 CLINTON AVE,IRVINGTON,NJ  ,7111,ESSEX,IRVINGTON TWP
1459 SPRINGFIELD AVE,MAPLEWOOD,NJ  ,7040,ESSEX,MAPLEWOOD TWP
822 CLINTON AVE,NEWARK,NJ  ,7108,ESSEX,NEWARK CITY
440 RT 31,WASHINGTON TWP,NJ  ,7882,WARREN,WASHINGTON TWP
2403 RT 57,FRANKLIN TWP,NJ  ,8808,WARREN,FRANKLIN TWP
1000 COMMUNIPAW AVE,JERSEY CITY,NJ  ,7303,HUDSON,JERSEY CITY
40 BALL ST,IRVINGTON,NJ  ,7111,ESSEX,IRVINGTON TWP
959 961 CLINTON AVE,IRVINGTON,NJ  ,7111,ESSEX,IRVINGTON TWP
45 UNION AVE,IRVINGTON,NJ  ,7111,ESSEX,IRVINGTON TWP
1202 1210 SPRINGFIELD AVE,IRVINGTON,NJ  ,8723,ESSEX,IRVINGTON TWP
46 CHATHAM RD,SHORT HILLS,NJ  ,7078,ESSEX,MILLBURN TWP
1029 CLINTON AVE,IRVINGTON,NJ  ,7111,ESSEX,IRVINGTON TWP
429 HIGH BRIDGE CALIFON RD,LEBANON TWP,NJ  ,8826,HUNTERDON,LEBANON TWP
63 69 WILSON AVE,NEWARK,NJ  ,7105,ESSEX,NEWARK CITY
312 WALNUT ST,NEWARK,NJ  ,7105,ESSEX,NEWARK CITY
560 BROAD ST,BLOOMFIELD,NJ  ,7003,ESSEX,BLOOMFIELD TWP
744 750 RUTHERFORD AVE,LYNDHURST,NJ  ,7071,BERGEN,LYNDHURST TWP
261 PALISADE AVE,CLIFFSIDE PARK,NJ  ,7010,BERGEN,CLIFFSIDE PARK BORO
478 RIVER RD,EDGEWATER,NJ  ,7020,BERGEN,EDGEWATER BORO
759 RUTHERFORD AVE,RUTHERFORD,NJ  ,7070,BERGEN,RUTHERFORD BORO
145 RT 10,HANOVER,NJ  ,7981,MORRIS,HANOVER TWP
45 RIDGE RD,LYNDHURST,NJ  ,7071,BERGEN,LYNDHURST TWP
492 SUSSEX AVE,MORRIS TWP,NJ  ,7960,MORRIS,MORRIS TWP
296 PALISADE AVE,CLIFFSIDE PARK,NJ  ,7010,BERGEN,CLIFFSIDE PARK BORO
188 BLOOMFIELD AVE,NUTLEY,NJ  ,7110,ESSEX,NUTLEY TWP
172 174 RT 10,HANOVER,NJ  ,7981,MORRIS,HANOVER TWP
2 RIDGE RD,LYNDHURST,NJ  ,7071,BERGEN,LYNDHURST TWP
341 GORGE RD,CLIFFSIDE PARK,NJ  ,7010,BERGEN,CLIFFSIDE PARK BORO
248 FRANKLIN AVE,NUTLEY,NJ  ,7110,ESSEX,NUTLEY TWP
33 37 ORANGE RD,MONTCLAIR,NJ  ,7042,ESSEX,MONTCLAIR TWP
468 CENTRE ST,NUTLEY,NJ  ,7110,ESSEX,NUTLEY TWP
651 BLOOMFIELD AVE,MONTCLAIR,NJ  ,7042,ESSEX,MONTCLAIR TWP
276 RT 10,WHIPPANY,NJ  ,7981,MORRIS,HANOVER TWP
694 BLOOMFIELD AVE,MONTCLAIR,NJ  ,7042,ESSEX,MONTCLAIR TWP
300 330 WASHINGTON AVE,CARLSTADT,NJ  ,7072,BERGEN,CARLSTADT BORO
169 SPEEDWELL AVE,MORRIS PLAINS,NJ  ,7950,MORRIS,MORRIS PLAINS BORO
W HANOVER AVE,MORRIS TWP,NJ  ,7963,MORRIS,MORRIS TWP
4 HARTS LN,EAST BRUNSWICK TWP,NJ  ,8816,MIDDLESEX,EAST BRUNSWICK TWP
NEW JERSEY TPKE MM 81.0 S,MILLTOWN,NJ  ,8850,MIDDLESEX,MILLTOWN BORO
1300 RT 35,OLD BRIDGE TWP,NJ  ,8857,MIDDLESEX,OLD BRIDGE TWP
3112 BORDENTOWN AVE,OLD BRIDGE TWP,NJ  ,8859,MIDDLESEX,OLD BRIDGE TWP
371 RT 18,EAST BRUNSWICK TWP,NJ  ,8816,MIDDLESEX,EAST BRUNSWICK TWP
31 S MAIN ST,MILLTOWN,NJ  ,8850,MIDDLESEX,MILLTOWN BORO
1890 RT 1,NORTH BRUNSWICK TWP,NJ  ,8902,MIDDLESEX,NORTH BRUNSWICK TWP
19 MAIN ST ,MILLTOWN,NJ  ,8850,MIDDLESEX,MILLTOWN BORO
344 RT 18,EAST BRUNSWICK TWP,NJ  ,8816,MIDDLESEX,EAST BRUNSWICK TWP
345 RT 18,EAST BRUNSWICK TWP,NJ  ,8816,MIDDLESEX,EAST BRUNSWICK TWP
57 REID ST,SOUTH RIVER,NJ  ,8882,MIDDLESEX,SOUTH RIVER BORO
332 RT 18,EAST BRUNSWICK TWP,NJ  ,8816,MIDDLESEX,EAST BRUNSWICK TWP
8000 GONDEK DR,SAYREVILLE,NJ  ,8872,MIDDLESEX,SAYREVILLE BORO
110 RYDERS LN ,MILLTOWN,NJ  ,8850,MIDDLESEX,MILLTOWN BORO
201 N MAIN ST,MILLTOWN,NJ  ,8850,MIDDLESEX,MILLTOWN BORO
289 RT 18,EAST BRUNSWICK TWP,NJ  ,8816,MIDDLESEX,EAST BRUNSWICK TWP
ERNSTON RD,SAYREVILLE,NJ  ,8872,MIDDLESEX,SAYREVILLE BORO
RT 35 N & LAURENCE PWKY,OLD BRIDGE TWP,NJ  ,8857,MIDDLESEX,OLD BRIDGE TWP
127 ERNSTON RD ,OLD BRIDGE TWP,NJ  ,8859,MIDDLESEX,OLD BRIDGE TWP
273 WASHINGTON RD,SAYREVILLE,NJ  ,8872,MIDDLESEX,SAYREVILLE BORO
812 RT 35,LAURENCE HARBOR,NJ  ,8879,MIDDLESEX,OLD BRIDGE TWP
922 RT 22,NORTH PLAINFIELD,NJ  ,7060,SOMERSET,NORTH PLAINFIELD BORO
985 RT 22,NORTH PLAINFIELD,NJ  ,7060,SOMERSET,NORTH PLAINFIELD BORO
100 WESTFIELD AVE,CLARK TWP,NJ  ,7066,UNION,CLARK TWP
104 WESTFIELD AVE,CLARK TWP,NJ  ,7066,UNION,CLARK TWP
150 CHURCH ST,PLAINFIELD,NJ  ,7060,UNION,PLAINFIELD CITY
2030 S WOOD AVE,LINDEN,NJ  ,7036,UNION,LINDEN CITY
VALLEY RD & PARKWAY DR ,CLARK TWP,NJ  ,7066,UNION,CLARK TWP
2020 CLINTON ST,LINDEN,NJ  ,7036,UNION,LINDEN CITY
400 SOMERSET ST,NORTH PLAINFIELD,NJ  ,7060,SOMERSET,NORTH PLAINFIELD BORO
421 SOMERSET ST,NORTH PLAINFIELD,NJ  ,7063,SOMERSET,NORTH PLAINFIELD BORO
330 W SPRUCE AVE ,NORTH WILDWOOD,NJ  ,8260,CAPE MAY,NORTH WILDWOOD CITY
414 RT 22,WHITEHOUSE STATION,NJ  ,8889,HUNTERDON,READINGTON TWP
430 WESTFIELD AVE,CLARK TWP,NJ  ,7066,UNION,CLARK TWP
462 SOMERSET ST,NORTH PLAINFIELD,NJ  ,7060,SOMERSET,NORTH PLAINFIELD BORO
89 MT BETHEL RD,WARREN TWP,NJ  ,7060,SOMERSET,WARREN TWP
801 W ELIZABETH AVE,LINDEN,NJ  ,7036,UNION,LINDEN CITY
RT 1/9 S  & WOOD AVE,LINDEN,NJ  ,7036,UNION,LINDEN CITY
150 AIRPORT RD,BEDMINSTER,NJ  ,7921,SOMERSET,BEDMINSTER TWP
11 E EDGAR RD,LINDEN,NJ  ,7036,UNION,LINDEN CITY
RT 22,WHITEHOUSE,NJ  ,8888,HUNTERDON,READINGTON TWP
413 RT 22,WHITEHOUSE,NJ  ,8888,HUNTERDON,READINGTON TWP
354 AVON AVE,NEWARK CITY,NJ  ,7114,ESSEX,NEWARK CITY
917 925 SPRINGFIELD AVE,IRVINGTON,NJ  ,7111,ESSEX,IRVINGTON TWP
895 SPRINGFIELD AVE,IRVINGTON,NJ  ,7111,ESSEX,IRVINGTON TWP
775 WEST SIDE AVE,JERSEY CITY,NJ  ,7306,HUDSON,JERSEY CITY
1173 CLINTON AVE,IRVINGTON,NJ  ,7111,ESSEX,IRVINGTON TWP
842 SPRINGFIELD AVE,IRVINGTON,NJ  ,7111,ESSEX,IRVINGTON TWP
615 MCCARTER HWY,NEWARK,NJ  ,7102,ESSEX,NEWARK CITY
6 RIVER RD,SUMMIT,NJ  ,7901,UNION,SUMMIT CITY
625 MCCARTER HWY,NEWARK,NJ  ,7102,ESSEX,NEWARK CITY
645 MCCARTER HWY,NEWARK,NJ  ,7102,ESSEX,NEWARK CITY
183 12TH ST,JERSEY CITY,NJ  ,7302,HUDSON,JERSEY CITY
235 12TH ST,JERSEY CITY,NJ  ,7310,HUDSON,JERSEY CITY
245 12TH ST,JERSEY CITY,NJ  ,7303,HUDSON,JERSEY CITY
197 221 12TH ST ,JERSEY CITY,NJ  ,7303,HUDSON,JERSEY CITY
12TH ST & ERIE ST,JERSEY CITY,NJ  ,7032,HUDSON,JERSEY CITY
1 CHATHAM RD,SUMMIT,NJ  ,7901,UNION,SUMMIT CITY
744 752 IRVINGTON AVE,MAPLEWOOD,NJ  ,7040,ESSEX,MAPLEWOOD TWP
584 594 SPRINGFIELD AVE,NEWARK,NJ  ,7054,ESSEX,NEWARK CITY
390 WASHINGTON ST,NEWARK,NJ  ,7102,ESSEX,NEWARK CITY
536 MARKET ST,NEWARK,NJ  ,7105,ESSEX,NEWARK CITY
376 DUNCAN AVE,JERSEY CITY,NJ  ,7303,HUDSON,JERSEY CITY
61 LINCOLN HWY,KEARNY,NJ  ,7032,HUDSON,KEARNY TOWN
2 PARSIPPANY RD,HANOVER,NJ  ,7981,MORRIS,HANOVER TWP
131 149 HIGHLAND CROSS RD,RUTHERFORD,NJ  ,7070,BERGEN,RUTHERFORD BORO
525 EAGLE ROCK AVE,ROSELAND,NJ  ,7068,ESSEX,ROSELAND BORO
550 EAGLE ROCK AVE,ROSELAND,NJ  ,7068,ESSEX,ROSELAND BORO
168 EAGLE ROCK AVE,ROSELAND,NJ  ,7068,ESSEX,ROSELAND BORO
300 EAGLE ROCK AVE,ROSELAND,NJ  ,7068,ESSEX,ROSELAND BORO
257 SPEEDWELL AVE,MORRIS TWP,NJ  ,7950,MORRIS,MORRIS TWP
285 SPEEDWELL AVE,MORRIS PLAINS,NJ  ,7950,MORRIS,MORRIS PLAINS BORO
522 RT 10,WHIPPANY,NJ  ,7936,MORRIS,HANOVER TWP
50 RT 17,RUTHERFORD,NJ  ,7070,BERGEN,RUTHERFORD BORO
290 SPEEDWELL AVE,MORRIS PLAINS,NJ  ,7950,MORRIS,MORRIS PLAINS BORO
93 FAIRCHILD AVE,MORRIS TWP,NJ  ,7940,MORRIS,MORRIS TWP
386 DOVER CHESTER RD,IRONIA,NJ  ,7845,MORRIS,RANDOLPH TWP
148 VALLEY RD,MONTCLAIR,NJ  ,7042,ESSEX,MONTCLAIR TWP
610 RT 10,WHIPPANY,NJ  ,7981,MORRIS,HANOVER TWP
482 FRANKLIN AVE,NUTLEY,NJ  ,7110,ESSEX,NUTLEY TWP
NEW JERSEY TPKE MM 116.0 S,RIDGEFIELD BORO,NJ  ,7643,BERGEN,RIDGEFIELD BORO
217 PARK AVE,RUTHERFORD,NJ  ,7070,BERGEN,RUTHERFORD BORO
101 BLOOMFIELD AVE,VERONA,NJ  ,7044,ESSEX,VERONA TWP
9 MEADOW RD,RUTHERFORD,NJ  ,7070,BERGEN,RUTHERFORD BORO
177 PARK AVE,RUTHERFORD,NJ  ,7070,BERGEN,RUTHERFORD BORO
114 RYDERS LN,EAST BRUNSWICK TWP,NJ  ,8816,MIDDLESEX,EAST BRUNSWICK TWP
VARIOUS STREETS ,FORT HANCOCK,NJ  ,7732,MONMOUTH,MIDDLETOWN TWP
1705 1707 RT 35 ,OLD BRIDGE TWP,NJ  ,8879,MIDDLESEX,OLD BRIDGE TWP
656 OLD BRIDGE TPKE ,SOUTH RIVER,NJ  ,8882,MIDDLESEX,SOUTH RIVER BORO
974 RT 9,SAYREVILLE,NJ  ,8872,MIDDLESEX,SAYREVILLE BORO
957 RT 9,SAYREVILLE BORO,NJ  ,8879,MIDDLESEX,SAYREVILLE BORO
167 MAIN ST,SAYREVILLE,NJ  ,8872,MIDDLESEX,SAYREVILLE BORO
2800 WASHINGTON RD,SAYREVILLE,NJ  ,8859,MIDDLESEX,SAYREVILLE BORO
1949 RT 35,MORGAN,NJ  ,8879,MIDDLESEX,SAYREVILLE BORO
GARDEN STATE PKWY MM 124,SAYREVILLE,NJ  ,8872,MIDDLESEX,SAYREVILLE BORO
1788 RT 35,SAYREVILLE,NJ  ,8879,MIDDLESEX,SAYREVILLE BORO
232 RT 18,EAST BRUNSWICK TWP,NJ  ,8816,MIDDLESEX,EAST BRUNSWICK TWP
943 RT 9 ,SAYREVILLE,NJ  ,8879,MIDDLESEX,SAYREVILLE BORO
229 RT 18,EAST BRUNSWICK TWP,NJ  ,8816,MIDDLESEX,EAST BRUNSWICK TWP
535 MILLTOWN RD,NORTH BRUNSWICK TWP,NJ  ,8902,MIDDLESEX,NORTH BRUNSWICK TWP
D&R CANAL STATE PARK,BELLE MEAD,NJ  ,8000,SOMERSET,MONTGOMERY TWP
237 MAIN ST ,SAYREVILLE,NJ  ,8872,MIDDLESEX,SAYREVILLE BORO
912 RT 9,SAYREVILLE,NJ  ,8859,MIDDLESEX,SAYREVILLE BORO
590 GEORGES RD,NORTH BRUNSWICK TWP,NJ  ,8901,MIDDLESEX,NORTH BRUNSWICK TWP
940 LIVINGSTON AVE,NORTH BRUNSWICK TWP,NJ  ,8902,MIDDLESEX,NORTH BRUNSWICK TWP
643 RT 22,NORTH PLAINFIELD,NJ  ,7060,SOMERSET,NORTH PLAINFIELD BORO
930 W ST GEORGES AVE,LINDEN,NJ  ,7036,UNION,LINDEN CITY
1445 RT 31,ANNANDALE,NJ  ,8801,HUNTERDON,CLINTON TWP
675 SOMERSET ST,NORTH PLAINFIELD,NJ  ,7060,SOMERSET,NORTH PLAINFIELD BORO
1150 SOUTH ST,PLAINFIELD,NJ  ,7062,UNION,PLAINFIELD CITY
1400 PARK AVE,LINDEN,NJ  ,7036,UNION,LINDEN CITY
1208 CENTRAL AVE,CLARK TWP,NJ  ,7066,UNION,CLARK TWP
162 CENTRAL AVE,CLARK TWP,NJ  ,7066,UNION,CLARK TWP
401 E EDGAR RD,LINDEN,NJ  ,7036,UNION,LINDEN CITY
497 511 RT 22,NORTH PLAINFIELD,NJ  ,7060,SOMERSET,NORTH PLAINFIELD BORO
701 E EDGAR RD,LINDEN CITY,NJ  ,7036,UNION,LINDEN CITY
82 W MAIN ST,CLINTON,NJ  ,8809,HUNTERDON,CLINTON TOWN
GARDEN STATE PKWY MM 136.8 ,CLARK TWP,NJ  ,7066,UNION,CLARK TWP
741 E EDGAR RD,LINDEN,NJ  ,7036,UNION,LINDEN CITY
98 RT 173,CLINTON,NJ  ,8809,HUNTERDON,CLINTON TOWN
1401 1411 RARITAN RD,CLARK TWP,NJ  ,7066,UNION,CLARK TWP
169 PERRYVILLE RD,UNION,NJ  ,8827,HUNTERDON,UNION TWP
900 SOMERSET ST,WATCHUNG,NJ  ,7060,SOMERSET,WATCHUNG BORO
1170 RARITAN RD,CRANFORD,NJ  ,7016,UNION,CRANFORD TWP
2 SOUTH AVE,FANWOOD,NJ  ,7023,UNION,FANWOOD BORO
1 MAIN ST,CLINTON,NJ  ,8809,HUNTERDON,CLINTON TOWN
588 MANILA AVE,JERSEY CITY,NJ  ,7303,HUDSON,JERSEY CITY
164 14TH ST,JERSEY CITY,NJ  ,7302,HUDSON,JERSEY CITY
543 VALLEY ST,MAPLEWOOD,NJ  ,7040,ESSEX,MAPLEWOOD TWP
590 LUIS MUNOZ MARIN BLVD,JERSEY CITY,NJ  ,7303,HUDSON,JERSEY CITY
597 LUIS MUNOZ MARIN BLVD,JERSEY CITY,NJ  ,7041,HUDSON,JERSEY CITY
202 14TH ST,JERSEY CITY,NJ  ,7300,HUDSON,JERSEY CITY
210 14TH ST,JERSEY CITY,NJ  ,7303,HUDSON,JERSEY CITY
487 MARKET ST,NEWARK,NJ  ,7105,ESSEX,NEWARK CITY
387 397 SPRINGFIELD AVE,NEWARK,NJ  ,7104,ESSEX,NEWARK CITY
41 CHATHAM RD,SUMMIT,NJ  ,7901,UNION,SUMMIT CITY
230 14TH ST,JERSEY CITY,NJ  ,7097,HUDSON,JERSEY CITY
14TH ST & JERSEY AVE,JERSEY CITY,NJ  ,7302,HUDSON,JERSEY CITY
638 RAYMOND BLVD,NEWARK,NJ  ,7105,ESSEX,NEWARK CITY
456 W MARKET ST,NEWARK,NJ  ,7103,ESSEX,NEWARK CITY
810 SANFORD AVE,NEWARK,NJ  ,7106,ESSEX,NEWARK CITY
242 RAYMOND BLVD,NEWARK,NJ  ,7105,ESSEX,NEWARK CITY
349 361 RAYMOND BLVD,NEWARK,NJ  ,7105,ESSEX,NEWARK CITY
303 RAYMOND BLVD,NEWARK,NJ  ,7105,ESSEX,NEWARK CITY
1108 MORRIS ESSEX TPKE,SUMMIT,NJ  ,7901,UNION,SUMMIT CITY
786 SANFORD AVE,NEWARK,NJ  ,71019,ESSEX,NEWARK CITY
490 494 VALLEY ST,MAPLEWOOD,NJ  ,7040,ESSEX,MAPLEWOOD TWP
854 JERSEY AVE,JERSEY CITY,NJ  ,7302,HUDSON,JERSEY CITY
2014 RT 57,MANSFIELD TWP,NJ  ,7840,WARREN,MANSFIELD TWP
224 PARK AVE,RUTHERFORD,NJ  ,7070,BERGEN,RUTHERFORD BORO
312 BROAD AVE,RIDGEFIELD,NJ  ,7657,BERGEN,RIDGEFIELD BORO
577 WASHINGTON AVE,NUTLEY,NJ  ,7110,ESSEX,NUTLEY TWP
866 RIVER RD,EDGEWATER,NJ  ,7020,BERGEN,EDGEWATER BORO
1173 SUSSEX TPKE,MOUNT FREEDOM,NJ  ,7970,MORRIS,RANDOLPH TWP
1196 SUSSEX TPKE,RANDOLPH TWP,NJ  ,7970,MORRIS,RANDOLPH TWP
1011 HUDSON AVE,RIDGEFIELD,NJ  ,7657,BERGEN,RIDGEFIELD BORO
301 RIVER RD,CLIFTON,NJ  ,7014,PASSAIC,CLIFTON CITY
84 KINGSLAND ST,NUTLEY,NJ  ,7110,ESSEX,NUTLEY TWP
688 WASHINGTON AVE,CARLSTADT,NJ  ,7072,BERGEN,CARLSTADT BORO
688 FRANKLIN AVE,NUTLEY,NJ  ,7110,ESSEX,NUTLEY TWP
299 RT 3,CLIFTON,NJ  ,7011,PASSAIC,CLIFTON CITY
300 RT 3,CLIFTON,NJ  ,7011,PASSAIC,CLIFTON CITY
758 PATERSON PLANK RD,EAST RUTHERFORD,NJ  ,7073,BERGEN,EAST RUTHERFORD BORO
955 RIVER RD,EDGEWATER,NJ  ,7020,BERGEN,EDGEWATER BORO
211 WATCHUNG AVE,BLOOMFIELD,NJ  ,7003,ESSEX,BLOOMFIELD TWP
185 RT 17,EAST RUTHERFORD,NJ  ,7073,BERGEN,EAST RUTHERFORD BORO
720 WASHINGTON AVE,CARLSTADT,NJ  ,8816,BERGEN,CARLSTADT BORO
532 RIDGEDALE AVE,EAST HANOVER TWP,NJ  ,7936,MORRIS,EAST HANOVER TWP
452 462 BROAD AVE,RIDGEFIELD,NJ  ,7657,BERGEN,RIDGEFIELD BORO
292 RT 206,FLANDERS,NJ  ,7836,MORRIS,MOUNT OLIVE TWP
933 LIVINGSTON AVE,NORTH BRUNSWICK TWP,NJ  ,8901,MIDDLESEX,NORTH BRUNSWICK TWP
3340 WASHINGTON RD,SAYREVILLE,NJ  ,8859,MIDDLESEX,SAYREVILLE BORO
504 GEORGES RD,NORTH BRUNSWICK TWP,NJ  ,8901,MIDDLESEX,NORTH BRUNSWICK TWP
483 GEORGES RD,NORTH BRUNSWICK TWP,NJ  ,8902,MIDDLESEX,NORTH BRUNSWICK TWP
1300 LINCOLN HWY,NORTH BRUNSWICK TWP,NJ  ,8902,MIDDLESEX,NORTH BRUNSWICK TWP
1210 LINCOLN HWY,NORTH BRUNSWICK TWP,NJ  ,8902,MIDDLESEX,NORTH BRUNSWICK TWP
1213 RT 27,FRANKLIN TWP,NJ  ,8873,SOMERSET,FRANKLIN TWP
1200 SOMERSET ST,NEW BRUNSWICK,NJ  ,8903,MIDDLESEX,NEW BRUNSWICK CITY
686 LIVINGSTON AVE,NORTH BRUNSWICK TWP,NJ  ,8902,MIDDLESEX,NORTH BRUNSWICK TWP
862 RT 206,HILLSBOROUGH TWP,NJ  ,8853,SOMERSET,HILLSBOROUGH TWP
866 RT 206,BELLE MEAD,NJ  ,8502,SOMERSET,HILLSBOROUGH TWP
250 COMMERCIAL AVE,NEW BRUNSWICK,NJ  ,8903,MIDDLESEX,NEW BRUNSWICK CITY
135 BROADWAY,SOUTH AMBOY,NJ  ,8879,MIDDLESEX,SOUTH AMBOY CITY
34 RT 1,NEW BRUNSWICK,NJ  ,8901,MIDDLESEX,NEW BRUNSWICK CITY
6040 RT 9,SAYREVILLE,NJ  ,8879,MIDDLESEX,SAYREVILLE BORO
6055 RT 9,SAYREVILLE,NJ  ,8879,MIDDLESEX,SAYREVILLE BORO
6099 RT 9 & 35 S,SAYREVILLE,NJ  ,8872,MIDDLESEX,SAYREVILLE BORO
650 FRANKLIN BLVD,FRANKLIN TWP,NJ  ,8873,SOMERSET,FRANKLIN TWP
6090 RT 9 & 35,SAYREVILLE,NJ  ,8879,MIDDLESEX,SAYREVILLE BORO
1376 HAMILTON ST,SOMERSET,NJ  ,8873,SOMERSET,FRANKLIN TWP
172 GEORGE ST,NEW BRUNSWICK,NJ  ,8901,MIDDLESEX,NEW BRUNSWICK CITY
117 W ST GEORGES AVE,LINDEN,NJ  ,8036,UNION,LINDEN CITY
989 SOMERSET ST,WATCHUNG,NJ  ,7060,SOMERSET,WATCHUNG BORO
9 W ST GEORGES AVE,LINDEN,NJ  ,7036,UNION,LINDEN CITY
171 MT BETHEL RD,WARREN TWP,NJ  ,7060,SOMERSET,WARREN TWP
70 RT 173 W,UNION,NJ  ,8889,HUNTERDON,UNION TWP
2 W ST GEORGES AVE,LINDEN,NJ  ,7036,UNION,LINDEN CITY
1100 1104 RT 1/9,LINDEN,NJ  ,7036,UNION,LINDEN CITY
104 SOUTH AVE,FANWOOD,NJ  ,7202,UNION,FANWOOD BORO
15 STIRLING RD,WATCHUNG,NJ  ,7060,SOMERSET,WATCHUNG BORO
1001 E EDGAR RD,LINDEN,NJ  ,7036,UNION,LINDEN CITY
59 S MARTINE AVE,FANWOOD,NJ  ,7023,UNION,FANWOOD BORO
1551 S PARK AVE,LINDEN,NJ  ,7036,UNION,LINDEN CITY
339 SOUTH AVE,FANWOOD,NJ  ,7023,UNION,FANWOOD BORO
1500 E FRONT ST,SCOTCH PLAINS,NJ  ,7076,UNION,SCOTCH PLAINS TWP
501 ST GEORGES AVE,ROSELLE,NJ  ,7203,UNION,ROSELLE BORO
1255 RT 22,LEBANON,NJ  ,8833,HUNTERDON,LEBANON BORO
69 STIRLING RD,WARREN TWP,NJ  ,7060,SOMERSET,WARREN TWP
1370 RT 22,LEBANON,NJ  ,8833,HUNTERDON,LEBANON BORO
507 BAYWAY AVE,ELIZABETH,NJ  ,7202,UNION,ELIZABETH CITY
1366 RT 22,LEBANON,NJ  ,8833,HUNTERDON,LEBANON BORO
800 CENTRAL AVE,WESTFIELD,NJ  ,7234,UNION,WESTFIELD TOWN
545 MARTINSVILLE RD,BERNARDS TWP,NJ  ,7920,SOMERSET,BERNARDS TWP
53 BROADWAY,JERSEY CITY,NJ  ,7306,HUDSON,JERSEY CITY
758 18TH AVE,IRVINGTON,NJ  ,7111,ESSEX,IRVINGTON TWP
753 765 SANDFORD AVE,NEWARK,NJ  ,7106,ESSEX,NEWARK CITY
39 41 CENTRAL AVE,JERSEY CITY,NJ  ,7306,HUDSON,JERSEY CITY
1121 MT KEMBLE AVE,HARDING TWP,NJ  ,7960,MORRIS,HARDING TWP
814 18TH AVE,IRVINGTON,NJ  ,7111,ESSEX,IRVINGTON TWP
425 NEWARK ST,HOBOKEN,NJ  ,7030,HUDSON,HOBOKEN CITY
323 RT 31,WASHINGTON TWP,NJ  ,7882,WARREN,WASHINGTON TWP
40 MULBERRY ST,NEWARK,NJ  ,7101,ESSEX,NEWARK CITY
156 BROADWAY,JERSEY CITY,NJ  ,7303,HUDSON,JERSEY CITY
558 GROVE ST,IRVINGTON,NJ  ,8723,ESSEX,IRVINGTON TWP
526 GREEN VILLAGE RD,CHATHAM TWP,NJ  ,7935,MORRIS,CHATHAM TWP
226 S ORANGE AVE,NEWARK,NJ  ,7103,ESSEX,NEWARK CITY
111 MAIN ST,CHATHAM,NJ  ,7928,MORRIS,CHATHAM BORO
451 IRVINGTON AVE,SOUTH ORANGE,NJ  ,7079,ESSEX,SOUTH ORANGE VILLAGE TWP
183 191 MAIN ST,CHATHAM,NJ  ,7928,MORRIS,CHATHAM BORO
3080 KENNEDY BLVD,JERSEY CITY,NJ  ,7306,HUDSON,JERSEY CITY
3130 KENNEDY BLVD,JERSEY CITY,NJ  ,7306,HUDSON,JERSEY CITY
3140 KENNEDY BLVD,JERSEY CITY,NJ  ,8000,HUDSON,JERSEY CITY
252 IRVINGTON AVE,SOUTH ORANGE,NJ  ,7079,ESSEX,SOUTH ORANGE VILLAGE TWP
360 MAIN ST,CHATHAM,NJ  ,7928,MORRIS,CHATHAM BORO
359 FAIRMOUNT RD,WASHINGTON TWP,NJ  ,7853,MORRIS,WASHINGTON TWP
92 BROADWAY,PASSAIC,NJ  ,7055,PASSAIC,PASSAIC CITY
400 RT 46,PARSIPPANY,NJ  ,7054,MORRIS,PARSIPPANY-TROY HILLS
2959 RT 10,PARSIPPANY,NJ  ,7054,MORRIS,PARSIPPANY-TROY HILLS
24 INDUSTRIAL AVE,RIDGEFIELD PARK,NJ  ,7660,BERGEN,RIDGEFIELD PARK VILLAGE
214 CENTER GROVE RD,RANDOLPH TWP,NJ  ,7869,MORRIS,RANDOLPH TWP
736 RT 10,RANDOLPH TWP,NJ  ,7869,MORRIS,RANDOLPH TWP
1037 1045 BROAD ST,CLIFTON,NJ  ,7013,PASSAIC,CLIFTON CITY
11 RT 10,SUCCASUNNA,NJ  ,7876,MORRIS,ROXBURY TWP
2550 FLETCHER AVE,FORT LEE,NJ  ,7024,BERGEN,FORT LEE BORO
730 RT 46,PARSIPPANY,NJ  ,7054,MORRIS,PARSIPPANY-TROY HILLS
859 RT 46,PARSIPPANY,NJ  ,7054,MORRIS,PARSIPPANY-TROY HILLS
514 RT 10,RANDOLPH TWP,NJ  ,7869,MORRIS,RANDOLPH TWP
2 TETERBORO LANDING DR ,TETERBORO,NJ  ,7699,BERGEN,TETERBORO BORO
57 RT 10,SUCCASUNNA,NJ  ,7876,MORRIS,ROXBURY TWP
341 RT 46,BUDD LAKE,NJ  ,8728,MORRIS,MOUNT OLIVE TWP
87 RAILROAD AVE,RIDGEFIELD PARK,NJ  ,7660,BERGEN,RIDGEFIELD PARK VILLAGE
48 RT 10,SUCCASUNNA,NJ  ,7876,MORRIS,ROXBURY TWP
2195 RT 4,FORT LEE,NJ  ,7024,BERGEN,FORT LEE BORO
404 RT 17,HASBROUCK HEIGHTS,NJ  ,7430,BERGEN,HASBROUCK HEIGHTS BORO
65 RT 10,SUCCASUNNA,NJ  ,7876,MORRIS,ROXBURY TWP
1011 TABOR RD,PARSIPPANY,NJ  ,7950,MORRIS,PARSIPPANY-TROY HILLS
882 HAMILTON ST,FRANKLIN TWP,NJ  ,8873,SOMERSET,FRANKLIN TWP
80 MEMORIAL PKWY,NEW BRUNSWICK,NJ  ,8901,MIDDLESEX,NEW BRUNSWICK CITY
222 RT 202/31,RARITAN TWP,NJ  ,8822,HUNTERDON,RARITAN TWP
803 HAMILTON ST,SOMERSET,NJ  ,8873,SOMERSET,FRANKLIN TWP
217 FRENCH ST,NEW BRUNSWICK,NJ  ,8901,MIDDLESEX,NEW BRUNSWICK CITY
187 193 FRENCH ST,NEW BRUNSWICK,NJ  ,8902,MIDDLESEX,NEW BRUNSWICK CITY
541 HAMILTON ST,FRANKLIN TWP,NJ  ,8873,SOMERSET,FRANKLIN TWP
268 RT 202/31,RARITAN TWP,NJ  ,8822,HUNTERDON,RARITAN TWP
60 RARITAN AVE,HIGHLAND PARK,NJ  ,8904,MIDDLESEX,HIGHLAND PARK BORO
236 RT 1,EDISON TWP,NJ  ,8818,MIDDLESEX,EDISON TWP
127 EASTON AVE,NEW BRUNSWICK,NJ  ,8901,MIDDLESEX,NEW BRUNSWICK CITY
1873 AMWELL RD,SOMERSET,NJ  ,8873,SOMERSET,FRANKLIN TWP
282 RT 202/31,FLEMINGTON,NJ  ,8822,HUNTERDON,FLEMINGTON BORO
284 RT 202,FLEMINGTON,NJ  ,8822,HUNTERDON,FLEMINGTON BORO
1808 WOODBRIDGE AVE,EDISON,NJ  ,8817,MIDDLESEX,EDISON TWP
702 RARITAN AVE,HIGHLAND PARK,NJ  ,8904,MIDDLESEX,HIGHLAND PARK BORO
279 RT 1,EDISON,NJ  ,8817,MIDDLESEX,EDISON TWP
RT 12 & S MAIN ST,FLEMINGTON,NJ  ,8822,HUNTERDON,FLEMINGTON BORO
438 RT 206,HILLSBOROUGH,NJ  ,8853,SOMERSET,HILLSBOROUGH TWP
386 RT 1,EDISON,NJ  ,8818,MIDDLESEX,EDISON TWP
1008 AMWELL RD,MILLSTONE,NJ  ,8876,SOMERSET,MILLSTONE BORO
809 CENTRAL AVE,WESTFIELD,NJ  ,7090,UNION,WESTFIELD TOWN
2360 SOUTH AVE,SCOTCH PLAINS,NJ  ,7076,UNION,SCOTCH PLAINS TWP
2371 SOUTH AVE,SCOTCH PLAINS TWP,NJ  ,7091,UNION,SCOTCH PLAINS TWP
1701 E LINDEN AVE,LINDEN,NJ  ,7036,UNION,LINDEN CITY
120 RT 173,UNION TWP,NJ  ,8860,HUNTERDON,UNION TWP
30 WASHINGTON VALLEY RD,PLUCKEMIN,NJ  ,8876,SOMERSET,BEDMINSTER TWP
170 RT 173,PATTENBURG,NJ  ,8822,HUNTERDON,UNION TWP
2246 NORTH AVE,SCOTCH PLAINS,NJ  ,7076,UNION,SCOTCH PLAINS TWP
2239 NORTH AVE,SCOTCH PLAINS,NJ  ,7076,UNION,SCOTCH PLAINS TWP
801 W SOUTH AVE,WESTFIELD,NJ  ,7090,UNION,WESTFIELD TOWN
1707 RT 31 ,CLINTON TWP,NJ  ,8809,HUNTERDON,CLINTON TWP
361 CENTENNIAL AVE,CRANFORD,NJ  ,7016,UNION,CRANFORD TWP
416 SOUTH AVE,WESTFIELD,NJ  ,7090,UNION,WESTFIELD TOWN
400 CENTRAL AVE,WESTFIELD,NJ  ,7090,UNION,WESTFIELD TOWN
421 CENTRAL AVE,WESTFIELD,NJ  ,7090,UNION,WESTFIELD TOWN
305 KING GEORGE RD,BERNARDS TWP,NJ  ,7924,SOMERSET,BERNARDS TWP
101 PARK AVE,LINDEN,NJ  ,7036,UNION,LINDEN CITY
1746 RT 22,SCOTCH PLAINS,NJ  ,7076,UNION,SCOTCH PLAINS TWP
110 COKESBURY RD,CLINTON TWP,NJ  ,8833,HUNTERDON,CLINTON TWP
300 308 ELIZABETH AVE,ELIZABETH,NJ  ,7207,UNION,ELIZABETH CITY
908 S ELMORA AVE,ELIZABETH,NJ  ,7202,UNION,ELIZABETH CITY
845 849 SUMMER ST,ELIZABETH,NJ  ,7023,UNION,ELIZABETH CITY
501 509 FRANK E RODGERS BLVD S,HARRISON,NJ  ,7029,HUDSON,HARRISON TOWN
2527 BELVIDERE RD,HARMONY,NJ  ,8865,WARREN,HARMONY TWP
362 TONNELLE AVE,JERSEY CITY,NJ  ,7306,HUDSON,JERSEY CITY
403 TONNELLE AVE,JERSEY CITY,NJ  ,7303,HUDSON,JERSEY CITY
621 SHUNPIKE RD,CHATHAM TWP,NJ  ,7928,MORRIS,CHATHAM TWP
855 S ORANGE AVE,EAST ORANGE,NJ  ,8017,ESSEX,EAST ORANGE CITY
1086 MCCARTER HWY,NEWARK,NJ  ,7102,ESSEX,NEWARK CITY
2 PASSAIC AVE,HARRISON,NJ  ,7029,HUDSON,HARRISON TOWN
255 GREEN VILLAGE RD,CHATHAM TWP,NJ  ,7935,MORRIS,CHATHAM TWP
WHITE OAK RIDGE RD,MILLBURN,NJ  ,7041,ESSEX,MILLBURN TWP
972 S ORANGE AVE,NEWARK CITY,NJ  ,7106,ESSEX,NEWARK CITY
68 S ORANGE AVE,SOUTH ORANGE VILLAGE,NJ  ,7079,ESSEX,SOUTH ORANGE VILLAGE TWP
1126 1134 MCCARTER HWY,NEWARK,NJ  ,7102,ESSEX,NEWARK CITY
346 MAIN ST,MADISON,NJ  ,7940,MORRIS,MADISON BORO
701 HARRISON AVE,HARRISON,NJ  ,7029,HUDSON,HARRISON TOWN
175 ORANGE ST,NEWARK,NJ  ,7103,ESSEX,NEWARK CITY
34 38 NESBITT ST,NEWARK,NJ  ,7101,ESSEX,NEWARK CITY
447 491 CENTRAL AVE,NEWARK,NJ  ,7107,ESSEX,NEWARK CITY
832 HARRISON AVE,KEARNY,NJ  ,7032,HUDSON,KEARNY TOWN
200 HARRISON AVE ,KEARNY,NJ  ,7032,HUDSON,KEARNY TOWN
565 TONNELLE AVE,JERSEY CITY,NJ  ,7307,HUDSON,JERSEY CITY
120 WATCHUNG AVE,MONTCLAIR,NJ  ,7042,ESSEX,MONTCLAIR TWP
336 340 WATER ST,BELVIDERE,NJ  ,7823,WARREN,BELVIDERE TOWN
678 BERGEN BLVD,RIDGEFIELD,NJ  ,7657,BERGEN,RIDGEFIELD BORO
195 POMPTON AVE,VERONA,NJ  ,7044,ESSEX,VERONA TWP
202 POMPTON AVE,VERONA,NJ  ,7044,ESSEX,VERONA TWP
285 RT 206,FLANDERS,NJ  ,7836,MORRIS,MOUNT OLIVE TWP
633 WATER ST,BELVIDERE,NJ  ,7823,WARREN,BELVIDERE TOWN
520 BROAD AVE,RIDGEFIELD,NJ  ,7657,BERGEN,RIDGEFIELD BORO
168 MAIN AVE,CLIFTON,NJ  ,7014,PASSAIC,CLIFTON CITY
655 BLOOMFIELD AVE,VERONA,NJ  ,7089,ESSEX,VERONA TWP
104 RT 57,HACKETTSTOWN,NJ  ,7840,WARREN,HACKETTSTOWN TOWN
125 COMMERCIAL AVE,CARLSTADT,NJ  ,7072,BERGEN,CARLSTADT BORO
534 RT 3,CLIFTON,NJ  ,7012,PASSAIC,CLIFTON CITY
6 EAGLE ROCK AVE,EAST HANOVER TWP,NJ  ,7936,MORRIS,EAST HANOVER TWP
274 RT 31,BUTTZVILLE,NJ  ,7829,WARREN,WHITE TWP
626 RIDGEDALE AVE,EAST HANOVER TWP,NJ  ,7936,MORRIS,EAST HANOVER TWP
1235 RT 10,WHIPPANY,NJ  ,7981,MORRIS,HANOVER TWP
284 WASHINGTON AVE,CARLSTADT,NJ  ,7072,BERGEN,CARLSTADT BORO
17 RT 57,HACKETTSTOWN,NJ  ,7840,WARREN,HACKETTSTOWN TOWN
147 ROSELAND AVE,CALDWELL,NJ  ,7006,ESSEX,CALDWELL BORO
721 E PASSAIC AVE,BLOOMFIELD,NJ  ,7003,ESSEX,BLOOMFIELD TWP
29 RT 12,FLEMINGTON,NJ  ,8822,HUNTERDON,FLEMINGTON BORO
421 435 RT 1,EDISON TWP,NJ  ,8817,MIDDLESEX,EDISON TWP
470 RT 1,EDISON,NJ  ,8817,MIDDLESEX,EDISON TWP
10 RT 31,FLEMINGTON,NJ  ,8822,HUNTERDON,FLEMINGTON BORO
426 RT 206,HILLSBOROUGH TWP,NJ  ,8876,SOMERSET,HILLSBOROUGH TWP
414 RT 206,HILLSBOROUGH,NJ  ,8876,SOMERSET,HILLSBOROUGH TWP
1555 1557 LINCOLN HWY,EDISON TWP,NJ  ,8818,MIDDLESEX,EDISON TWP
641 RT 1,EDISON,NJ  ,8817,MIDDLESEX,EDISON TWP
690 RT 1,EDISON,NJ  ,8817,MIDDLESEX,EDISON TWP
1400 RIVER RD,PISCATAWAY,NJ  ,8854,MIDDLESEX,PISCATAWAY TWP
701 RT 1 S,EDISON,NJ  ,8817,MIDDLESEX,EDISON TWP
737 RT 1,EDISON,NJ  ,8817,MIDDLESEX,EDISON TWP
491 RT 12,RARITAN TWP,NJ  ,8822,HUNTERDON,RARITAN TWP
601 RT 12,DELAWARE TWP,NJ  ,8822,HUNTERDON,DELAWARE TWP
264 278 NEW BRUNSWICK AVE,PERTH AMBOY,NJ  ,8861,MIDDLESEX,PERTH AMBOY CITY
163 FAYETTE AVE,PERTH AMBOY,NJ  ,8861,MIDDLESEX,PERTH AMBOY CITY
755 RT 1,EDISON,NJ  ,8817,MIDDLESEX,EDISON TWP
1711 LINCOLN HWY,EDISON,NJ  ,8817,MIDDLESEX,EDISON TWP
413 429 SMITH ST,PERTH AMBOY,NJ  ,8861,MIDDLESEX,PERTH AMBOY CITY
63 RT 31,RARITAN TWP,NJ  ,8822,HUNTERDON,RARITAN TWP
433 S 5TH ST,ELIZABETH,NJ  ,7206,UNION,ELIZABETH CITY
814 838 RT 1/9,ELIZABETH,NJ  ,7702,UNION,ELIZABETH CITY
1832 E ST GEORGES AVE,LINDEN,NJ  ,7036,UNION,LINDEN CITY
1842 E ST GEORGES AVE,LINDEN,NJ  ,7036,UNION,LINDEN CITY
138 ELM ST,WESTFIELD,NJ  ,7090,UNION,WESTFIELD TOWN
1800 RT 22,SCOTCH PLAINS,NJ  ,7076,UNION,SCOTCH PLAINS TWP
502 3RD AVE,ELIZABETH,NJ  ,7202,UNION,ELIZABETH CITY
431 NORTH AVE,GARWOOD,NJ  ,7027,UNION,GARWOOD BORO
957 S ELMORA AVE,ELIZABETH,NJ  ,7202,UNION,ELIZABETH CITY
436 442 RT 1/9,ELIZABETH,NJ  ,7202,UNION,ELIZABETH CITY
1746 RT 31,CLINTON TWP,NJ  ,8809,HUNTERDON,CLINTON TWP
23 SOUTH AVE,CRANFORD,NJ  ,7016,UNION,CRANFORD TWP
1747 RT 31,CLINTON TWP,NJ  ,8809,HUNTERDON,CLINTON TWP
1900 RT 22,SCOTCH PLAINS,NJ  ,7076,UNION,SCOTCH PLAINS TWP
419 431 RT 1/9,ELIZABETH,NJ  ,7201,UNION,ELIZABETH CITY
464 SOUTH AVE,CRANFORD,NJ  ,7016,UNION,CRANFORD TWP
17 AVE E,BAYONNE,NJ  ,7002,HUDSON,BAYONNE CITY
232 3RD ST,ELIZABETH,NJ  ,7206,UNION,ELIZABETH CITY
105 NORTH AVE W,CRANFORD,NJ  ,7016,UNION,CRANFORD TWP
120 NORTH AVE W,CRANFORD,NJ  ,7016,UNION,CRANFORD TWP
361 S BROAD ST,ELIZABETH,NJ  ,7202,UNION,ELIZABETH CITY
248 AVE C,BAYONNE,NJ  ,7002,HUDSON,BAYONNE CITY
215 RT 31,WASHINGTON TWP,NJ  ,7882,WARREN,WASHINGTON TWP
16 20 CENTRAL AVE,EAST ORANGE,NJ  ,7019,ESSEX,EAST ORANGE CITY
100 CENTRAL AVE,EAST ORANGE,NJ  ,7018,ESSEX,EAST ORANGE CITY
450 NEW YORK AVE,JERSEY CITY,NJ  ,7303,HUDSON,JERSEY CITY
384 PATERSON PLANK RD,JERSEY CITY,NJ  ,7307,HUDSON,JERSEY CITY
234 MAIN ST,MADISON,NJ  ,7940,MORRIS,MADISON BORO
100 SCHUYLER AVE,KEARNY,NJ  ,7032,HUDSON,KEARNY TOWN
S ORANGE AVE,MILLBURN,NJ  ,7104,ESSEX,MILLBURN TWP
1285 1297 MCCARTER HWY,NEWARK,NJ  ,7104,ESSEX,NEWARK CITY
277 SANFORD ST,EAST ORANGE,NJ  ,7017,ESSEX,EAST ORANGE CITY
380 S CLINTON ST ,EAST ORANGE,NJ  ,7018,ESSEX,EAST ORANGE CITY
3530 KENNEDY BLVD,JERSEY CITY,NJ  ,7307,HUDSON,JERSEY CITY
221 CENTRAL AVE,EAST ORANGE,NJ  ,7018,ESSEX,EAST ORANGE CITY
1301 WILLOW AVE,HOBOKEN,NJ  ,7030,HUDSON,HOBOKEN CITY
250 254 CENTRAL AVE,EAST ORANGE,NJ  ,7018,ESSEX,EAST ORANGE CITY
10 SUSSEX AVE,EAST ORANGE,NJ  ,7018,ESSEX,EAST ORANGE CITY
22 PASSAIC AVE,KEARNY,NJ  ,7032,HUDSON,KEARNY TOWN
1400 PARK AVE,HOBOKEN,NJ  ,7030,HUDSON,HOBOKEN CITY
350 RT 57 ,WASHINGTON TWP,NJ  ,7782,WARREN,WASHINGTON TWP
1 5 BELGROVE DR,KEARNY,NJ  ,7032,HUDSON,KEARNY TOWN
1401 WILLOW AVE,HOBOKEN,NJ  ,7029,HUDSON,HOBOKEN CITY
205 SANFORD ST,EAST ORANGE,NJ  ,7018,ESSEX,EAST ORANGE CITY
1 BLOOMFIELD AVE,NORTH CALDWELL,NJ  ,7006,ESSEX,NORTH CALDWELL BORO
804 PASSAIC AVE,CLIFTON,NJ  ,7015,PASSAIC,CLIFTON CITY
GARDEN STATE PKWY MM 152.9 S,BLOOMFIELD,NJ  ,7003,ESSEX,BLOOMFIELD TWP
200 HOBOKEN RD,EAST RUTHERFORD,NJ  ,8000,BERGEN,EAST RUTHERFORD BORO
226 BLOOMFIELD AVE,CALDWELL,NJ  ,7006,ESSEX,CALDWELL BORO
250 BLOOMFIELD AVE,CALDWELL,NJ  ,7006,ESSEX,CALDWELL BORO
370 UNION AVE,RUTHERFORD,NJ  ,7070,BERGEN,RUTHERFORD BORO
440 RT 46,WHITE TWP,NJ  ,7823,WARREN,WHITE TWP
1414 BROAD ST,BLOOMFIELD,NJ  ,7003,ESSEX,BLOOMFIELD TWP
567 569 RT 519,WHITE TWP,NJ  ,7823,WARREN,WHITE TWP
1175 PALISADE AVE,FORT LEE,NJ  ,7088,BERGEN,FORT LEE BORO
GARDEN STATE PKWY MM 153.0 N,BLOOMFIELD,NJ  ,7098,ESSEX,BLOOMFIELD TWP
370 PATERSON AVE,EAST RUTHERFORD,NJ  ,7073,BERGEN,EAST RUTHERFORD BORO
870 RT 3,CLIFTON,NJ  ,7011,PASSAIC,CLIFTON CITY
1196 ANDERSON AVE,FORT LEE,NJ  ,7024,BERGEN,FORT LEE BORO
700 RT 17,CARLSTADT,NJ  ,7072,BERGEN,CARLSTADT BORO
GARDEN STATE PKWY MM 153.3,BLOOMFIELD,NJ  ,7003,ESSEX,BLOOMFIELD TWP
DOVER CHESTER RD,IRONIA,NJ  ,7869,MORRIS,RANDOLPH TWP
220 MOUNTAIN AVE,HACKETTSTOWN,NJ  ,8000,WARREN,HACKETTSTOWN TOWN
1300 PALISADE AVE,FORT LEE,NJ  ,7024,BERGEN,FORT LEE BORO
236 RT 206,FLANDERS,NJ  ,7834,MORRIS,MOUNT OLIVE TWP
2731 WOODBRIDGE AVE,EDISON,NJ  ,8817,MIDDLESEX,EDISON TWP
410 STATE ST,PERTH AMBOY,NJ  ,8861,MIDDLESEX,PERTH AMBOY CITY
550 SMITH ST,PERTH AMBOY,NJ  ,8865,MIDDLESEX,PERTH AMBOY CITY
1819 LINCOLN HWY,EDISON,NJ  ,8817,MIDDLESEX,EDISON TWP
881 RT 1,EDISON,NJ  ,8817,MIDDLESEX,EDISON TWP
890 OLD POST RD,EDISON,NJ  ,8817,MIDDLESEX,EDISON TWP
450 452 FAYETTE ST,PERTH AMBOY,NJ  ,8861,MIDDLESEX,PERTH AMBOY CITY
1101 EASTON AVE,SOMERSET,NJ  ,8873,SOMERSET,FRANKLIN TWP
883 RT 1,EDISON,NJ  ,8817,MIDDLESEX,EDISON TWP
204 PENNSYLVANIA AVE,RARITAN TWP,NJ  ,8822,HUNTERDON,RARITAN TWP
4 TRUMAN DR,EDISON,NJ  ,8818,MIDDLESEX,EDISON TWP
296 RT 206,HILLSBOROUGH,NJ  ,8876,SOMERSET,HILLSBOROUGH TWP
436 CONVERY BLVD,PERTH AMBOY,NJ  ,8861,MIDDLESEX,PERTH AMBOY CITY
567 NEW BRUNSWICK AVE,PERTH AMBOY,NJ  ,8861,MIDDLESEX,PERTH AMBOY CITY
1100 CONVERY BLVD,PERTH AMBOY,NJ  ,8861,MIDDLESEX,PERTH AMBOY CITY
273 RT 206,HILLSBOROUGH,NJ  ,8844,SOMERSET,HILLSBOROUGH TWP
565 AMBOY AVE,PERTH AMBOY,NJ  ,8861,MIDDLESEX,PERTH AMBOY CITY
963 RT 12 ,KINGWOOD TWP,NJ  ,8825,HUNTERDON,KINGWOOD TWP
225 S BRANCH RD,FLAGTOWN,NJ  ,8821,SOMERSET,HILLSBOROUGH TWP
640 AMBOY AVE,PERTH AMBOY,NJ  ,8861,MIDDLESEX,PERTH AMBOY CITY
747 NEW BRUNSWICK AVE,PERTH AMBOY,NJ  ,8861,MIDDLESEX,PERTH AMBOY CITY
600 SOUTH AVE E,CRANFORD,NJ  ,7016,UNION,CRANFORD TWP
45 NORTH AVE E,CRANFORD,NJ  ,7016,UNION,CRANFORD TWP
701 711 RAHWAY AVE,ELIZABETH,NJ  ,7202,UNION,ELIZABETH CITY
545 RAHWAY AVE,ELIZABETH,NJ  ,7201,UNION,ELIZABETH CITY
2040 RT 22,SCOTCH PLAINS,NJ  ,7076,UNION,SCOTCH PLAINS TWP
345 NORTH AVE,CRANFORD,NJ  ,7016,UNION,CRANFORD TWP
100 RT 440,BAYONNE,NJ  ,7002,HUDSON,BAYONNE CITY
401 NORTH AVE,CRANFORD,NJ  ,7016,UNION,CRANFORD TWP
114 ACME ST,ELIZABETH,NJ  ,7207,UNION,ELIZABETH CITY
475 NORTH AVE E,CRANFORD,NJ  ,7016,UNION,CRANFORD TWP
978 RT 173,BLOOMSBURY,NJ  ,8804,HUNTERDON,BLOOMSBURY BORO
211 S BROAD ST,ELIZABETH,NJ  ,7202,UNION,ELIZABETH CITY
155 159 W 1ST AVE,ROSELLE,NJ  ,7203,UNION,ROSELLE BORO
105 CHESTNUT ST,ROSELLE,NJ  ,7203,UNION,ROSELLE BORO
200 W 1ST AVE,ROSELLE,NJ  ,7203,UNION,ROSELLE BORO
975 RT 173,BLOOMSBURY,NJ  ,8804,HUNTERDON,BLOOMSBURY BORO
224 226 AVE E,BAYONNE,NJ  ,7834,HUDSON,BAYONNE CITY
600 BOND ST,ELIZABETH,NJ  ,7206,UNION,ELIZABETH CITY
975 979 RT 173,BLOOMSBURY,NJ  ,8804,HUNTERDON,BLOOMSBURY BORO
1510 3RD AVE,ALPHA,NJ  ,8865,WARREN,ALPHA BORO
101 W WESTFIELD AVE,ROSELLE PARK,NJ  ,7204,UNION,ROSELLE PARK BORO
602 E 1ST AVE,ROSELLE,NJ  ,7203,UNION,ROSELLE BORO
644 S CENTER ST,ORANGE,NJ  ,7050,ESSEX,ORANGE CITY TWP
720 TONNELLE AVE,JERSEY CITY,NJ  ,7307,HUDSON,JERSEY CITY
66 80 BLOOMFIELD AVE,NEWARK,NJ  ,7104,ESSEX,NEWARK CITY
51 MARTIN LUTHER KING BLVD,EAST ORANGE,NJ  ,7018,ESSEX,EAST ORANGE CITY
274 W WASHINGTON AVE,WASHINGTON,NJ  ,7882,WARREN,WASHINGTON BORO
237 W WASHINGTON AVE,WASHINGTON,NJ  ,7882,WARREN,WASHINGTON BORO
1400 MCCARTER HWY,NEWARK,NJ  ,7104,ESSEX,NEWARK CITY
782 TONNELLE AVE,JERSEY CITY,NJ  ,7307,HUDSON,JERSEY CITY
108 BLOOMFIELD AVE,NEWARK,NJ  ,7104,ESSEX,NEWARK CITY
103 MAIN ST,MADISON,NJ  ,7940,MORRIS,MADISON BORO
112 MAIN ST,MADISON,NJ  ,7940,MORRIS,MADISON BORO
1427 MCCARTER HWY,NEWARK,NJ  ,7102,ESSEX,NEWARK CITY
1434 MCCARTER HWY,NEWARK,NJ  ,7104,ESSEX,NEWARK CITY
690 SCOTLAND RD,ORANGE,NJ  ,7050,ESSEX,ORANGE CITY TWP
31 KINGS RD,MADISON,NJ  ,7940,MORRIS,MADISON BORO
823 TONNELLE AVE,JERSEY CITY,NJ  ,7307,HUDSON,JERSEY CITY
247 PARK AVE,NEWARK,NJ  ,7107,ESSEX,NEWARK CITY
264 PARK AVE,NEWARK CITY,NJ  ,7101,ESSEX,NEWARK CITY
815 8TH ST,UNION CITY,NJ  ,7087,HUDSON,UNION CITY
143 E WASHINGTON AVE,WASHINGTON,NJ  ,7882,WARREN,WASHINGTON BORO
649 S ORANGE AVE,LIVINGSTON,NJ  ,7039,ESSEX,LIVINGSTON TWP
129 COLUMBIA AVE,PALISADES PARK,NJ  ,7650,BERGEN,PALISADES PARK BORO
54 ABBOTT AVE,PALISADES PARK,NJ  ,7650,BERGEN,PALISADES PARK BORO
450 BLOOMFIELD AVE,CALDWELL,NJ  ,7006,ESSEX,CALDWELL BORO
43 MAIN AVE,PASSAIC,NJ  ,7055,PASSAIC,PASSAIC CITY
632 VALLEY RD,UPPER MONTCLAIR,NJ  ,7043,ESSEX,MONTCLAIR TWP
1290 ANDERSON AVE,FORT LEE,NJ  ,7088,BERGEN,FORT LEE BORO
39 41 HACKENSACK ST,WOOD-RIDGE,NJ  ,7075,BERGEN,WOOD-RIDGE BORO
1701 RT 10,MORRIS PLAINS,NJ  ,7950,MORRIS,MORRIS PLAINS BORO
526 ALLWOOD RD,CLIFTON,NJ  ,7013,PASSAIC,CLIFTON CITY
130 MAIN AVE,PASSAIC,NJ  ,7055,PASSAIC,PASSAIC CITY
41 W HARRIET AVE,PALISADES PARK,NJ  ,7650,BERGEN,PALISADES PARK BORO
1098 MAPLE AVE,RIDGEFIELD,NJ  ,7657,BERGEN,RIDGEFIELD BORO
75 RT 46,PALISADES PARK,NJ  ,7650,BERGEN,PALISADES PARK BORO
149 MAIN AVE,PASSAIC,NJ  ,7055,PASSAIC,PASSAIC CITY
222 DOVER CHESTER RD,RANDOLPH TWP,NJ  ,7869,MORRIS,RANDOLPH TWP
59 BROAD AVE,PALISADES PARK,NJ  ,7650,BERGEN,PALISADES PARK BORO
150 RT 46,RIDGEFIELD PARK,NJ  ,7660,BERGEN,RIDGEFIELD PARK VILLAGE
1433 PALISADE AVE,FORT LEE,NJ  ,7024,BERGEN,FORT LEE BORO
179 MAIN AVE,PASSAIC,NJ  ,7598,PASSAIC,PASSAIC CITY
922 BLOOMFIELD AVE,CLIFTON,NJ  ,7012,PASSAIC,CLIFTON CITY
379 POMPTON AVE,CEDAR GROVE,NJ  ,7009,ESSEX,CEDAR GROVE TWP
2A 2B WALTER E FORAN BLVD,RARITAN TWP,NJ  ,8822,HUNTERDON,RARITAN TWP
2042 LINCOLN HWY,EDISON TWP,NJ  ,8818,MIDDLESEX,EDISON TWP
679 CONVERY BLVD,PERTH AMBOY,NJ  ,8861,MIDDLESEX,PERTH AMBOY CITY
251 NEW BRUNSWICK AVE,WOODBRIDGE TWP,NJ  ,7095,MIDDLESEX,WOODBRIDGE TWP
720 RT 202 ,THREE BRIDGES,NJ  ,8889,HUNTERDON,READINGTON TWP
290 NEW BRUNSWICK AVE,FORDS,NJ  ,8863,MIDDLESEX,WOODBRIDGE TWP
745 CONVERY BLVD,PERTH AMBOY,NJ  ,8861,MIDDLESEX,PERTH AMBOY CITY
CROWS MILL RD & NEW BRNSWCK AVE,FORDS,NJ  ,8865,MIDDLESEX,WOODBRIDGE TWP
100 MUNICIPAL BLVD,EDISON,NJ  ,8817,MIDDLESEX,EDISON TWP
479 KROCHMALLY AVE ,PERTH AMBOY,NJ  ,8861,MIDDLESEX,PERTH AMBOY CITY
RACE ST & KINGWOOD AVE,FRENCHTOWN,NJ  ,8825,HUNTERDON,FRENCHTOWN BORO
205 VINEYARD RD,EDISON TWP,NJ  ,8817,MIDDLESEX,EDISON TWP
834 KING GEORGES RD,WOODBRIDGE TWP,NJ  ,8863,MIDDLESEX,WOODBRIDGE TWP
789 AMBOY AVE,EDISON TWP,NJ  ,8820,MIDDLESEX,EDISON TWP
853 CONVERY BLVD,PERTH AMBOY,NJ  ,8861,MIDDLESEX,PERTH AMBOY CITY
2200 LINCOLN HWY,EDISON,NJ  ,8817,MIDDLESEX,EDISON TWP
119 W POND RD,WOODBRIDGE TWP,NJ  ,7095,MIDDLESEX,WOODBRIDGE TWP
527 FLORIDA GROVE RD ,WOODBRIDGE,NJ  ,7095,MIDDLESEX,WOODBRIDGE TWP
710 S MAIN ST,MANVILLE,NJ  ,8835,SOMERSET,MANVILLE BORO
2246 LINCOLN HWY,EDISON,NJ  ,8817,MIDDLESEX,EDISON TWP
139 E WESTFIELD AVE,ROSELLE PARK,NJ  ,7204,UNION,ROSELLE PARK BORO
NEW JERSEY TPKE MM 101.1 N,ELIZABETH,NJ  ,7207,UNION,ELIZABETH CITY
104 W MAIN ST,HIGH BRIDGE,NJ  ,8829,HUNTERDON,HIGH BRIDGE BORO
3269 VALLEY RD,BASKING RIDGE,NJ  ,7920,SOMERSET,BERNARDS TWP
865 W GRAND ST,ELIZABETH,NJ  ,7207,UNION,ELIZABETH CITY
452 E WESTFIELD AVE,ROSELLE PARK,NJ  ,7204,UNION,ROSELLE PARK BORO
413 E WESTFIELD AVE,ROSELLE PARK,NJ  ,7204,UNION,ROSELLE PARK BORO
1101 E JERSEY ST,ELIZABETH,NJ  ,7201,UNION,ELIZABETH CITY
2 CHURCH ST,LIBERTY CORNER,NJ  ,7938,SOMERSET,BERNARDS TWP
529 539 KENNEDY BLVD,BAYONNE,NJ  ,7002,HUDSON,BAYONNE CITY
713 PLAINFIELD AVE,BERKELEY HEIGHTS,NJ  ,7922,UNION,BERKELEY HEIGHTS TWP
556 WESTFIELD AVE,ELIZABETH,NJ  ,7208,UNION,ELIZABETH CITY
2591 RT 22,SCOTCH PLAINS,NJ  ,7076,UNION,SCOTCH PLAINS TWP
200 SPRING ST,ELIZABETH,NJ  ,7207,UNION,ELIZABETH CITY
201 207 W GRAND ST,ELIZABETH,NJ  ,7202,UNION,ELIZABETH CITY
2650 RT 22,SCOTCH PLAINS,NJ  ,7076,UNION,SCOTCH PLAINS TWP
800 860 ANNA ST,ELIZABETH,NJ  ,7890,UNION,ELIZABETH CITY
886 MOUNTAIN AVE,MOUNTAINSIDE,NJ  ,7092,UNION,MOUNTAINSIDE BORO
345 S MICHIGAN AVE,KENILWORTH,NJ  ,7033,UNION,KENILWORTH BORO
5 POPLAR DR,STIRLING,NJ  ,7980,MORRIS,LONG HILL TWP
1250 VALLEY RD,STIRLING,NJ  ,7980,MORRIS,LONG HILL TWP
417 12TH ST,UNION CITY,NJ  ,8087,HUDSON,UNION CITY
1836 PARK AVE,WEEHAWKEN,NJ  ,7087,HUDSON,WEEHAWKEN TWP
235 E WASHINGTON AVE,WASHINGTON BORO,NJ  ,7882,WARREN,WASHINGTON BORO
360 W MILL RD,WASHINGTON TWP,NJ  ,7853,MORRIS,WASHINGTON TWP
1023 KENNEDY BLVD,NORTH BERGEN,NJ  ,7047,HUDSON,NORTH BERGEN TWP
47 PARK AVE,EAST ORANGE,NJ  ,7017,ESSEX,EAST ORANGE CITY
30 PARK AVE,EAST ORANGE,NJ  ,8017,ESSEX,EAST ORANGE CITY
559 SCOTLAND RD,ORANGE,NJ  ,7050,ESSEX,ORANGE CITY TWP
1200 KENNEDY BLVD,UNION CITY,NJ  ,7087,HUDSON,UNION CITY
61 67 CENTRAL AVE,ORANGE,NJ  ,7050,ESSEX,ORANGE CITY TWP
1008 TONNELLE AVE,NORTH BERGEN,NJ  ,7047,HUDSON,NORTH BERGEN TWP
471 MARTIN LUTHER KING BLVD,EAST ORANGE,NJ  ,7018,ESSEX,EAST ORANGE CITY
1507 KENNEDY BLVD,NORTH BERGEN,NJ  ,7047,HUDSON,NORTH BERGEN TWP
211 CENTRAL AVE,ORANGE,NJ  ,7050,ESSEX,ORANGE CITY TWP
432 BROADWAY,NEWARK,NJ  ,7104,ESSEX,NEWARK CITY
1520 PATERSON PLANK RD,NORTH BERGEN,NJ  ,7047,HUDSON,NORTH BERGEN TWP
315 BLOOMFIELD AVE,NEWARK,NJ  ,7107,ESSEX,NEWARK CITY
124 PARK AVE,MADISON,NJ  ,7940,MORRIS,MADISON BORO
294 SCOTLAND RD,ORANGE,NJ  ,7050,ESSEX,ORANGE CITY TWP
490 CENTRAL AVE,ORANGE,NJ  ,7050,ESSEX,ORANGE CITY TWP
544 WILLIAM ST,EAST ORANGE,NJ  ,7018,ESSEX,EAST ORANGE CITY
630 ALLWOOD RD,CLIFTON,NJ  ,7012,PASSAIC,CLIFTON CITY
171 FLANDERS DRAKESTOWN RD,MOUNT OLIVE,NJ  ,7828,MORRIS,MOUNT OLIVE TWP
241 MAIN AVE,PASSAIC,NJ  ,7055,PASSAIC,PASSAIC CITY
1537 PALISADE AVE,FORT LEE,NJ  ,7024,BERGEN,FORT LEE BORO
776 BLOOMFIELD AVE,CLIFTON,NJ  ,7012,PASSAIC,CLIFTON CITY
2140 RT 10,PARSIPPANY-TROY HILLS TWP,NJ  ,7981,MORRIS,PARSIPPANY-TROY HILLS
585 BROADWAY,PASSAIC,NJ  ,7055,PASSAIC,PASSAIC CITY
24 RT 17,HASBROUCK HEIGHTS,NJ  ,7604,BERGEN,HASBROUCK HEIGHTS BORO
350 NEW RD,PARSIPPANY,NJ  ,7748,MORRIS,PARSIPPANY-TROY HILLS
305 317 MAIN ST,HACKETTSTOWN,NJ  ,7840,WARREN,HACKETTSTOWN TOWN
173 PATERSON AVE,WALLINGTON,NJ  ,7057,BERGEN,WALLINGTON BORO
165 PATERSON AVE,WALLINGTON,NJ  ,7057,BERGEN,WALLINGTON BORO
803 BLOOMFIELD AVE,WEST CALDWELL,NJ  ,7006,ESSEX,WEST CALDWELL TWP
349 BROAD AVE,PALISADES PARK,NJ  ,7650,BERGEN,PALISADES PARK BORO
5 WINANT AVE,RIDGEFIELD PARK,NJ  ,7660,BERGEN,RIDGEFIELD PARK VILLAGE
210 RT 46,RIDGEFIELD PARK,NJ  ,7660,BERGEN,RIDGEFIELD PARK VILLAGE
40 MAIN ST,RIDGEFIELD PARK,NJ  ,7660,BERGEN,RIDGEFIELD PARK VILLAGE
499 E HALSEY RD,PARSIPPANY-TROY HILLS TWP,NJ  ,7054,MORRIS,PARSIPPANY-TROY HILLS
41 LOCUST AVE,WALLINGTON,NJ  ,7057,BERGEN,WALLINGTON BORO
599 PASSAIC AVE,WEST CALDWELL,NJ  ,7006,ESSEX,WEST CALDWELL TWP
290 VALLEY BLVD,WOOD-RIDGE,NJ  ,7075,BERGEN,WOOD-RIDGE BORO
641 KING GEORGES POST RD,FORDS,NJ  ,8863,MIDDLESEX,WOODBRIDGE TWP
87 W POND RD ,HOPELAWN,NJ  ,8863,MIDDLESEX,WOODBRIDGE TWP
74 W POND RD,WOODBRIDGE,NJ  ,7095,MIDDLESEX,WOODBRIDGE TWP
979 AMBOY AVE,EDISON,NJ  ,8817,MIDDLESEX,EDISON TWP
1649 STELTON RD,PISCATAWAY TWP,NJ  ,8854,MIDDLESEX,PISCATAWAY TWP
1000 AMBOY AVE,EDISON,NJ  ,8817,MIDDLESEX,EDISON TWP
GARDEN STATE PKWY MM 129.0,WOODBRIDGE,NJ  ,7095,MIDDLESEX,WOODBRIDGE TWP
1830 EASTON AVE,FRANKLIN TWP,NJ  ,8873,SOMERSET,FRANKLIN TWP
440 KING GEORGES RD,WOODBRIDGE TWP,NJ  ,7095,MIDDLESEX,WOODBRIDGE TWP
1614 STELTON RD,PISCATAWAY TWP,NJ  ,8854,MIDDLESEX,PISCATAWAY TWP
1 ESSEX AVE,METUCHEN,NJ  ,8840,MIDDLESEX,METUCHEN BORO
300 RT 31,RARITAN TWP,NJ  ,8822,HUNTERDON,RARITAN TWP
144 RT 206,HILLSBOROUGH,NJ  ,8875,SOMERSET,HILLSBOROUGH TWP
595 RIVER RD,PISCATAWAY TWP,NJ  ,8854,MIDDLESEX,PISCATAWAY TWP
304 MAIN ST,METUCHEN,NJ  ,8040,MIDDLESEX,METUCHEN BORO
745 NEW DURHAM RD,EDISON,NJ  ,8817,MIDDLESEX,EDISON TWP
764 NEW DURHAM RD,EDISON TWP,NJ  ,8817,MIDDLESEX,EDISON TWP
900 RT 202,NESHANIC STATION,NJ  ,8853,SOMERSET,BRANCHBURG TWP
346 LAKE AVE ,METUCHEN,NJ  ,8840,MIDDLESEX,METUCHEN BORO
NEW JERSEY TPKE MM 90.0 N,WOODBRIDGE,NJ  ,7095,MIDDLESEX,WOODBRIDGE TWP
26 W MAIN ST,HIGH BRIDGE,NJ  ,8500,HUNTERDON,HIGH BRIDGE BORO
500 3RD AVE,ALPHA,NJ  ,8865,WARREN,ALPHA BORO
1031 1039 PASSAIC VALLEY RD,STIRLING,NJ  ,7980,MORRIS,LONG HILL TWP
401 JEFFERSON AVE,ELIZABETH,NJ  ,7201,UNION,ELIZABETH CITY
489 SPRING ST,ELIZABETH,NJ  ,7207,UNION,ELIZABETH CITY
MAIN ST & LAMINGTON RD,OLDWICK,NJ  ,8858,HUNTERDON,TEWKSBURY TWP
1351 MAGIE AVE,UNION,NJ  ,7083,UNION,UNION TWP
375 381 MORRIS AVE,ELIZABETH,NJ  ,7202,UNION,ELIZABETH CITY
1413 RT 22,MOUNTAINSIDE,NJ  ,7092,UNION,MOUNTAINSIDE BORO
437 LEHIGH AVE,UNION,NJ  ,7083,UNION,UNION TWP
508 NORTH AVE,UNION,NJ  ,7083,UNION,UNION TWP
595 SPRING ST,ELIZABETH,NJ  ,7201,UNION,ELIZABETH CITY
981 MAGIE AVE,UNION,NJ  ,7083,UNION,UNION TWP
590 592 SPRING ST,ELIZABETH,NJ  ,7201,UNION,ELIZABETH CITY
664 PASSAIC VALLEY RD,GILLETTE,NJ  ,7933,MORRIS,LONG HILL TWP
608 622 SPRING ST,ELIZABETH,NJ  ,7202,UNION,ELIZABETH CITY
1400 RT 22,POHATCONG TWP,NJ  ,8865,WARREN,POHATCONG TWP
623 SPRING ST,ELIZABETH,NJ  ,7201,UNION,ELIZABETH CITY
600 NEW BRUNSWICK AVE,POHATCONG TWP,NJ  ,8865,WARREN,POHATCONG TWP
BLDG 116,NEWARK,NJ  ,7114,ESSEX,NEWARK CITY
640 650 AVE E,BAYONNE,NJ  ,7002,HUDSON,BAYONNE CITY
720 SPRING ST,ELIZABETH,NJ  ,7201,UNION,ELIZABETH CITY
1810 TONNELLE AVE,NORTH BERGEN,NJ  ,7047,HUDSON,NORTH BERGEN TWP
NEW JERSEY TPKE MM 111.6 ,SECAUCUS,NJ  ,7094,HUDSON,SECAUCUS TOWN
493 CENTRAL AVE,ORANGE,NJ  ,7050,ESSEX,ORANGE CITY TWP
514 KEARNY AVE,KEARNY,NJ  ,7032,HUDSON,KEARNY TOWN
612 BOULEVARD E,WEEHAWKEN,NJ  ,7087,HUDSON,WEEHAWKEN TWP
585 NORTHFIELD AVE,WEST ORANGE,NJ  ,7052,ESSEX,WEST ORANGE TWP
67 HOFFMAN BLVD,EAST ORANGE,NJ  ,7017,ESSEX,EAST ORANGE CITY
NEW JERSEY TPKE MM 112.0 S,SECAUCUS,NJ  ,7077,HUDSON,SECAUCUS TOWN
PERSHING RD FORMER,WEEHAWKEN,NJ  ,7086,HUDSON,WEEHAWKEN TWP
266 S ORANGE AVE,LIVINGSTON,NJ  ,7039,ESSEX,LIVINGSTON TWP
3205 HUDSON AVE,UNION CITY,NJ  ,7087,HUDSON,UNION CITY
3 CENTRAL AVE,WEST ORANGE,NJ  ,7801,ESSEX,WEST ORANGE TWP
67 73 S ESSEX AVE,ORANGE,NJ  ,7050,ESSEX,ORANGE CITY TWP
590 BELLEVILLE TPKE,KEARNY,NJ  ,7032,HUDSON,KEARNY TOWN
327 E NORTHFIELD RD,LIVINGSTON,NJ  ,7039,ESSEX,LIVINGSTON TWP
114 120 SEAVIEW DR,SECAUCUS,NJ  ,7094,HUDSON,SECAUCUS TOWN
466 470 BLOOMFIELD AVE,NEWARK,NJ  ,7107,ESSEX,NEWARK CITY
322 32ND ST,UNION CITY,NJ  ,7087,HUDSON,UNION CITY
625 S LIVINGSTON AVE,LIVINGSTON,NJ  ,7039,ESSEX,LIVINGSTON TWP
212 COUNTY AVE,SECAUCUS,NJ  ,7094,HUDSON,SECAUCUS TOWN
399 NORTHFIELD AVE,WEST ORANGE,NJ  ,7052,ESSEX,WEST ORANGE TWP
1379 LITTLETON RD,PARSIPPANY,NJ  ,7950,MORRIS,PARSIPPANY-TROY HILLS
RT 46,LITTLE FERRY,NJ  ,7643,BERGEN,LITTLE FERRY BORO
1480 BERGEN BLVD,FORT LEE,NJ  ,7024,BERGEN,FORT LEE BORO
373 GRAND AVE,PALISADES PARK,NJ  ,7650,BERGEN,PALISADES PARK BORO
600 POMPTON AVE,CEDAR GROVE,NJ  ,7009,ESSEX,CEDAR GROVE TWP
123 RT 17,HASBROUCK HEIGHTS,NJ  ,7604,BERGEN,HASBROUCK HEIGHTS BORO
408 VAN HOUTEN AVE,PASSAIC,NJ  ,7055,PASSAIC,PASSAIC CITY
1490 BERGEN BLVD,FORT LEE,NJ  ,7024,BERGEN,FORT LEE BORO
179 RT 46,LITTLE FERRY,NJ  ,7643,BERGEN,LITTLE FERRY BORO
2086 HUDSON ST,FORT LEE,NJ  ,7024,BERGEN,FORT LEE BORO
6 MAIN AVE,WALLINGTON,NJ  ,7057,BERGEN,WALLINGTON BORO
146 RT 17,HASBROUCK HEIGHTS,NJ  ,7604,BERGEN,HASBROUCK HEIGHTS BORO
1549 RT 46,FORT LEE,NJ  ,7024,BERGEN,FORT LEE BORO
104 MAIN ST,HACKETTSTOWN,NJ  ,7840,WARREN,HACKETTSTOWN TOWN
261 RT 46 E,LITTLE FERRY,NJ  ,7643,BERGEN,LITTLE FERRY BORO
270 RT 46,LITTLE FERRY,NJ  ,7643,BERGEN,LITTLE FERRY BORO
120 WALLINGTON AVE,WALLINGTON,NJ  ,7057,BERGEN,WALLINGTON BORO
648 POMPTON AVE,CEDAR GROVE,NJ  ,7009,ESSEX,CEDAR GROVE TWP
269 RT 46,LITTLE FERRY,NJ  ,7643,BERGEN,LITTLE FERRY BORO
305 BROADWAY,PASSAIC,NJ  ,7055,PASSAIC,PASSAIC CITY
339 RT 31,RARITAN TWP,NJ  ,8822,HUNTERDON,RARITAN TWP
532 536 MIDDLESEX AVE,METUCHEN,NJ  ,8840,MIDDLESEX,METUCHEN BORO
615 MAIN ST,WOODBRIDGE,NJ  ,7095,MIDDLESEX,WOODBRIDGE TWP
1501 RT 1,EDISON TWP,NJ  ,8903,MIDDLESEX,EDISON TWP
209 CENTRAL AVE,METUCHEN,NJ  ,8840,MIDDLESEX,METUCHEN BORO
339 ELIZABETH AVE,SOMERSET,NJ  ,8873,SOMERSET,FRANKLIN TWP
1441 RT 1,EDISON,NJ  ,8817,MIDDLESEX,EDISON TWP
1021 RT 9,WOODBRIDGE TWP,NJ  ,7095,MIDDLESEX,WOODBRIDGE TWP
555 NEW DURHAM RD,PISCATAWAY TWP,NJ  ,8854,MIDDLESEX,PISCATAWAY TWP
247 CENTRAL AVE,METUCHEN,NJ  ,8840,MIDDLESEX,METUCHEN BORO
154 AMBOY AVE,WOODBRIDGE,NJ  ,7095,MIDDLESEX,WOODBRIDGE TWP
1371 RT 202,BRANCHBURG TWP,NJ  ,8053,SOMERSET,BRANCHBURG TWP
265 N MAIN ST,MANVILLE,NJ  ,8835,SOMERSET,MANVILLE BORO
1020 RT 9 ,WOODBRIDGE TWP,NJ  ,7095,MIDDLESEX,WOODBRIDGE TWP
85 RT 1 ,WOODBRIDGE,NJ  ,7095,MIDDLESEX,WOODBRIDGE TWP
760 MILFORD FRENCHTOWN RD,ALEXANDRIA TWP,NJ  ,8848,HUNTERDON,ALEXANDRIA TWP
1 LAFAYETTE RD,FORDS,NJ  ,8863,MIDDLESEX,WOODBRIDGE TWP
736 MILFORD FRENCHTOWN RD,ALEXANDRIA TWP,NJ  ,8848,HUNTERDON,ALEXANDRIA TWP
99 MIDDLESEX AVE,METUCHEN,NJ  ,8840,MIDDLESEX,METUCHEN BORO
96 MAIN ST,SOUTH BOUND BROOK,NJ  ,8880,SOMERSET,SO BOUND BROOK BORO
1570 S WASHINGTON AVE,PISCATAWAY TWP,NJ  ,8854,MIDDLESEX,PISCATAWAY TWP
41 MAIN ST,WOODBRIDGE,NJ  ,7095,MIDDLESEX,WOODBRIDGE TWP
505 RT 202/206,BEDMINSTER,NJ  ,7921,SOMERSET,BEDMINSTER TWP
574 580 NEWARK AVE,ELIZABETH,NJ  ,7208,UNION,ELIZABETH CITY
1312 RT 22,POHATCONG TWP,NJ  ,8865,WARREN,POHATCONG TWP
221 SALEM RD,UNION,NJ  ,7083,UNION,UNION TWP
619 BOULEVARD,KENILWORTH,NJ  ,7033,UNION,KENILWORTH BORO
1300 RT 22,POHATCONG TWP,NJ  ,8865,WARREN,POHATCONG TWP
1307 RT 22,GREENWICH TWP,NJ  ,8865,WARREN,GREENWICH TWP
636 KENILWORTH BLVD,KENILWORTH,NJ  ,7033,UNION,KENILWORTH BORO
205 PORT JERSEY BLVD,BAYONNE,NJ  ,7002,HUDSON,BAYONNE CITY
1300 GALLOPING HILL RD,KENILWORTH,NJ  ,7033,UNION,KENILWORTH BORO
663 675 NEWARK AVE,ELIZABETH,NJ  ,7208,UNION,ELIZABETH CITY
1525 RT 206,BEDMINSTER,NJ  ,7921,SOMERSET,BEDMINSTER TWP
1121 RT 22,MOUNTAINSIDE,NJ  ,7092,UNION,MOUNTAINSIDE BORO
101 BERKELEY AVE,BERKELEY HEIGHTS,NJ  ,8846,UNION,BERKELEY HEIGHTS TWP
1112 RT 22,MOUNTAINSIDE,NJ  ,7092,UNION,MOUNTAINSIDE BORO
960 BROADWAY,BAYONNE,NJ  ,7002,HUDSON,BAYONNE CITY
19 STONEHOUSE RD,BERNARDS TWP,NJ  ,7920,SOMERSET,BERNARDS TWP
1061 53RD ST,BAYONNE,NJ  ,7002,HUDSON,BAYONNE CITY
525 SPRINGFIELD AVE,BERKELEY HEIGHTS,NJ  ,7922,UNION,BERKELEY HEIGHTS TWP
742 S MAIN ST,PHILLIPSBURG,NJ  ,8865,WARREN,PHILLIPSBURG TOWN
958 S SPRINGFIELD AVE,SPRINGFIELD,NJ  ,7081,UNION,SPRINGFIELD TWP
1204 RT 22,POHATCONG TWP,NJ  ,8865,WARREN,POHATCONG TWP
21 N DAY ST,ORANGE,NJ  ,7050,ESSEX,ORANGE CITY TWP
2715 KENNEDY BLVD,NORTH BERGEN,NJ  ,7047,HUDSON,NORTH BERGEN TWP
2501 TONNELLE AVE,NORTH BERGEN,NJ  ,7047,HUDSON,NORTH BERGEN TWP
526 BLOOMFIELD AVE,NEWARK,NJ  ,7101,ESSEX,NEWARK CITY
16 E NORTHFIELD RD,LIVINGSTON,NJ  ,7039,ESSEX,LIVINGSTON TWP
314 RIDGEDALE AVE,FLORHAM PARK,NJ  ,7940,MORRIS,FLORHAM PARK BORO
3100 KENNEDY BLVD,UNION CITY,NJ  ,7087,HUDSON,UNION CITY
460 466 MAIN ST,ORANGE,NJ  ,7050,ESSEX,ORANGE CITY TWP
394 RT 24,CHESTER TWP,NJ  ,7930,MORRIS,CHESTER TWP
528 MAIN ST,ORANGE,NJ  ,7050,ESSEX,ORANGE CITY TWP
2723 TONNELLE AVE,NORTH BERGEN,NJ  ,7047,HUDSON,NORTH BERGEN TWP
694 700 KEARNY AVE,KEARNY,NJ  ,7032,HUDSON,KEARNY TOWN
3200 KENNEDY BLVD,UNION CITY,NJ  ,7087,HUDSON,UNION CITY
13 NORTHFIELD AVE,WEST ORANGE,NJ  ,7052,ESSEX,WEST ORANGE TWP
72 BLOOMFIELD AVE,BLOOMFIELD,NJ  ,7003,ESSEX,BLOOMFIELD TWP
9 N PARK ST,EAST ORANGE,NJ  ,7017,ESSEX,EAST ORANGE CITY
3900 KENNEDY BLVD,UNION CITY,NJ  ,8087,HUDSON,UNION CITY
122 BLOOMFIELD AVE,BLOOMFIELD,NJ  ,7003,ESSEX,BLOOMFIELD TWP
979 BOULEVARD E,WEEHAWKEN,NJ  ,7087,HUDSON,WEEHAWKEN TWP
1 PARKER RD,CHESTER TWP,NJ  ,7930,MORRIS,CHESTER TWP
30 HELLER PKWY ,NEWARK,NJ  ,7102,ESSEX,NEWARK CITY
268 274 HELLER PKWY,NEWARK,NJ  ,7106,ESSEX,NEWARK CITY
2140 2142 LEMOINE AVE,FORT LEE,NJ  ,7024,BERGEN,FORT LEE BORO
530 JANE ST,FORT LEE,NJ  ,7024,BERGEN,FORT LEE BORO
1616 BERGEN BLVD,FORT LEE,NJ  ,7024,BERGEN,FORT LEE BORO
1195 1209 LITTLETON RD,PARSIPPANY TROY-HILLS,NJ  ,7950,MORRIS,PARSIPPANY-TROY HILLS
1630 BERGEN BLVD,FORT LEE,NJ  ,7024,BERGEN,FORT LEE BORO
1640 1642 RT 46,FORT LEE,NJ  ,7024,BERGEN,FORT LEE BORO
220 RT 17,HASBROUCK HEIGHTS,NJ  ,7604,BERGEN,HASBROUCK HEIGHTS BORO
1651 BERGEN BLVD,FORT LEE,NJ  ,7024,BERGEN,FORT LEE BORO
25 RT 46 E ,PARSIPPANY-TROY HILLS TWP,NJ  ,7054,MORRIS,PARSIPPANY-TROY HILLS
543 MAIN ST,FORT LEE,NJ  ,7024,BERGEN,FORT LEE BORO
27 RT 46,PINE BROOK,NJ  ,7058,MORRIS,MONTVILLE TWP
261 PARSIPPANY RD,PARSIPPANY-TROY HILLS TWP,NJ  ,7981,MORRIS,PARSIPPANY-TROY HILLS
204 PARSIPPANY RD,PARSIPPANY,NJ  ,7054,MORRIS,PARSIPPANY-TROY HILLS
300 BERGEN TPKE,LITTLE FERRY,NJ  ,7643,BERGEN,LITTLE FERRY BORO
1671 BERGEN BLVD,FORT LEE,NJ  ,7024,BERGEN,FORT LEE BORO
226 RT 17,HASBROUCK HEIGHTS,NJ  ,7604,BERGEN,HASBROUCK HEIGHTS BORO
175 PARSIPPANY RD,PARSIPPANY,NJ  ,7054,MORRIS,PARSIPPANY-TROY HILLS
577 VAIL RD,PARSIPPANY,NJ  ,7054,MORRIS,PARSIPPANY-TROY HILLS
25 27 PASSAIC AVE,PASSAIC,NJ  ,7055,PASSAIC,PASSAIC CITY
1695 RT 46,FORT LEE,NJ  ,7024,BERGEN,FORT LEE BORO
37 CLINTON RD,FAIRFIELD,NJ  ,7073,ESSEX,FAIRFIELD TWP
1000 STELTON RD,PISCATAWAY TWP,NJ  ,8854,MIDDLESEX,PISCATAWAY TWP
RT 1 N & WOODBRIDGE CENTER DR,WOODBRIDGE,NJ  ,7095,MIDDLESEX,WOODBRIDGE TWP
45 MAIN ST,SOUTH BOUND BROOK BORO,NJ  ,8880,SOMERSET,SO BOUND BROOK BORO
318 DURHAM AVE,SOUTH PLAINFIELD,NJ  ,7080,MIDDLESEX,SOUTH PLAINFIELD BORO
480 AMBOY AVE,WOODBRIDGE,NJ  ,7095,MIDDLESEX,WOODBRIDGE TWP
780 STELTON RD,PISCATAWAY TWP,NJ  ,8854,MIDDLESEX,PISCATAWAY TWP
485 AMBOY AVE,WOODBRIDGE,NJ  ,7095,MIDDLESEX,WOODBRIDGE TWP
NEW JERSEY TPKE MM 92.9 N,WOODBRIDGE TWP,NJ  ,7095,MIDDLESEX,WOODBRIDGE TWP
501 AMBOY AVE,WOODBRIDGE,NJ  ,7095,MIDDLESEX,WOODBRIDGE TWP
157 DURHAM AVE,SOUTH PLAINFIELD,NJ  ,7080,MIDDLESEX,SOUTH PLAINFIELD BORO
4501 STELTON RD,SOUTH PLAINFIELD,NJ  ,7080,MIDDLESEX,SOUTH PLAINFIELD BORO
15 FINDERNE AVE,BRIDGEWATER TWP,NJ  ,8807,SOMERSET,BRIDGEWATER TWP
145 RIVER RD,MIDDLESEX,NJ  ,8846,MIDDLESEX,MIDDLESEX BORO
4480 STELTON RD,SOUTH PLAINFIELD BORO,NJ  ,7080,MIDDLESEX,SOUTH PLAINFIELD BORO
570 STELTON RD,PISCATAWAY TWP,NJ  ,8855,MIDDLESEX,PISCATAWAY TWP
650 RT 1,ISELIN,NJ  ,8837,MIDDLESEX,WOODBRIDGE TWP
39 OLD YORK RD,BRIDGEWATER TWP,NJ  ,8807,SOMERSET,BRIDGEWATER TWP
NEW JERSEY TPKE MM 92.9 S,SEWAREN,NJ  ,8000,MIDDLESEX,WOODBRIDGE TWP
450 STELTON RD,PISCATAWAY TWP,NJ  ,8854,MIDDLESEX,PISCATAWAY TWP
152 OLD NEW BRUNSWICK RD,PISCATAWAY TWP,NJ  ,8854,MIDDLESEX,PISCATAWAY TWP
699 S MAIN ST,PHILLIPSBURG,NJ  ,8865,WARREN,PHILLIPSBURG TOWN
20 38 E 53RD ST,BAYONNE,NJ  ,7003,HUDSON,BAYONNE CITY
1054 1056 BROADWAY,BAYONNE,NJ  ,7002,HUDSON,BAYONNE CITY
1064 AVE C,BAYONNE,NJ  ,7002,HUDSON,BAYONNE CITY
575 CHESTNUT ST,UNION,NJ  ,7083,UNION,UNION TWP
414 SPRINGFIELD AVE,BERKELEY HEIGHTS,NJ  ,7922,UNION,BERKELEY HEIGHTS TWP
21 N 31ST ST,KENILWORTH BORO,NJ  ,7033,UNION,KENILWORTH BORO
1121 KENNEDY BLVD,BAYONNE,NJ  ,7002,HUDSON,BAYONNE CITY
96 SYNDER AVE,BERKELEY HEIGHTS,NJ  ,7922,UNION,BERKELEY HEIGHTS TWP
128 HILLSIDE AVE,SPRINGFIELD,NJ  ,7081,UNION,SPRINGFIELD TWP
707 CHESTNUT ST,UNION,NJ  ,7083,UNION,UNION TWP
2568 2570 RT 22,UNION,NJ  ,7083,UNION,UNION TWP
1384 MORRIS AVE,UNION,NJ  ,7083,UNION,UNION TWP
2490 RT 22,UNION,NJ  ,7083,UNION,UNION TWP
1185 RT 22,LOPATCONG TWP,NJ  ,8865,WARREN,LOPATCONG TWP
2573 RT 22 W,UNION,NJ  ,7083,UNION,UNION TWP
2545 RT 22,UNION,NJ  ,7083,UNION,UNION TWP
BLDG 28,NEWARK,NJ  ,7114,ESSEX,NEWARK CITY
2446 RT 22,UNION TWP,NJ  ,8005,UNION,UNION TWP
2350 RT 22,UNION,NJ  ,7083,UNION,UNION TWP
BLDG 23,NEWARK CITY,NJ  ,7114,ESSEX,NEWARK CITY
168 S MAIN ST,PHILLIPSBURG,NJ  ,8865,WARREN,PHILLIPSBURG TOWN
130 BLOOMFIELD AVE,BLOOMFIELD,NJ  ,7003,ESSEX,BLOOMFIELD TWP
356 BELLEVILLE TPKE,KEARNY,NJ  ,7032,HUDSON,KEARNY TOWN
66 N PARK ST,EAST ORANGE,NJ  ,7017,ESSEX,EAST ORANGE CITY
83 85 MAIN ST,WEST ORANGE,NJ  ,7052,ESSEX,WEST ORANGE TWP
790 KEARNY AVE,KEARNY,NJ  ,7032,HUDSON,KEARNY TOWN
815 KEARNY AVE,KEARNY,NJ  ,7032,HUDSON,KEARNY TOWN
23 25 PARK AVE,WEST ORANGE,NJ  ,7052,ESSEX,WEST ORANGE TWP
113 119 FRANKLIN ST,BELLEVILLE,NJ  ,7109,ESSEX,BELLEVILLE TWP
2800 RT 3,NORTH BERGEN,NJ  ,7047,HUDSON,NORTH BERGEN TWP
171 BLOOMFIELD AVE,BLOOMFIELD,NJ  ,7017,ESSEX,BLOOMFIELD TWP
90 RT 206 ,CHESTER BORO,NJ  ,7930,MORRIS,CHESTER BORO
RT 46,WASHINGTON TWP,NJ  ,7853,MORRIS,WASHINGTON TWP
864 MT PROSPECT AVE,NEWARK,NJ  ,7104,ESSEX,NEWARK CITY
864 MT PROSPECT AVE,NEWARK,NJ  ,7104,ESSEX,NEWARK CITY
25 LAKESIDE AVE,WEST ORANGE,NJ  ,7052,ESSEX,WEST ORANGE TWP
104 E MAIN ST,MENDHAM BORO,NJ  ,7945,MORRIS,MENDHAM BORO
455 THOMAS BLVD,ORANGE,NJ  ,7505,ESSEX,ORANGE CITY TWP
1 MAIN ST,CHESTER,NJ  ,7930,MORRIS,CHESTER BORO
190 FRANKLIN ST,BELLEVILLE,NJ  ,7109,ESSEX,BELLEVILLE TWP
84 COLUMBIA TPKE,FLORHAM PARK,NJ  ,7932,MORRIS,FLORHAM PARK BORO
900 MT PROSPECT AVE,NEWARK,NJ  ,7104,ESSEX,NEWARK CITY
321 MT AIRY HARBOURTON RD,WEST AMWELL TWP,NJ  ,8530,HUNTERDON,WEST AMWELL TWP
1303 ENGLISHTOWN RD,OLD BRIDGE TWP,NJ  ,8857,MIDDLESEX,OLD BRIDGE TWP
1453 RT 18,OLD BRIDGE TWP,NJ  ,8857,MIDDLESEX,OLD BRIDGE TWP
870 STATE RD,PRINCETON TWP,NJ  ,8540,MERCER,PRINCETON
40 E BROAD ST,HOPEWELL,NJ  ,8525,MERCER,HOPEWELL BORO
919 RT 206,MONTGOMERY TWP,NJ  ,8558,SOMERSET,MONTGOMERY TWP
863 RT 35,MIDDLETOWN,NJ  ,7748,MONMOUTH,MIDDLETOWN TWP
239 RT 34,ABERDEEN TWP,NJ  ,7747,MONMOUTH,ABERDEEN TWP
1164 RT 34,ABERDEEN TWP,NJ  ,7747,MONMOUTH,ABERDEEN TWP
410 RT 31,WEST AMWELL TWP,NJ  ,8530,HUNTERDON,WEST AMWELL TWP
350 MAIN ST,SPOTSWOOD,NJ  ,8884,MIDDLESEX,SPOTSWOOD BORO
4041 RT 1,MONMOUTH JUNCTION,NJ  ,8852,MIDDLESEX,SOUTH BRUNSWICK TWP
1103 RT 34,ABERDEEN TWP,NJ  ,7747,MONMOUTH,ABERDEEN TWP
1201 RT 35,MIDDLETOWN,NJ  ,7748,MONMOUTH,MIDDLETOWN TWP
4020 RT 1,SOUTH BRUNSWICK TWP,NJ  ,8852,MIDDLESEX,SOUTH BRUNSWICK TWP
4000 RT 1 ,MONMOUTH JUNCTION,NJ  ,8852,MIDDLESEX,SOUTH BRUNSWICK TWP
102 116 BAY AVE,HIGHLANDS,NJ  ,7732,MONMOUTH,HIGHLANDS BORO
1051 RT 34,ABERDEEN TWP,NJ  ,7747,MONMOUTH,ABERDEEN TWP
1251 RT 206,MONTGOMERY TWP,NJ  ,8540,SOMERSET,MONTGOMERY TWP
2680 OLD BRIDGE MATAWAN RD,OLD BRIDGE TWP,NJ  ,8857,MIDDLESEX,OLD BRIDGE TWP
52 SHREWSBURY AVE,HIGHLANDS,NJ  ,7732,MONMOUTH,HIGHLANDS BORO
436 STELTON RD,PISCATAWAY TWP,NJ  ,8854,MIDDLESEX,PISCATAWAY TWP
300 TALMAGE AVE,BOUND BROOK,NJ  ,8805,SOMERSET,BOUND BROOK BORO
24 FINDERNE AVE,BRIDGEWATER TWP,NJ  ,8807,SOMERSET,BRIDGEWATER TWP
611 AMBOY AVE,WOODBRIDGE,NJ  ,7095,MIDDLESEX,WOODBRIDGE TWP
26 LINCOLN BLVD,MIDDLESEX,NJ  ,8846,MIDDLESEX,MIDDLESEX BORO
99 LINCOLN BLVD,MIDDLESEX,NJ  ,8846,MIDDLESEX,MIDDLESEX BORO
643 E MAIN ST,BRIDGEWATER TWP,NJ  ,8901,SOMERSET,BRIDGEWATER TWP
735 GREEN ST,ISELIN,NJ  ,8830,MIDDLESEX,WOODBRIDGE TWP
3875 PARK AVE,EDISON,NJ  ,8820,MIDDLESEX,EDISON TWP
1004 RT 202,BRANCHBURG TWP,NJ  ,8876,SOMERSET,BRANCHBURG TWP
302 LINCOLN BLVD,MIDDLESEX,NJ  ,8846,MIDDLESEX,MIDDLESEX BORO
977 RT 202,BRANCHBURG TWP,NJ  ,8876,SOMERSET,BRANCHBURG TWP
201 E MAIN ST,SOMERVILLE,NJ  ,8876,SOMERSET,SOMERVILLE BORO
309 LINCOLN BLVD,MIDDLESEX,NJ  ,8846,MIDDLESEX,MIDDLESEX BORO
240 LINCOLN HWY,EDISON,NJ  ,8820,MIDDLESEX,EDISON TWP
11 LINCOLN HWY,ISELIN,NJ  ,8830,MIDDLESEX,WOODBRIDGE TWP
140 UNION AVE,MIDDLESEX,NJ  ,8846,MIDDLESEX,MIDDLESEX BORO
312 W UNION AVE,BOUND BROOK,NJ  ,8805,SOMERSET,BOUND BROOK BORO
476 W UNION AVE,BOUND BROOK,NJ  ,8805,SOMERSET,BOUND BROOK BORO
606 UNION AVE,BOUND BROOK BORO,NJ  ,8846,SOMERSET,BOUND BROOK BORO
954 RT 202,BRANCHBURG TWP,NJ  ,8876,SOMERSET,BRANCHBURG TWP
2210 RT 22,UNION,NJ  ,7083,UNION,UNION TWP
1545 MORRIS AVE,UNION,NJ  ,7083,UNION,UNION TWP
1960 RT 22,UNION,NJ  ,7083,UNION,UNION TWP
100 LINDBERGH RD,NEWARK,NJ  ,7114,ESSEX,NEWARK CITY
2031 RT 22,UNION,NJ  ,8005,UNION,UNION TWP
4 UNION SQUARE ,PHILLIPSBURG,NJ  ,8865,WARREN,PHILLIPSBURG TOWN
1505 KENNEDY BLVD,JERSEY CITY,NJ  ,7304,HUDSON,JERSEY CITY
11 UNION SQUARE,PHILLIPSBURG,NJ  ,8865,WARREN,PHILLIPSBURG TOWN
151 CORBIN ST,NEWARK,NJ  ,7114,ESSEX,NEWARK CITY
924 STUYVESANT AVE,UNION TWP,NJ  ,8005,UNION,UNION TWP
1859 MORRIS AVE,UNION,NJ  ,7083,UNION,UNION TWP
1789 SPRINGFIELD AVE,NEW PROVIDENCE BORO,NJ  ,7974,UNION,NEW PROVIDENCE BORO
1568 KENNEDY BLVD,JERSEY CITY,NJ  ,7305,HUDSON,JERSEY CITY
1201 SPRINGFIELD RD,UNION,NJ  ,8820,UNION,UNION TWP
400 MEMORIAL PKWY,PHILLIPSBURG,NJ  ,8865,WARREN,PHILLIPSBURG TOWN
1865 VAUXHALL RD,UNION,NJ  ,7083,UNION,UNION TWP
119 RT 22,HILLSIDE,NJ  ,7205,UNION,HILLSIDE TWP
1410 N BROAD ST,HILLSIDE,NJ  ,7205,UNION,HILLSIDE TWP
1601 RT 22,UNION,NJ  ,7083,UNION,UNION TWP
411 ROSEBERRY ST,PHILLIPSBURG TOWN,NJ  ,8865,WARREN,PHILLIPSBURG TOWN
598 MEMORIAL PKWY,PHILLIPSBURG,NJ  ,8865,WARREN,PHILLIPSBURG TOWN
600 RT 22,HILLSIDE,NJ  ,7205,UNION,HILLSIDE TWP
69 E MILL RD,WASHINGTON TWP,NJ  ,7853,MORRIS,WASHINGTON TWP
111 RIDGEDALE AVE,FLORHAM PARK,NJ  ,7932,MORRIS,FLORHAM PARK BORO
43 E MILL RD & MOUNTAIN VIEW AVE,WASHINGTON TWP,NJ  ,7853,MORRIS,WASHINGTON TWP
95 WASHINGTON AVE,BELLEVILLE,NJ  ,7109,ESSEX,BELLEVILLE TWP
926 PASSAIC AVE,KEARNY,NJ  ,7109,HUDSON,KEARNY TOWN
101 RIDGE RD,NORTH ARLINGTON,NJ  ,7032,BERGEN,NORTH ARLINGTON BORO
226 228 W NORTHFIELD RD,LIVINGSTON TWP,NJ  ,7039,ESSEX,LIVINGSTON TWP
3 FAIRVIEW AVE,LONG VALLEY,NJ  ,7853,MORRIS,WASHINGTON TWP
215 MADISON AVE,MORRIS TWP,NJ  ,7969,MORRIS,MORRIS TWP
69 UNION AVE,BELLEVILLE,NJ  ,7109,ESSEX,BELLEVILLE TWP
127 BELLEVILLE AVE,BELLEVILLE,NJ  ,7109,ESSEX,BELLEVILLE TWP
165 60TH ST,WEST NEW YORK,NJ  ,7093,HUDSON,WEST NEW YORK TOWN
151 COLUMBIA TPKE,FLORHAM PARK,NJ  ,7932,MORRIS,FLORHAM PARK BORO
100 UNION AVE,BELLEVILLE,NJ  ,7109,ESSEX,BELLEVILLE TWP
196 MADISON AVE,MORRIS TWP,NJ  ,7061,MORRIS,MORRIS TWP
247 S LIVINGSTON AVE,LIVINGSTON,NJ  ,7039,ESSEX,LIVINGSTON TWP
192 MADISON AVE,MORRIS TWP,NJ  ,7960,MORRIS,MORRIS TWP
6031 BROADWAY,WEST NEW YORK,NJ  ,7093,HUDSON,WEST NEW YORK TOWN
5100 TONNELLE AVE,NORTH BERGEN,NJ  ,7047,HUDSON,NORTH BERGEN TWP
5500 KENNEDY BLVD,WEST NEW YORK,NJ  ,7093,HUDSON,WEST NEW YORK TOWN
209 RIDGE RD,NORTH ARLINGTON,NJ  ,7031,BERGEN,NORTH ARLINGTON BORO
2601 OLD BRIDGE MATAWAN RD,OLD BRIDGE TWP,NJ  ,8857,MIDDLESEX,OLD BRIDGE TWP
OLD BRIDGE MATAWAN RD & HIGGINS RD,OLD BRIDGE TWP,NJ  ,7747,MIDDLESEX,OLD BRIDGE TWP
1 OLD BRIDGE PLAZA,OLD BRIDGE TWP,NJ  ,7747,MIDDLESEX,OLD BRIDGE TWP
957 ENGLISHTOWN RD,OLD BRIDGE TWP,NJ  ,8857,MIDDLESEX,OLD BRIDGE TWP
986 RT 34,MATAWAN,NJ  ,7747,MONMOUTH,MATAWAN BORO
162 MEMORIAL PKWY,ATLANTIC HIGHLANDS,NJ  ,7716,MONMOUTH,ATLANTIC HIGHLANDS BORO
2402 OLD BRIDGE MATAWAN RD ,OLD BRIDGE TWP,NJ  ,8857,MIDDLESEX,OLD BRIDGE TWP
1 WORTH PL,OLD BRIDGE TWP,NJ  ,8857,MIDDLESEX,OLD BRIDGE TWP
2401 RT 9 N,OLD BRIDGE TWP,NJ  ,8857,MIDDLESEX,OLD BRIDGE TWP
460 RT 36,HIGHLANDS,NJ  ,7732,MONMOUTH,HIGHLANDS BORO
14 BRIDGE ST,STOCKTON,NJ  ,8559,HUNTERDON,STOCKTON BORO
326 SUMMERHILL RD,SPOTSWOOD,NJ  ,8884,MIDDLESEX,SPOTSWOOD BORO
891 893 OLD GEORGES RD,SOUTH BRUNSWICK TWP,NJ  ,8852,MIDDLESEX,SOUTH BRUNSWICK TWP
10 RISLER ST,STOCKTON,NJ  ,8559,HUNTERDON,STOCKTON BORO
199 OLD BRIDGE MATAWAN RD,OLD BRIDGE TWP,NJ  ,8857,MIDDLESEX,OLD BRIDGE TWP
195 1ST AVE,ATLANTIC HIGHLANDS,NJ  ,7716,MONMOUTH,ATLANTIC HIGHLANDS BORO
2043 RT 130,SOUTH BRUNSWICK TWP,NJ  ,8824,MIDDLESEX,SOUTH BRUNSWICK TWP
102 MAIN ST,EAST BRUNSWICK TWP,NJ  ,8816,MIDDLESEX,EAST BRUNSWICK TWP
76 BETHANY RD,HOLMDEL,NJ  ,7000,MONMOUTH,HOLMDEL TWP
700 HOLMDEL KEYPORT TPKE,HOLMDEL,NJ  ,7733,MONMOUTH,HOLMDEL TWP
550 UNION AVE W,BOUND BROOK BORO,NJ  ,8805,SOMERSET,BOUND BROOK BORO
532 LINCOLN HWY ,WOODBRIDGE TWP,NJ  ,8830,MIDDLESEX,WOODBRIDGE TWP
936 RT 202,BRANCHBURG TWP,NJ  ,8876,SOMERSET,BRANCHBURG TWP
40 E SOMERSET ST,RARITAN,NJ  ,8869,SOMERSET,RARITAN BORO
555 W UNION AVE,BRIDGEWATER TWP,NJ  ,8807,SOMERSET,BRIDGEWATER TWP
1020 GREEN ST,ISELIN,NJ  ,8830,MIDDLESEX,WOODBRIDGE TWP
685 PORT READING AVE,PORT READING,NJ  ,7064,MIDDLESEX,WOODBRIDGE TWP
11 FRENCHTOWN RD,MILFORD BORO,NJ  ,8848,HUNTERDON,MILFORD BORO
753 PORT READING AVE,PORT READING,NJ  ,7095,MIDDLESEX,WOODBRIDGE TWP
915 PORT READING AVE,PORT READING,NJ  ,7064,MIDDLESEX,WOODBRIDGE TWP
12 MOUNTAIN AVE,SOMERVILLE,NJ  ,8876,SOMERSET,SOMERVILLE BORO
1709 OAK TREE RD,EDISON,NJ  ,8820,MIDDLESEX,EDISON TWP
1699 OAK TREE RD,EDISON,NJ  ,8817,MIDDLESEX,EDISON TWP
420 MOUNTAIN AVE,MIDDLESEX,NJ  ,8854,MIDDLESEX,MIDDLESEX BORO
1611 OAK TREE RD,ISELIN,NJ  ,8830,MIDDLESEX,WOODBRIDGE TWP
176 W END AVE,SOMERVILLE,NJ  ,8876,SOMERSET,SOMERVILLE BORO
601 1ST AVE,RARITAN,NJ  ,8869,SOMERSET,RARITAN BORO
118 RT 202 N,RARITAN TWP,NJ  ,8551,HUNTERDON,RARITAN TWP
700 HAMILTON BLVD,SOUTH PLAINFIELD,NJ  ,7080,MIDDLESEX,SOUTH PLAINFIELD BORO
473 LINCOLN HWY,ISELIN,NJ  ,8830,MIDDLESEX,WOODBRIDGE TWP
1606 RT 22,BRIDGEWATER TWP,NJ  ,8807,SOMERSET,BRIDGEWATER TWP
717 LIBERTY AVE,UNION,NJ  ,7083,UNION,UNION TWP
231 RT 22,HILLSIDE,NJ  ,8999,UNION,HILLSIDE TWP
GARDEN STATE PKWY MM 142.2,UNION,NJ  ,7083,UNION,UNION TWP
440 RT 22,HILLSIDE,NJ  ,7205,UNION,HILLSIDE TWP
731 MEMORIAL PKWY,PHILLIPSBURG,NJ  ,8865,WARREN,PHILLIPSBURG TOWN
2352 MORRIS AVE,UNION TWP,NJ  ,7083,UNION,UNION TWP
ELIZABETH AVE & CHANCELLOR AVE,NEWARK,NJ  ,7112,ESSEX,NEWARK CITY
973 MEMORIAL PKWY,LOPATCONG TWP,NJ  ,8886,WARREN,LOPATCONG TWP
1393 LIBERTY AVE,HILLSIDE,NJ  ,7205,UNION,HILLSIDE TWP
1737 KENNEDY BLVD,JERSEY CITY,NJ  ,7305,HUDSON,JERSEY CITY
28 RT 206,PEAPACK,NJ  ,7977,SOMERSET,PEAPACK-GLADSTONE
1400 LIBERTY AVE,HILLSIDE,NJ  ,7205,UNION,HILLSIDE TWP
15 STOCKTON ST,NEWARK,NJ  ,7105,ESSEX,NEWARK CITY
2449 MORRIS AVE,UNION,NJ  ,7036,UNION,UNION TWP
2437 MORRIS AVE,UNION,NJ  ,7083,UNION,UNION TWP
900 DOREMUS AVE,NEWARK,NJ  ,71019,ESSEX,NEWARK CITY
291 RT 513,LEBANON TWP,NJ  ,7830,HUNTERDON,LEBANON TWP
NEW JERSEY TPKE MM 5.5 N,JERSEY CITY,NJ  ,7303,HUDSON,JERSEY CITY
2445 MORRIS AVE,UNION,NJ  ,7083,UNION,UNION TWP
676 GARFIELD AVE,JERSEY CITY,NJ  ,8000,HUDSON,JERSEY CITY
245 MOUNTAIN AVE,SPRINGFIELD,NJ  ,7081,UNION,SPRINGFIELD TWP
1399 CHESTNUT AVE,HILLSIDE,NJ  ,7205,UNION,HILLSIDE TWP
495 MAIN ST,CHESTER,NJ  ,7930,MORRIS,CHESTER BORO
310 312 BELLEVILLE AVE,BELLEVILLE,NJ  ,7109,ESSEX,BELLEVILLE TWP
320 61ST ST,WEST NEW YORK,NJ  ,7093,HUDSON,WEST NEW YORK TOWN
486 PROSPECT AVE,WEST ORANGE,NJ  ,7052,ESSEX,WEST ORANGE TWP
480 482 PROSPECT AVE,WEST ORANGE,NJ  ,7052,ESSEX,WEST ORANGE TWP
445 RT 3,SECAUCUS,NJ  ,7094,HUDSON,SECAUCUS TOWN
461 BLOOMFIELD AVE,BLOOMFIELD,NJ  ,7003,ESSEX,BLOOMFIELD TWP
400 RT 3,SECAUCUS,NJ  ,7094,HUDSON,SECAUCUS TOWN
491 BLOOMFIELD AVE,BLOOMFIELD,NJ  ,7003,ESSEX,BLOOMFIELD TWP
450 RT 3 W,SECAUCUS,NJ  ,7094,HUDSON,SECAUCUS TOWN
209 RT 3,SECAUCUS,NJ  ,7094,HUDSON,SECAUCUS TOWN
385 MAIN ST,WEST ORANGE,NJ  ,7850,ESSEX,WEST ORANGE TWP
1320 PATERSON PLANK RD,SECAUCUS,NJ  ,7094,HUDSON,SECAUCUS TOWN
972 MT PLEASANT AVE,WEST ORANGE,NJ  ,7052,ESSEX,WEST ORANGE TWP
725 RT 3,SECAUCUS,NJ  ,7094,HUDSON,SECAUCUS TOWN
353 RIDGE RD,NORTH ARLINGTON,NJ  ,7032,BERGEN,NORTH ARLINGTON BORO
2 MT KIMBLE AVE,MORRISTOWN,NJ  ,7960,MORRIS,MORRISTOWN TOWN
124 MT PLEASANT AVE W,LIVINGSTON,NJ  ,7039,ESSEX,LIVINGSTON TWP
37 MT PLEASANT AVE W,LIVINGSTON,NJ  ,7039,ESSEX,LIVINGSTON TWP
630 BLOOMFIELD AVE,BLOOMFIELD,NJ  ,7003,ESSEX,BLOOMFIELD TWP
163 165 MORRIS ST,MORRISTOWN,NJ  ,7960,MORRIS,MORRISTOWN TOWN
701 HOLMDEL KEYPORT TPKE,HOLMDEL,NJ  ,7733,MONMOUTH,HOLMDEL TWP
2122 RT 35,HOLMDEL TWP,NJ  ,7733,MONMOUTH,HOLMDEL TWP
2055 RT 35,HOLMDEL TWP,NJ  ,7733,MONMOUTH,HOLMDEL TWP
2040 RT 130,SOUTH BRUNSWICK TWP,NJ  ,8902,MIDDLESEX,SOUTH BRUNSWICK TWP
2280 RT 9 ,OLD BRIDGE TWP,NJ  ,8857,MIDDLESEX,OLD BRIDGE TWP
695 HOLMDEL RD,HAZLET,NJ  ,7730,MONMOUTH,HAZLET TWP
133 1ST AVE,ATLANTIC HIGHLANDS,NJ  ,7716,MONMOUTH,ATLANTIC HIGHLANDS BORO
RT 36 & AVE D,MIDDLETOWN TWP,NJ  ,7716,MONMOUTH,MIDDLETOWN TWP
65 LEONARDVILLE RD,BELFORD,NJ  ,7718,MONMOUTH,MIDDLETOWN TWP
777 RT 34,MATAWAN,NJ  ,7747,MONMOUTH,MATAWAN BORO
74 91 LEONARDVILLE RD,BELFORD,NJ  ,7718,MONMOUTH,MIDDLETOWN TWP
882 RT 36,MIDDLETOWN TWP,NJ  ,7737,MONMOUTH,MIDDLETOWN TWP
2131 RT 35,HOLMDEL,NJ  ,7733,MONMOUTH,HOLMDEL TWP
1010 RT 18,EAST BRUNSWICK TWP,NJ  ,8816,MIDDLESEX,EAST BRUNSWICK TWP
75 APPLETON AVE,MIDDLETOWN,NJ  ,7737,MONMOUTH,MIDDLETOWN TWP
NEW JERSEY TPKE MM 78.8 N,EAST BRUNSWICK TWP,NJ  ,8903,MIDDLESEX,EAST BRUNSWICK TWP
534 CRANBURY RD,EAST BRUNSWICK TWP,NJ  ,8816,MIDDLESEX,EAST BRUNSWICK TWP
1 CLIFFWOOD AVE,OLD BRIDGE TWP,NJ  ,8857,MIDDLESEX,OLD BRIDGE TWP
3039 RT 35,HAZLET,NJ  ,7730,MONMOUTH,HAZLET TWP
3703 LINCOLN HWY,FRANKLIN TWP,NJ  ,8540,SOMERSET,FRANKLIN TWP
2720 RT 130,NORTH BRUNSWICK TWP,NJ  ,8902,MIDDLESEX,NORTH BRUNSWICK TWP
977 RAHWAY AVE,WOODBRIDGE,NJ  ,7001,MIDDLESEX,WOODBRIDGE TWP
1620 RT 22 ,BRIDGEWATER TWP,NJ  ,8807,SOMERSET,BRIDGEWATER TWP
5 STELTON RD,PISCATAWAY TWP,NJ  ,8817,MIDDLESEX,PISCATAWAY TWP
2364 S CLINTON AVE,SOUTH PLAINFIELD,NJ  ,7080,MIDDLESEX,SOUTH PLAINFIELD BORO
1200 MOUNTAIN AVE,MIDDLESEX,NJ  ,8846,MIDDLESEX,MIDDLESEX BORO
869 RT 1 S,AVENEL,NJ  ,7001,MIDDLESEX,WOODBRIDGE TWP
930 RT 1,AVENEL,NJ  ,7001,MIDDLESEX,WOODBRIDGE TWP
1100 1116 ST GEORGES AVE,AVENEL,NJ  ,7001,MIDDLESEX,WOODBRIDGE TWP
1240 RT 22,BRIDGEWATER TWP,NJ  ,8807,SOMERSET,BRIDGEWATER TWP
657 EVERITTSTOWN RD,ALEXANDRIA TWP,NJ  ,8867,HUNTERDON,ALEXANDRIA TWP
1353 BOUND BROOK RD,MIDDLESEX,NJ  ,8846,MIDDLESEX,MIDDLESEX BORO
101 OAK TREE AVE,SOUTH PLAINFIELD,NJ  ,7080,MIDDLESEX,SOUTH PLAINFIELD BORO
151 WASHINGTON AVE,CARTERET,NJ  ,7008,MIDDLESEX,CARTERET BORO
1068 RT 22,BRIDGEWATER TWP,NJ  ,8901,SOMERSET,BRIDGEWATER TWP
975 RT 1 S,AVENEL,NJ  ,7001,MIDDLESEX,WOODBRIDGE TWP
1062 1070 RT 22,SOMERVILLE,NJ  ,8876,SOMERSET,SOMERVILLE BORO
280 RT 202/206,SOMERVILLE,NJ  ,8876,SOMERSET,SOMERVILLE BORO
1215 1217 ST GEORGES AVE,COLONIA,NJ  ,7067,MIDDLESEX,WOODBRIDGE TWP
960 RT 22,SOMERVILLE,NJ  ,8876,SOMERSET,SOMERVILLE BORO
914 RT 22,SOMERVILLE,NJ  ,8876,SOMERSET,SOMERVILLE BORO
900 RT 22,SOMERVILLE,NJ  ,8876,SOMERSET,SOMERVILLE BORO
499 509 FRELINGHUYSEN AVE,NEWARK,NJ  ,7102,ESSEX,NEWARK CITY
50 SOUTH ST,NEW PROVIDENCE BORO,NJ  ,7974,UNION,NEW PROVIDENCE BORO
1869 KENNEDY BLVD,JERSEY CITY,NJ  ,7305,HUDSON,JERSEY CITY
2674 MORRIS AVE,UNION,NJ  ,7083,UNION,UNION TWP
1404 STUYVESANT AVE,UNION,NJ  ,7083,UNION,UNION TWP
630 N MAIN ST,STEWARTSVILLE,NJ  ,8886,WARREN,GREENWICH TWP
1444 STUYVESANT AVE,UNION,NJ  ,7083,UNION,UNION TWP
432 DANFORTH AVE,JERSEY CITY,NJ  ,7305,HUDSON,JERSEY CITY
770 GARFIELD AVE,JERSEY CITY,NJ  ,7303,HUDSON,JERSEY CITY
194 CHANCELLOR AVE,NEWARK,NJ  ,7112,ESSEX,NEWARK CITY
1190 SPRINGFIELD AVE,NEW PROVIDENCE BORO,NJ  ,7974,UNION,NEW PROVIDENCE BORO
RT 440 & DANFORTH AVE,JERSEY CITY,NJ  ,7305,HUDSON,JERSEY CITY
NEW JERSEY TPKE MM 104.7 S,NEWARK CITY,NJ  ,7101,ESSEX,NEWARK CITY
2425 VAUXHALL RD,UNION,NJ  ,7083,UNION,UNION TWP
1568 STUYVESANT AVE,UNION TWP,NJ  ,7083,UNION,UNION TWP
9 MEISEL AVE,SPRINGFIELD,NJ  ,7081,UNION,SPRINGFIELD TWP
465 COIT ST,IRVINGTON,NJ  ,7111,ESSEX,IRVINGTON TWP
1110 BELVIDERE RD,LOPATCONG,NJ  ,8865,WARREN,LOPATCONG TWP
4 CALDWELL PL,SPRINGFIELD,NJ  ,7081,UNION,SPRINGFIELD TWP
1750 WALKER AVE,UNION,NJ  ,8005,UNION,UNION TWP
8 10 ASHWOOD AVE,SUMMIT,NJ  ,7901,UNION,SUMMIT CITY
1761 EDWARD TER,UNION,NJ  ,7083,UNION,UNION TWP
168 MORRIS ST,MORRISTOWN,NJ  ,7960,MORRIS,MORRISTOWN TOWN
463 473 MAIN ST,BELLEVILLE,NJ  ,7109,ESSEX,BELLEVILLE TWP
38 E MT PLEASANT AVE ,LIVINGSTON,NJ  ,7039,ESSEX,LIVINGSTON TWP
152 MORRIS ST,MORRISTOWN,NJ  ,7960,MORRIS,MORRISTOWN TOWN
527 MT PLEASANT AVE W,LIVINGSTON,NJ  ,7039,ESSEX,LIVINGSTON TWP
400 MT PLEASANT AVE W,LIVINGSTON,NJ  ,7039,ESSEX,LIVINGSTON TWP
109 MORRIS ST,MORRISTOWN,NJ  ,7960,MORRIS,MORRISTOWN TOWN
8 AIRPORT RD,HANOVER,NJ  ,7960,MORRIS,HANOVER TWP
223 HARRISON AVE,MONTCLAIR,NJ  ,7042,ESSEX,MONTCLAIR TWP
300 RT 3,SECAUCUS,NJ  ,7094,HUDSON,SECAUCUS TOWN
6800 KENNEDY BLVD,GUTTENBERG,NJ  ,7093,HUDSON,GUTTENBERG TOWN
711 BLOOMFIELD AVE,BLOOMFIELD,NJ  ,7003,ESSEX,BLOOMFIELD TWP
19 BEACH ST,BLOOMFIELD,NJ  ,7003,ESSEX,BLOOMFIELD TWP
75 BELLEVILLE AVE,BLOOMFIELD,NJ  ,7003,ESSEX,BLOOMFIELD TWP
7001 7015 KENNEDY BLVD,NORTH BERGEN,NJ  ,7047,HUDSON,NORTH BERGEN TWP
7319 BERGENLINE AVE,NORTH BERGEN,NJ  ,7047,HUDSON,NORTH BERGEN TWP
429 RIVER RD,NORTH ARLINGTON,NJ  ,7031,BERGEN,NORTH ARLINGTON BORO
149 WASHINGTON ST,MORRISTOWN,NJ  ,7960,MORRIS,MORRISTOWN TOWN
151 WASHINGTON ST,MORRISTOWN,NJ  ,7960,MORRIS,MORRISTOWN TOWN
60 ABBETT AVE,MORRISTOWN,NJ  ,7960,MORRIS,MORRISTOWN TOWN
4521 TONNELLE AVE,NORTH BERGEN,NJ  ,7047,HUDSON,NORTH BERGEN TWP
659 RT 36,BELFORD,NJ  ,7718,MONMOUTH,MIDDLETOWN TWP
560 RT 36,BELFORD,NJ  ,7718,MONMOUTH,MIDDLETOWN TWP
3817 RT 1,SOUTH BRUNSWICK TWP,NJ  ,8852,MIDDLESEX,SOUTH BRUNSWICK TWP
1085 RT 18,EAST BRUNSWICK TWP,NJ  ,8816,MIDDLESEX,EAST BRUNSWICK TWP
1082 RT 18,EAST BRUNSWICK TWP,NJ  ,8816,MIDDLESEX,EAST BRUNSWICK TWP
3612 LINCOLN HWY,KENDALL PARK,NJ  ,8824,MIDDLESEX,SOUTH BRUNSWICK TWP
549 RT 36,MIDDLETOWN TWP,NJ  ,7748,MONMOUTH,MIDDLETOWN TWP
784 RT 18,EAST BRUNSWICK TWP,NJ  ,8816,MIDDLESEX,EAST BRUNSWICK TWP
149 LOWER MAIN ST,ABERDEEN TWP,NJ  ,7747,MONMOUTH,ABERDEEN TWP
3328 RT 35,HAZLET,NJ  ,7730,MONMOUTH,HAZLET TWP
218 EAST RD,MIDDLETOWN,NJ  ,7728,MONMOUTH,MIDDLETOWN TWP
1799 CHEESEQUAKE BROWNTOWN RD,OLD BRIDGE TWP,NJ  ,8857,MIDDLESEX,OLD BRIDGE TWP
110 CLARK ST,KEYPORT,NJ  ,7730,MONMOUTH,KEYPORT BORO
3502 RT 27,KENDALL PARK,NJ  ,8824,MIDDLESEX,SOUTH BRUNSWICK TWP
395 CLARK ST,KEYPORT,NJ  ,7721,MONMOUTH,KEYPORT BORO
323 RT 34,OLD BRIDGE TWP,NJ  ,7747,MIDDLESEX,OLD BRIDGE TWP
177 RT 34,MATAWAN BORO,NJ  ,7747,MONMOUTH,MATAWAN BORO
375 MIDDLE RD,HAZLET,NJ  ,7730,MONMOUTH,HAZLET TWP
412 RT 36,PORT MONMOUTH,NJ  ,7758,MONMOUTH,MIDDLETOWN TWP
343 MAIN ST,KEYPORT BORO,NJ  ,7735,MONMOUTH,KEYPORT BORO
93 RT 36,KEYPORT,NJ  ,7735,MONMOUTH,KEYPORT BORO
6600 INDUSTRIAL HWY,CARTERET,NJ  ,7008,MIDDLESEX,CARTERET BORO
301 COUNTRY CLUB RD,BRIDGEWATER TWP,NJ  ,8807,SOMERSET,BRIDGEWATER TWP
GARDEN STATE PKWY MM 82 S,ISELIN,NJ  ,8830,MIDDLESEX,WOODBRIDGE TWP
2505 PLAINFIELD AVE,SOUTH PLAINFIELD,NJ  ,7080,MIDDLESEX,SOUTH PLAINFIELD BORO
1090 RT 1/9,AVENEL,NJ  ,7001,MIDDLESEX,WOODBRIDGE TWP
305 BOUND BROOK RD,MIDDLESEX,NJ  ,8846,MIDDLESEX,MIDDLESEX BORO
343 345 RT 22 E,GREEN BROOK TWP,NJ  ,8812,SOMERSET,GREEN BROOK TWP
743 ROOSEVELT AVE,CARTERET,NJ  ,7008,MIDDLESEX,CARTERET BORO
756 ROOSEVELT AVE,CARTERET,NJ  ,7008,MIDDLESEX,CARTERET BORO
101 BOUND BROOK RD,MIDDLESEX,NJ  ,8846,MIDDLESEX,MIDDLESEX BORO
1725 W 7TH ST,PISCATAWAY TWP,NJ  ,8854,MIDDLESEX,PISCATAWAY TWP
289 291 RT 22,GREEN BROOK TWP,NJ  ,8812,SOMERSET,GREEN BROOK TWP
GARDEN STATE PKWY MM 85,COLONIA,NJ  ,7067,MIDDLESEX,WOODBRIDGE TWP
301 NORTH AVE,DUNELLEN,NJ  ,8812,MIDDLESEX,DUNELLEN BORO
125 ST GEORGES AVE,RAHWAY,NJ  ,7065,UNION,RAHWAY CITY
282 RT 22,GREEN BROOK TWP,NJ  ,8812,SOMERSET,GREEN BROOK TWP
2222 PARK AVE,SOUTH PLAINFIELD,NJ  ,7008,MIDDLESEX,SOUTH PLAINFIELD BORO
1502 ROOSEVELT AVE,CARTERET,NJ  ,7008,MIDDLESEX,CARTERET BORO
258 RT 22,GREEN BROOK TWP,NJ  ,8812,SOMERSET,GREEN BROOK TWP
487 BLAIR RD,AVENEL,NJ  ,7001,MIDDLESEX,WOODBRIDGE TWP
1701 STUYVESANT AVE,UNION,NJ  ,7083,UNION,UNION TWP
547 549 DUNCAN AVE,JERSEY CITY,NJ  ,7302,HUDSON,JERSEY CITY
LUIS MUNOZ MARIN BLVD,JERSEY CITY,NJ  ,7302,HUDSON,JERSEY CITY
272 HILLSIDE AVE,NEWARK,NJ  ,7112,ESSEX,NEWARK CITY
273 ELIZABETH AVE,NEWARK,NJ  ,7105,ESSEX,NEWARK CITY
19 SUMMIT AVE ,SUMMIT,NJ  ,7901,UNION,SUMMIT CITY
558 CHANCELLOR AVE,IRVINGTON,NJ  ,7111,ESSEX,IRVINGTON TWP
1060 STUYVESANT AVE,IRVINGTON,NJ  ,7111,ESSEX,IRVINGTON TWP
597 CHANCELLOR AVE,IRVINGTON,NJ  ,7111,ESSEX,IRVINGTON TWP
242 ELIZABETH AVE,NEWARK,NJ  ,7108,ESSEX,NEWARK CITY
35 SUMMIT AVE ,SUMMIT,NJ  ,7901,UNION,SUMMIT CITY
701 CHANCELLOR AVE,IRVINGTON,NJ  ,7111,ESSEX,IRVINGTON TWP
470 COMMUNIPAW AVE,JERSEY CITY,NJ  ,7303,HUDSON,JERSEY CITY
91 MINE BROOK RD,BERNARDSVILLE,NJ  ,7924,SOMERSET,BERNARDSVILLE BORO
342 MORRIS AVE,SUMMIT,NJ  ,7901,UNION,SUMMIT CITY
569 MORRIS AVE,SPRINGFIELD,NJ  ,7081,UNION,SPRINGFIELD TWP
543 553 LYONS AVE,IRVINGTON,NJ  ,7111,ESSEX,IRVINGTON TWP
587 MILLBURN AVE,SHORT HILLS,NJ  ,7078,ESSEX,MILLBURN TWP
650 GRAND ST,JERSEY CITY,NJ  ,7302,HUDSON,JERSEY CITY
360 364 HAWTHORNE AVE,NEWARK,NJ  ,7112,ESSEX,NEWARK CITY
465 GRAND ST,JERSEY CITY,NJ  ,7304,HUDSON,JERSEY CITY
2201 SPRINGFIELD AVE,VAUX HALL,NJ  ,7088,UNION,UNION TWP
700 RIDGE RD,LYNDHURST,NJ  ,7071,BERGEN,LYNDHURST TWP
8401 RIVER RD,NORTH BERGEN,NJ  ,7047,HUDSON,NORTH BERGEN TWP
605 WASHINGTON AVE,BELLEVILLE,NJ  ,7109,ESSEX,BELLEVILLE TWP
7400 KENNEDY BLVD,NORTH BERGEN,NJ  ,7047,HUDSON,NORTH BERGEN TWP
520 JORALEMON ST,BELLEVILLE,NJ  ,7109,ESSEX,BELLEVILLE TWP
270 PROSPECT AVE,WEST ORANGE,NJ  ,7052,ESSEX,WEST ORANGE TWP
368 FRANKLIN AVE,BELLEVILLE,NJ  ,7109,ESSEX,BELLEVILLE TWP
7600 KENNEDY BLVD,NORTH BERGEN,NJ  ,7047,HUDSON,NORTH BERGEN TWP
357 RT 10,EAST HANOVER TWP,NJ  ,7936,MORRIS,EAST HANOVER TWP
54 ROCK RD,LONG VALLEY,NJ  ,7853,MORRIS,WASHINGTON TWP
852 RIVERSIDE AVE,LYNDHURST,NJ  ,7071,BERGEN,LYNDHURST TWP
590 RIDGE RD,LYNDHURST,NJ  ,7071,BERGEN,LYNDHURST TWP
389 FRANKLIN AVE,BELLEVILLE,NJ  ,7109,ESSEX,BELLEVILLE TWP
NEW JERSEY TPKE MM 112.5,EAST RUTHERFORD,NJ  ,8000,BERGEN,EAST RUTHERFORD BORO
149 RT 31,OXFORD,NJ  ,7863,WARREN,OXFORD TWP
7416 7424 TONNELLE AVE,NORTH BERGEN,NJ  ,7047,HUDSON,NORTH BERGEN TWP
180 182 SPEEDWELL AVE,MORRISTOWN,NJ  ,7960,MORRIS,MORRISTOWN TOWN
7514 TONNELLE AVE,NORTH BERGEN,NJ  ,7047,HUDSON,NORTH BERGEN TWP
299 E HANOVER AVE,MORRIS TWP,NJ  ,7960,MORRIS,MORRIS TWP
100 WOODCLIFF AVE,NORTH BERGEN,NJ  ,7047,HUDSON,NORTH BERGEN TWP
349 RIDGE RD,LYNDHURST,NJ  ,7071,BERGEN,LYNDHURST TWP
88 RT 36,KEYPORT,NJ  ,7735,MONMOUTH,KEYPORT BORO
724 RT 18,EAST BRUNSWICK TWP,NJ  ,8816,MIDDLESEX,EAST BRUNSWICK TWP
24 JOHN RINGO RD,RINGOES,NJ  ,8551,HUNTERDON,EAST AMWELL TWP
1072 RT 202/31,RINGOES,NJ  ,8551,HUNTERDON,EAST AMWELL TWP
1355 RT 36,HAZLET,NJ  ,7730,MONMOUTH,HAZLET TWP
1499 RT 9,OLD BRIDGE TWP,NJ  ,8857,MIDDLESEX,OLD BRIDGE TWP
3703 RT 1,SOUTH BRUNSWICK TWP,NJ  ,8902,MIDDLESEX,SOUTH BRUNSWICK TWP
750 JERNEE MILL RD,SAYREVILLE,NJ  ,8879,MIDDLESEX,SAYREVILLE BORO
2800 RT 1 ,NORTH BRUNSWICK TWP,NJ  ,8903,MIDDLESEX,NORTH BRUNSWICK TWP
3222 RT 17,SOUTH BRUNSWICK TWP,NJ  ,8852,MIDDLESEX,SOUTH BRUNSWICK TWP
1170 RT 36,HAZLET,NJ  ,7730,MONMOUTH,HAZLET TWP
436 MATAWAN AVE,CLIFFWOOD,NJ  ,7721,MONMOUTH,ABERDEEN TWP
624 RT 18,EAST BRUNSWICK TWP,NJ  ,8816,MIDDLESEX,EAST BRUNSWICK TWP
3161 RT 27,FRANKLIN PARK,NJ  ,8823,SOMERSET,FRANKLIN TWP
2715 RT 1,NORTH BRUNSWICK TWP,NJ  ,8902,MIDDLESEX,NORTH BRUNSWICK TWP
1400 CHEESEQUAKE BROWNTOWN RD,OLD BRIDGE TWP,NJ  ,8857,MIDDLESEX,OLD BRIDGE TWP
2 RT 36,EAST KEANSBURG,NJ  ,7734,MONMOUTH,MIDDLETOWN TWP
44 RT 36,HAZLET TWP,NJ  ,7730,MONMOUTH,HAZLET TWP
9 RT 36 ,KEANSBURG,NJ  ,7734,MONMOUTH,KEANSBURG BORO
100 GRAND AVE,NORTH BRUNSWICK,NJ  ,8902,MIDDLESEX,NORTH BRUNSWICK TWP
1621 UNION AVE,HAZLET TWP,NJ  ,7730,MONMOUTH,HAZLET TWP
1810 W FRONT ST,PLAINFIELD,NJ  ,7063,UNION,PLAINFIELD CITY
2540 RANDOLPH AVE,AVENEL,NJ  ,7001,MIDDLESEX,WOODBRIDGE TWP
1201 RT 31 ,CLINTON TWP,NJ  ,8842,HUNTERDON,CLINTON TWP
1167 1171 INMAN AVE,EDISON,NJ  ,8820,MIDDLESEX,EDISON TWP
1200 RT 31,CLINTON TWP,NJ  ,8801,HUNTERDON,CLINTON TWP
1309 W 7TH ST,SOUTH PLAINFIELD,NJ  ,7080,MIDDLESEX,SOUTH PLAINFIELD BORO
367 ST GEORGES AVE,RAHWAY,NJ  ,7065,UNION,RAHWAY CITY
233 RT 22,GREEN BROOK TWP,NJ  ,8812,SOMERSET,GREEN BROOK TWP
1610 PARK AVE,SOUTH PLAINFIELD,NJ  ,7080,MIDDLESEX,SOUTH PLAINFIELD BORO
490 ST GEORGES AVE,RAHWAY,NJ  ,7065,UNION,RAHWAY CITY
551 ST GEORGES AVE,RAHWAY,NJ  ,7065,UNION,RAHWAY CITY
270 INMAN AVE,WOODBRIDGE,NJ  ,7067,MIDDLESEX,WOODBRIDGE TWP
1399 RT 1/9,RAHWAY,NJ  ,7065,UNION,RAHWAY CITY
MATTHEWSON DR,PLAINFIELD,NJ  ,7060,UNION,PLAINFIELD CITY
1909 WASHINGTON VALLEY RD,MARTINSVILLE,NJ  ,8836,SOMERSET,BRIDGEWATER TWP
1237 RT 31,CLINTON TWP,NJ  ,8833,HUNTERDON,CLINTON TWP
3221 RT 22,NORTH BRANCH,NJ  ,8876,SOMERSET,BRANCHBURG TWP
1099 RT 28,NORTH BRANCH,NJ  ,8876,SOMERSET,BRANCHBURG TWP
3250 RT 22,BRANCHBURG TWP,NJ  ,8876,SOMERSET,BRANCHBURG TWP
439 LAKE AVE,COLONIA,NJ  ,7067,MIDDLESEX,WOODBRIDGE TWP
160 W LAKE AVE,COLONIA,NJ  ,7067,MIDDLESEX,WOODBRIDGE TWP
2195 SPRINGFIELD AVE,VAUX HALL,NJ  ,7088,UNION,UNION TWP
2200 SPRINGFIELD AVE,VAUX HALL,NJ  ,7088,UNION,UNION TWP
408 BOYDEN AVE,MAPLEWOOD,NJ  ,7040,ESSEX,MAPLEWOOD TWP
185 PENNSYLVANIA AVE,NEWARK,NJ  ,7114,ESSEX,NEWARK CITY
370 SOUTH ST,NEWARK,NJ  ,7105,ESSEX,NEWARK CITY
329 343 MCCARTER HWY,NEWARK,NJ  ,7102,ESSEX,NEWARK CITY
2388 2392 KENNEDY BLVD,JERSEY CITY,NJ  ,7306,HUDSON,JERSEY CITY
2379 KENNEDY BLVD,JERSEY CITY,NJ  ,7304,HUDSON,JERSEY CITY
472 RT 31,WASHINGTON TWP,NJ  ,8827,WARREN,WASHINGTON TWP
2016 2028 SPRINGFIELD AVE,MAPLEWOOD,NJ  ,7040,ESSEX,MAPLEWOOD TWP
500 MILLBURN AVE,SHORT HILLS,NJ  ,7078,ESSEX,MILLBURN TWP
135 MORRISTOWN RD,BERNARDSVILLE,NJ  ,7924,SOMERSET,BERNARDSVILLE BORO
134 MORRISTOWN RD,BERNARDSVILLE,NJ  ,7924,SOMERSET,BERNARDSVILLE BORO
681 LYONS AVE,IRVINGTON,NJ  ,7111,ESSEX,IRVINGTON TWP
701 RT 440,JERSEY CITY,NJ  ,7304,HUDSON,JERSEY CITY
18 MORRIS ESSEX TPKE,SUMMIT,NJ  ,7901,UNION,SUMMIT CITY
27 31 EUCLID AVE,SUMMIT,NJ  ,7901,UNION,SUMMIT CITY
960 CHANCELLOR AVE,IRVINGTON,NJ  ,7111,ESSEX,IRVINGTON TWP
1 MADISONVILLE RD,BASKING RIDGE,NJ  ,7920,SOMERSET,BERNARDS TWP
1 POTTERSVILLE RD,PEAPACK-GLADSTONE,NJ  ,7934,SOMERSET,PEAPACK-GLADSTONE
2459 RT 57,FRANKLIN TWP,NJ  ,8886,WARREN,FRANKLIN TWP
8012 TONNELLE AVE,NORTH BERGEN,NJ  ,7047,HUDSON,NORTH BERGEN TWP
115 BLOOMFIELD AVE,MONTCLAIR,NJ  ,7042,ESSEX,MONTCLAIR TWP
208 RT 31,OXFORD,NJ  ,7863,WARREN,OXFORD TWP
175 RT 10,EAST HANOVER TWP,NJ  ,7936,MORRIS,EAST HANOVER TWP
73 PALISADE AVE,CLIFFSIDE PARK,NJ  ,7010,BERGEN,CLIFFSIDE PARK BORO
155 RT 10,EAST HANOVER TWP,NJ  ,7936,MORRIS,EAST HANOVER TWP
120 HANOVER AVE,CEDAR KNOLLS,NJ  ,7927,MORRIS,HANOVER TWP
95 97 WASHINGTON AVE,NUTLEY,NJ  ,7110,ESSEX,NUTLEY TWP
29 35 FRANKLIN AVE,NUTLEY,NJ  ,7110,ESSEX,NUTLEY TWP
645 654 EAGLE ROCK AVE,WEST ORANGE,NJ  ,7052,ESSEX,WEST ORANGE TWP
8800 KENNEDY BLVD,NORTH BERGEN,NJ  ,7047,HUDSON,NORTH BERGEN TWP
9280 KENNEDY BLVD,NORTH BERGEN,NJ  ,7047,HUDSON,NORTH BERGEN TWP
264 BLOOMFIELD AVE,MONTCLAIR,NJ  ,7042,ESSEX,MONTCLAIR TWP
203 HANOVER AVE,MORRIS TWP,NJ  ,7960,MORRIS,MORRIS TWP
543 RIVERSIDE AVE,LYNDHURST,NJ  ,7071,BERGEN,LYNDHURST TWP
150 WASHINGTON AVE,NUTLEY,NJ  ,7110,ESSEX,NUTLEY TWP
9101 KENNEDY BLVD,NORTH BERGEN,NJ  ,7047,HUDSON,NORTH BERGEN TWP
40 CLAREMONT AVE,MONTCLAIR,NJ  ,7042,ESSEX,MONTCLAIR TWP
550 BROAD ST,BLOOMFIELD,NJ  ,7003,ESSEX,BLOOMFIELD TWP
BROAD ST & BAY ST,BLOOMFIELD,NJ  ,7003,ESSEX,BLOOMFIELD TWP
161 RIDGE RD,LYNDHURST,NJ  ,7071,BERGEN,LYNDHURST TWP
345 VALLEY BROOK AVE,LYNDHURST,NJ  ,7071,BERGEN,LYNDHURST TWP
274 MILLTOWN RD,EAST BRUNSWICK TWP,NJ  ,8816,MIDDLESEX,EAST BRUNSWICK TWP
161 RT 36,WEST KEANSBURG,NJ  ,7734,MONMOUTH,HAZLET TWP
76 BROAD ST,KEYPORT,NJ  ,7735,MONMOUTH,KEYPORT BORO
210 RT 36 ,WEST KEANSBURG,NJ  ,7734,MONMOUTH,HAZLET TWP
390 RT 35,CLIFFWOOD,NJ  ,7721,MONMOUTH,ABERDEEN TWP
963 RT 36 ,HAZLET,NJ  ,7730,MONMOUTH,HAZLET TWP
241 RT 36,WEST KEANSBURG,NJ  ,7734,MONMOUTH,HAZLET TWP
2561 RT 1 ,NORTH BRUNSWICK TWP,NJ  ,8903,MIDDLESEX,NORTH BRUNSWICK TWP
325 RT 36,WEST KEANSBURG,NJ  ,7734,MONMOUTH,HAZLET TWP
967 RT 36,UNION BEACH,NJ  ,7735,MONMOUTH,UNION BEACH BORO
21 23 FRESH PONDS RD,EAST BRUNSWICK TWP,NJ  ,8903,MIDDLESEX,EAST BRUNSWICK TWP
523 RT 18,EAST BRUNSWICK TWP,NJ  ,8816,MIDDLESEX,EAST BRUNSWICK TWP
204 RT 35,ABERDEEN TWP,NJ  ,7735,MONMOUTH,ABERDEEN TWP
1299 CHEESEQUAKE BROWNTOWN RD,OLD BRIDGE TWP,NJ  ,8857,MIDDLESEX,OLD BRIDGE TWP
250 258 OLD BRIDGE NEW BRUNSWICK TPKE ,SOUTH RIVER,NJ  ,8882,MIDDLESEX,SOUTH RIVER BORO
2900 LINCOLN HWY,NORTH BRUNSWICK TWP,NJ  ,8902,MIDDLESEX,NORTH BRUNSWICK TWP
1019 RT 202,RINGOES,NJ  ,8551,HUNTERDON,EAST AMWELL TWP
2893 RT 27,FRANKLIN PARK,NJ  ,8823,SOMERSET,FRANKLIN TWP
2836 2844 LINCOLN HWY,FRANKLIN PARK,NJ  ,8902,MIDDLESEX,NORTH BRUNSWICK TWP
1700 GEORGES RD,NORTH BRUNSWICK TWP,NJ  ,8902,MIDDLESEX,NORTH BRUNSWICK TWP
1696 GEORGES RD,NORTH BRUNSWICK TWP,NJ  ,8902,MIDDLESEX,NORTH BRUNSWICK TWP
1948 RT 1/9,RAHWAY,NJ  ,7065,UNION,RAHWAY CITY
1004 1010 ST GEORGES AVE,RAHWAY,NJ  ,7065,UNION,RAHWAY CITY
1950 RT 1/9,RAHWAY,NJ  ,7065,UNION,RAHWAY CITY
1999 RT 1/9 N,RAHWAY,NJ  ,7065,UNION,RAHWAY CITY
801 W FRONT ST,PLAINFIELD,NJ  ,7060,UNION,PLAINFIELD CITY
745 755 W FRONT ST,PLAINFIELD CITY,NJ  ,7060,UNION,PLAINFIELD CITY
182 RIEGELSVILLE WARREN GLEN RD ,POHATCONG TWP,NJ  ,8865,WARREN,POHATCONG TWP
1299 RT 22,NORTH PLAINFIELD,NJ  ,7060,SOMERSET,NORTH PLAINFIELD BORO
1292 RT 22,NORTH PLAINFIELD,NJ  ,7063,SOMERSET,NORTH PLAINFIELD BORO
1280 RT 22 E,NORTH PLAINFIELD,NJ  ,7060,SOMERSET,NORTH PLAINFIELD BORO
3548 RT 22 ,READINGTON TWP,NJ  ,8888,HUNTERDON,READINGTON TWP
363 W GRAND AVE,RAHWAY,NJ  ,7065,UNION,RAHWAY CITY
3603 3605 RT 22,WHITEHOUSE,NJ  ,8888,HUNTERDON,READINGTON TWP
2 MT BETHEL RD,WARREN TWP,NJ  ,7059,SOMERSET,WARREN TWP
160 MAIN ST,WHITEHOUSE STATION,NJ  ,8889,HUNTERDON,READINGTON TWP
1659 ST GEORGES AVE,RAHWAY,NJ  ,7065,UNION,RAHWAY CITY
801 W EDGAR RD,LINDEN,NJ  ,7036,UNION,LINDEN CITY
44 46 MOUNTAIN BLVD,WARREN TWP,NJ  ,7060,SOMERSET,WARREN TWP
1050 MILFORD WARREN GLEN RD,HOLLAND TWP,NJ  ,8848,HUNTERDON,HOLLAND TWP
378 RT 22,WHITEHOUSE,NJ  ,8888,HUNTERDON,READINGTON TWP
801 RARITAN RD,CLARK TWP,NJ  ,7066,UNION,CLARK TWP
510 MAIN ST,LITTLE FALLS,NJ  ,7470,PASSAIC,LITTLE FALLS TWP
300 BROAD ST,CLIFTON,NJ  ,7013,PASSAIC,CLIFTON CITY
17 RT 46,LODI,NJ  ,7644,BERGEN,LODI BORO
12 14 W CLINTON ST,DOVER,NJ  ,7801,MORRIS,DOVER TOWN
13 W CLINTON ST,DOVER,NJ  ,8753,MORRIS,DOVER TOWN
1755 RT 46 E,LITTLE FALLS TWP,NJ  ,7424,PASSAIC,LITTLE FALLS TWP
307 E 7TH ST,CLIFTON,NJ  ,7013,PASSAIC,CLIFTON CITY
1 RT 46,DOVER,NJ  ,7801,MORRIS,DOVER TOWN
18 RT 46,DOVER,NJ  ,7801,MORRIS,DOVER TOWN
339 VALLEY RD,CLIFTON,NJ  ,7013,PASSAIC,CLIFTON CITY
209 CEDAR LN,TEANECK,NJ  ,7666,BERGEN,TEANECK TWP
366 ESSEX ST,LODI,NJ  ,7644,BERGEN,LODI BORO
341 RT 46,DOVER,NJ  ,7801,MORRIS,DOVER TOWN
61 RT 46,DOVER,NJ  ,7801,MORRIS,DOVER TOWN
88 E MCFARLAN ST,DOVER,NJ  ,7801,MORRIS,DOVER TOWN
59 RT 46 ,DOVER,NJ  ,7801,MORRIS,DOVER TOWN
572 RT 46,FAIRFIELD TWP,NJ  ,7006,ESSEX,FAIRFIELD TWP
67 RT 23,WAYNE TWP,NJ  ,7470,PASSAIC,WAYNE TWP
20 RT 23 ,WAYNE TWP,NJ  ,7470,PASSAIC,WAYNE TWP
170 S DEAN ST,ENGLEWOOD,NJ  ,7631,BERGEN,ENGLEWOOD CITY
63 RT 23,WAYNE,NJ  ,7470,PASSAIC,WAYNE TWP
460 MAIN ST,LODI,NJ  ,7644,BERGEN,LODI BORO
296 SICOMAC AVE,WYCKOFF,NJ  ,7481,BERGEN,WYCKOFF TWP
2264 PATERSON HAMBURG TPKE,WAYNE,NJ  ,7470,PASSAIC,WAYNE TWP
102 GODWIN AVE,MIDLAND PARK,NJ  ,7432,BERGEN,MIDLAND PARK BORO
119 GODWIN AVE,MIDLAND PARK,NJ  ,7432,BERGEN,MIDLAND PARK BORO
2301 2333 PATERSON HAMBURG TPKE,WAYNE TWP,NJ  ,7470,PASSAIC,WAYNE TWP
218 220 CHESTNUT ST,RIDGEWOOD,NJ  ,7450,BERGEN,RIDGEWOOD VILLAGE
290 PASCACK RD,WASHINGTON TWP,NJ  ,7675,BERGEN,WASHINGTON TWP
128 MAIN ST,ANDOVER BORO,NJ  ,7821,SUSSEX,ANDOVER BORO
138 GODWIN AVE,MIDLAND PARK,NJ  ,7463,BERGEN,MIDLAND PARK BORO
105 RT 23,RIVERDALE,NJ  ,7457,MORRIS,RIVERDALE BORO
100 RT 23,RIVERDALE,NJ  ,7457,MORRIS,RIVERDALE BORO
657 RT 17,RIDGEWOOD,NJ  ,7450,BERGEN,RIDGEWOOD VILLAGE
1155 RT 23,KINNELON,NJ  ,7405,MORRIS,KINNELON BORO
490 RT 17,RIDGEWOOD,NJ  ,7450,BERGEN,RIDGEWOOD VILLAGE
210 KINDERKAMACK RD,WESTWOOD,NJ  ,7679,BERGEN,WESTWOOD BORO
1285 RT 23,BUTLER,NJ  ,7405,MORRIS,BUTLER BORO
19 SLEEPY HOLLOW RD ,KINNELON,NJ  ,7405,MORRIS,KINNELON BORO
1284 RT 23,BUTLER,NJ  ,7405,MORRIS,BUTLER BORO
777 PATERSON HAMBURG TPKE,POMPTON LAKES,NJ  ,7442,PASSAIC,POMPTON LAKES BORO
736 PATERSON HAMBURG TPKE,POMPTON LAKES,NJ  ,7442,PASSAIC,POMPTON LAKES BORO
47 IRVINGTON ST,WESTWOOD,NJ  ,7675,BERGEN,WESTWOOD BORO
1369 RT 23,BUTLER,NJ  ,7405,MORRIS,BUTLER BORO
419 CEDAR LN,TEANECK,NJ  ,7666,BERGEN,TEANECK TWP
1551 RT 46,LEDGEWOOD,NJ  ,7852,MORRIS,ROXBURY TWP
190 RT 46,DENVILLE,NJ  ,7834,MORRIS,DENVILLE TWP
1665 MAIN AVE,CLIFTON,NJ  ,7011,PASSAIC,CLIFTON CITY
603 GETTY AVE,CLIFTON,NJ  ,7011,PASSAIC,CLIFTON CITY
350 RIVER ST,HACKENSACK,NJ  ,7601,BERGEN,HACKENSACK CITY
490 MAIN ST,LODI,NJ  ,7644,BERGEN,LODI BORO
1284 MCBRIDE AVE,WEST PATERSON,NJ  ,7424,PASSAIC,WOODLAND PARK BORO
332 RAILROAD AVE,HACKENSACK,NJ  ,7601,BERGEN,HACKENSACK CITY
35 RT 46,BUDD LAKE,NJ  ,7828,MORRIS,MOUNT OLIVE TWP
650 RT 46,FAIRFIELD BORO,NJ  ,7004,ESSEX,FAIRFIELD TWP
300 RT 46,ROCKAWAY,NJ  ,7866,MORRIS,ROCKAWAY BORO
197 RT 46,ROCKAWAY,NJ  ,7866,MORRIS,ROCKAWAY BORO
42 W MAIN ST,DENVILLE,NJ  ,7834,MORRIS,DENVILLE TWP
389 CROOKS AVE,CLIFTON,NJ  ,7011,PASSAIC,CLIFTON CITY
374 RIFLE CAMP RD,WEST PATERSON,NJ  ,7424,PASSAIC,WOODLAND PARK BORO
754 SYLVAN AVE,ENGLEWOOD CLIFFS,NJ  ,7632,BERGEN,ENGLEWOOD CLIFFS BORO
908 RIVER DR,ELMWOOD PARK,NJ  ,7407,BERGEN,ELMWOOD PARK BORO
110 PARSIPPANY BLVD,PARSIPPANY,NJ  ,7005,MORRIS,PARSIPPANY-TROY HILLS
85 RT 46,CLIFTON,NJ  ,7011,PASSAIC,CLIFTON CITY
217 S MAIN ST,WHARTON,NJ  ,7885,MORRIS,WHARTON BORO
204 RT 206,ANDOVER BORO,NJ  ,7821,SUSSEX,ANDOVER BORO
615 WASHINGTON AVE,WASHINGTON TWP,NJ  ,7675,BERGEN,WASHINGTON TWP
575 BROADWAY,NORWOOD,NJ  ,7648,BERGEN,NORWOOD BORO
700 WASHINGTON AVE,WASHINGTON TWP,NJ  ,7675,BERGEN,WASHINGTON TWP
73 75 PATERSON HAMBURG TPKE,RIVERDALE,NJ  ,7547,MORRIS,RIVERDALE BORO
39 PATERSON HAMBURG TPKE,RIVERDALE,NJ  ,7457,MORRIS,RIVERDALE BORO
20 FRANKLIN TPKE,HOHOKUS,NJ  ,7423,BERGEN,HO-HO-KUS BORO
595 GODWIN AVE,MIDLAND PARK,NJ  ,7432,BERGEN,MIDLAND PARK BORO
739 BROADWAY,WESTWOOD,NJ  ,7675,BERGEN,WESTWOOD BORO
1461 RT 23,BUTLER,NJ  ,7405,MORRIS,BUTLER BORO
KINNELON RD,KINNELON,NJ  ,7405,MORRIS,KINNELON BORO
550 LIVINGSTON ST,NORWOOD,NJ  ,7648,BERGEN,NORWOOD BORO
5 10 MAIN ST,BLOOMINGDALE BORO,NJ  ,7403,PASSAIC,BLOOMINGDALE BORO
60 BROADWAY,HILLSDALE,NJ  ,7642,BERGEN,HILLSDALE BORO
50 MAIN ST,BLOOMINGDALE,NJ  ,7403,PASSAIC,BLOOMINGDALE BORO
289 WANAQUE AVE,POMPTON LAKES,NJ  ,7442,PASSAIC,POMPTON LAKES BORO
109 MAIN ST,BLOOMINGDALE,NJ  ,7403,PASSAIC,BLOOMINGDALE BORO
145 BROADWAY,HILLSDALE,NJ  ,7642,BERGEN,HILLSDALE BORO
31 PIERMONT RD,ROCKLEIGH,NJ  ,7647,BERGEN,ROCKLEIGH BORO
3 ORANGEBURG RD,OLD TAPPAN,NJ  ,7675,BERGEN,OLD TAPPAN BORO
312 314 RINGWOOD AVE,POMPTON LAKES,NJ  ,7442,PASSAIC,POMPTON LAKES BORO
277 RT 46,ROCKAWAY,NJ  ,7866,MORRIS,ROCKAWAY BORO
1138 KNOLL RD,PARSIPPANY,NJ  ,7054,MORRIS,PARSIPPANY-TROY HILLS
315 WILLOWBROOK MALL,WAYNE,NJ  ,7470,PASSAIC,WAYNE TWP
724 CEDAR LN,TEANECK,NJ  ,7666,BERGEN,TEANECK TWP
738 CEDAR LN,TEANECK,NJ  ,7666,BERGEN,TEANECK TWP
498 LAKEVIEW AVE,CLIFTON,NJ  ,7011,PASSAIC,CLIFTON CITY
18 RT 46,BUDD LAKE,NJ  ,7828,MORRIS,MOUNT OLIVE TWP
1470 RT 46,ROXBURY TWP,NJ  ,7852,MORRIS,ROXBURY TWP
150 ESSEX ST,LODI,NJ  ,7644,BERGEN,LODI BORO
735 CEDAR LN,TEANECK,NJ  ,7666,BERGEN,TEANECK TWP
46 PARSIPPANY BLVD,PARSIPPANY,NJ  ,7005,MORRIS,PARSIPPANY-TROY HILLS
1035 MAIN AVE,PATERSON,NJ  ,7503,PASSAIC,PATERSON CITY
30 W MAIN ST,DENVILLE,NJ  ,7834,MORRIS,DENVILLE TWP
71 RT 46,DELAWARE,NJ  ,7833,WARREN,KNOWLTON TWP
941 MCBRIDE AVE,WOODLAND PARK,NJ  ,7424,PASSAIC,WOODLAND PARK BORO
110 ESSEX ST,LODI,NJ  ,7644,BERGEN,LODI BORO
80 ESSEX ST,LODI,NJ  ,7644,BERGEN,LODI BORO
88 RT 46,ELMWOOD PARK,NJ  ,7407,BERGEN,ELMWOOD PARK BORO
90 RT 183 ,ROXBURY TWP,NJ  ,7857,MORRIS,ROXBURY TWP
409 RT 46,ELMWOOD PARK,NJ  ,7407,BERGEN,ELMWOOD PARK BORO
315 317 PENNSYLVANIA AVE,PATERSON,NJ  ,7503,PASSAIC,PATERSON CITY
239 RT 17,MAYWOOD,NJ  ,7607,BERGEN,MAYWOOD BORO
406 TAPPAN RD,NORTHVALE,NJ  ,7647,BERGEN,NORTHVALE BORO
11 CRESCENT AVE,WALDWICK,NJ  ,7463,BERGEN,WALDWICK BORO
1639 RT 23,BUTLER,NJ  ,7450,MORRIS,BUTLER BORO
322 FRANKLIN AVE,WYCKOFF,NJ  ,7481,BERGEN,WYCKOFF TWP
318 BROADWAY,HILLSDALE,NJ  ,7642,BERGEN,HILLSDALE BORO
276 GODWIN AVE,WYCKOFF,NJ  ,7481,BERGEN,WYCKOFF TWP
49 FRANKLIN TPKE,WALDWICK,NJ  ,7463,BERGEN,WALDWICK BORO
188 UNION AVE,BLOOMINGDALE,NJ  ,7403,PASSAIC,BLOOMINGDALE BORO
333 KINDERKAMACK RD,HILLSDALE,NJ  ,7642,BERGEN,HILLSDALE BORO
671 WYCKOFF AVE,WYCKOFF,NJ  ,7481,BERGEN,WYCKOFF TWP
246 250 LIVINGSTON ST,NORTHVALE,NJ  ,7647,BERGEN,NORTHVALE BORO
475 W MAIN ST,WYCKOFF,NJ  ,7481,BERGEN,WYCKOFF TWP
1850 RT 23,WEST MILFORD,NJ  ,7789,PASSAIC,WEST MILFORD TWP
258 LIVINGSTON ST,NORTHVALE,NJ  ,7467,BERGEN,NORTHVALE BORO
278 LIVINGSTON ST,NORTHVALE,NJ  ,7647,BERGEN,NORTHVALE BORO
264 LIVINGSTON ST,NORTHVALE,NJ  ,7647,BERGEN,NORTHVALE BORO
167 OLD TAPPAN RD,OLD TAPPAN,NJ  ,7675,BERGEN,OLD TAPPAN BORO
2048 RT 23,WEST MILFORD,NJ  ,7480,PASSAIC,WEST MILFORD TWP
735 FRANKLIN AVE,FRANKLIN LAKES,NJ  ,7417,BERGEN,FRANKLIN LAKES BORO
1033 WELDON RD,JEFFERSON TWP,NJ  ,7849,MORRIS,JEFFERSON TWP
260 RAMAPO VALLEY RD,OAKLAND,NJ  ,7436,BERGEN,OAKLAND BORO
5569 BERKSHIRE VALLEY RD,JEFFERSON TWP,NJ  ,7885,MORRIS,JEFFERSON TWP
227 RT 46 ,ELMWOOD PARK,NJ  ,7631,BERGEN,ELMWOOD PARK BORO
60 ESSEX ST,LODI,NJ  ,7644,BERGEN,LODI BORO
280 W CLINTON ST,DOVER,NJ  ,7801,MORRIS,DOVER TOWN
88 ESSEX ST,ROCHELLE PARK,NJ  ,8000,BERGEN,ROCHELLE PARK TWP
570 RT 46,WAYNE,NJ  ,7470,PASSAIC,WAYNE TWP
205 PASSAIC ST,HACKENSACK,NJ  ,7601,BERGEN,HACKENSACK CITY
1188 TEANECK RD,TEANECK,NJ  ,7666,BERGEN,TEANECK TWP
RT 46 E & LEGION PL,DENVILLE,NJ  ,7834,MORRIS,DENVILLE TWP
211 N SUSSEX ST,DOVER,NJ  ,8753,MORRIS,DOVER TOWN
660 MAIN ST,LODI,NJ  ,7644,BERGEN,LODI BORO
93 VALLEY RD,CLIFTON,NJ  ,7011,PASSAIC,CLIFTON CITY
143 145 MAIN ST,DENVILLE,NJ  ,7834,MORRIS,DENVILLE TWP
262 W MAIN ST,ROCKAWAY,NJ  ,7866,MORRIS,ROCKAWAY BORO
230 MARKET ST,SADDLE BROOK TWP,NJ  ,7662,BERGEN,SADDLE BROOK TWP
160 E RAILWAY AVE,PATERSON,NJ  ,7503,PASSAIC,PATERSON CITY
295 PASSAIC ST,HACKENSACK,NJ  ,7601,BERGEN,HACKENSACK CITY
10 RT 46,NETCONG,NJ  ,7857,MORRIS,NETCONG BORO
1261 TEANECK RD,TEANECK,NJ  ,7666,BERGEN,TEANECK TWP
270 RT 46 ,DENVILLE,NJ  ,7834,MORRIS,DENVILLE TWP
9 BENNETT RD,ENGLEWOOD,NJ  ,7631,BERGEN,ENGLEWOOD CITY
178 RIFLE CAMP RD,WEST PATERSON,NJ  ,7424,PASSAIC,WOODLAND PARK BORO
395 MARKET ST,SADDLE BROOK TWP,NJ  ,7662,BERGEN,SADDLE BROOK TWP
791 FRANKLIN AVE,FRANKLIN LAKES,NJ  ,7417,BERGEN,FRANKLIN LAKES BORO
1255 RINGWOOD AVE,HASKELL,NJ  ,7420,PASSAIC,WANAQUE BORO
211 WOODPORT RD,SPARTA,NJ  ,7871,SUSSEX,SPARTA TWP
1ST AVE,HASKELL,NJ  ,7420,PASSAIC,WANAQUE BORO
357 RAMAPO VALLEY RD,OAKLAND,NJ  ,7436,BERGEN,OAKLAND BORO
941 FRANKLIN AVE,FRANKLIN LAKES,NJ  ,7417,BERGEN,FRANKLIN LAKES BORO
75 MOLLIE CT,MAHWAH TWP,NJ  ,7430,BERGEN,MAHWAH TWP
4 COURT HOUSE PLAZA,OAKLAND,NJ  ,7436,BERGEN,OAKLAND BORO
1040 RINGWOOD AVE,WANAQUE,NJ  ,7420,PASSAIC,WANAQUE BORO
11 W ALLENDALE AVE,ALLENDALE,NJ  ,7401,BERGEN,ALLENDALE BORO
63 WOODPORT RD,SPARTA,NJ  ,7871,SUSSEX,SPARTA TWP
41 MYRTLE AVE,ALLENDALE,NJ  ,7401,BERGEN,ALLENDALE BORO
61 63 PASCACK AVE,PARK RIDGE,NJ  ,7656,BERGEN,PARK RIDGE BORO
19 W SHORE TRAIL,SPARTA,NJ  ,7871,SUSSEX,SPARTA TWP
122 KINDERKAMACK RD,PARK RIDGE,NJ  ,7656,BERGEN,PARK RIDGE BORO
312 SPARTA AVE,SPARTA,NJ  ,7871,SUSSEX,SPARTA TWP
156 KINDERKAMACK RD,PARK RIDGE,NJ  ,7656,BERGEN,PARK RIDGE BORO
161 KINDERKAMACK RD,PARK RIDGE,NJ  ,7656,BERGEN,PARK RIDGE BORO
5725 5727 BERKSHIRE VALLEY RD,MILTON,NJ  ,7438,MORRIS,JEFFERSON TWP
592 RAMAPO VALLEY RD,OAKLAND,NJ  ,7436,BERGEN,OAKLAND BORO
239 NEWTON SPARTA RD,ANDOVER TWP,NJ  ,7848,SUSSEX,ANDOVER TWP
30 S KINDERKAMACK RD,MONTVALE,NJ  ,7645,BERGEN,MONTVALE BORO
300 MINNISINK RD,TOTOWA BORO,NJ  ,7512,PASSAIC,TOTOWA BORO
9 11 DEMAREST AVE,ENGLEWOOD,NJ  ,7631,BERGEN,ENGLEWOOD CITY
55 RT 46,KNOWLTON,NJ  ,7833,WARREN,KNOWLTON TWP
609 MARKET ST,ELMWOOD PARK,NJ  ,7407,BERGEN,ELMWOOD PARK BORO
825 RIVERVIEW DR,TOTOWA BORO,NJ  ,7512,PASSAIC,TOTOWA BORO
90 HACKENSACK AVE,HACKENSACK,NJ  ,7601,BERGEN,HACKENSACK CITY
54 RT 46,DELAWARE,NJ  ,7833,WARREN,KNOWLTON TWP
600 UNION BLVD,TOTOWA BORO,NJ  ,7512,PASSAIC,TOTOWA BORO
10 HOWARD BLVD,MOUNT ARLINGTON,NJ  ,7856,MORRIS,MOUNT ARLINGTON BORO
828 MAIN ST,PATERSON,NJ  ,8057,PASSAIC,PATERSON CITY
348 MARKET ST,ELMWOOD PARK,NJ  ,7407,BERGEN,ELMWOOD PARK BORO
1 W MAIN ST,ROCKAWAY TWP,NJ  ,7866,MORRIS,ROCKAWAY TWP
52 N MAIN ST,WHARTON,NJ  ,7885,MORRIS,WHARTON BORO
223 WASHINGTON ST,BOONTON,NJ  ,7005,MORRIS,BOONTON TOWN
703 705 MCBRIDE AVE,WEST PATERSON,NJ  ,7424,PASSAIC,WOODLAND PARK BORO
67 N MAIN ST,WHARTON,NJ  ,7885,MORRIS,WHARTON BORO
215 MARKET ST,ELMWOOD PARK,NJ  ,7407,BERGEN,ELMWOOD PARK BORO
1365 QUEEN ANNE RD,TEANECK,NJ  ,7666,BERGEN,TEANECK TWP
1451 TEANECK RD,TEANECK,NJ  ,7666,BERGEN,TEANECK TWP
1456 TEANECK RD,TEANECK,NJ  ,7666,BERGEN,TEANECK TWP
185 SQUIRRELWOOD RD,WEST PATERSON,NJ  ,7424,PASSAIC,WOODLAND PARK BORO
85 SPARTA AVE,SPARTA,NJ  ,7871,SUSSEX,SPARTA TWP
375 CHESTNUT RIDGE RD,WOODCLIFF LAKE BORO,NJ  ,7675,BERGEN,WOODCLIFF LAKE BORO
1 PARK ST,MONTVALE,NJ  ,7645,BERGEN,MONTVALE BORO
2 PEARL CT,ALLENDALE,NJ  ,7401,BERGEN,ALLENDALE BORO
12 RAILROAD AVE,MONTVALE,NJ  ,7645,BERGEN,MONTVALE BORO
36 RT 17 N,RAMSEY,NJ  ,7446,BERGEN,RAMSEY BORO
741 RINGWOOD AVE,WANAQUE,NJ  ,7465,PASSAIC,WANAQUE BORO
75 RT 17,RAMSEY,NJ  ,7446,BERGEN,RAMSEY BORO
672 RINGWOOD AVE,WANAQUE,NJ  ,7465,PASSAIC,WANAQUE BORO
106 WOODSIDE AVE,NEWTON,NJ  ,7860,SUSSEX,NEWTON TOWN
142 RT 17,UPPER SADDLE RIVER,NJ  ,7458,BERGEN,UPPER SADDLE RIVER BORO
GARDEN STATE PKWY MM 170.3,MONTVALE,NJ  ,7645,BERGEN,MONTVALE BORO
362 RT 94,FREDON TWP,NJ  ,7860,SUSSEX,FREDON TWP
2731 RT 23,WEST MILFORD TWP,NJ  ,7480,PASSAIC,WEST MILFORD TWP
28 30 CHESTNUT RIDGE RD,MONTVALE,NJ  ,7645,BERGEN,MONTVALE BORO
98 KINDERKAMACK RD,MONTVALE,NJ  ,7645,BERGEN,MONTVALE BORO
2771 RT 23,JEFFERSON TWP,NJ  ,7435,MORRIS,JEFFERSON TWP
254 RT 17,UPPER SADDLE RIVER,NJ  ,7458,BERGEN,UPPER SADDLE RIVER BORO
281 RT 17 ,UPPER SADDLE RIVER,NJ  ,7458,BERGEN,UPPER SADDLE RIVER BORO
40 SPARTA AVE,NEWTON,NJ  ,7860,SUSSEX,NEWTON TOWN
2897 RT 23,WEST MILFORD TWP,NJ  ,8848,PASSAIC,WEST MILFORD TWP
146 LANDING RD ,ROXBURY TWP,NJ  ,7850,MORRIS,ROXBURY TWP
11 RT 183,STANHOPE,NJ  ,7874,SUSSEX,STANHOPE BORO
401 UNION BLVD,TOTOWA BORO,NJ  ,7512,PASSAIC,TOTOWA BORO
5 MT PLEASANT AVE,ROCKAWAY TWP,NJ  ,7866,MORRIS,ROCKAWAY TWP
2 E PASSAIC ST,MAYWOOD,NJ  ,7607,BERGEN,MAYWOOD BORO
5 LOTZ LN,ROCHELLE PARK,NJ  ,7662,BERGEN,ROCHELLE PARK TWP
1151 RT 517,ALLAMUCHY TWP,NJ  ,7840,WARREN,ALLAMUCHY TWP
24 RT 183,STANHOPE,NJ  ,7874,SUSSEX,STANHOPE BORO
1510 TEANECK RD,TEANECK,NJ  ,7666,BERGEN,TEANECK TWP
120 124 LANDING RD,LANDING,NJ  ,7850,MORRIS,ROXBURY TWP
27 RT 4,HACKENSACK,NJ  ,7601,BERGEN,HACKENSACK CITY
20 RT 4,HACKENSACK,NJ  ,7601,BERGEN,HACKENSACK CITY
834 MARKET ST,PATERSON,NJ  ,7513,PASSAIC,PATERSON CITY
104 W PASSAIC ST,MAYWOOD,NJ  ,7607,BERGEN,MAYWOOD BORO
178 RT 17,ROCHELLE PARK,NJ  ,7662,BERGEN,ROCHELLE PARK TWP
320 MOLNAR DR,ELMWOOD PARK,NJ  ,7407,BERGEN,ELMWOOD PARK BORO
289 UNION BLVD,TOTOWA BORO,NJ  ,7512,PASSAIC,TOTOWA BORO
594 MAIN ST,PATERSON,NJ  ,7510,PASSAIC,PATERSON CITY
911 MAIN ST,BOONTON,NJ  ,7005,MORRIS,BOONTON TOWN
780 MARKET ST,PATERSON,NJ  ,7501,PASSAIC,PATERSON CITY
770 20TH AVE,PATERSON,NJ  ,7504,PASSAIC,PATERSON CITY
360 RT 17,UPPER SADDLE RIVER,NJ  ,7458,BERGEN,UPPER SADDLE RIVER BORO
2899 RT 23,WEST MILFORD TWP,NJ  ,7435,PASSAIC,WEST MILFORD TWP
456 RT 17,RAMSEY,NJ  ,7446,BERGEN,RAMSEY BORO
3021 3023 RT 23,WEST MILFORD TWP,NJ  ,7480,PASSAIC,WEST MILFORD TWP
104 W MAIN ST,RAMSEY,NJ  ,7446,BERGEN,RAMSEY BORO
67 E MAIN ST,RAMSEY,NJ  ,7446,BERGEN,RAMSEY BORO
124 128 CHESTNUT RIDGE RD,MONTVALE,NJ  ,7645,BERGEN,MONTVALE BORO
359 E SADDLE RIVER RD,UPPER SADDLE RIVER,NJ  ,7458,BERGEN,UPPER SADDLE RIVER BORO
142 CHESTNUT RIDGE RD,MONTVALE,NJ  ,7645,BERGEN,MONTVALE BORO
105 SPRING VALLEY RD,MONTVALE,NJ  ,7654,BERGEN,MONTVALE BORO
59 63 WATER ST,NEWTON,NJ  ,7860,SUSSEX,NEWTON TOWN
376 W SADDLE RIVER RD,UPPER SADDLE RIVER,NJ  ,7458,BERGEN,UPPER SADDLE RIVER BORO
89 95 WATER ST,NEWTON,NJ  ,7860,SUSSEX,NEWTON TOWN
126 FRANKLIN TPKE N,RAMSEY,NJ  ,7446,BERGEN,RAMSEY BORO
842 RT 17,RAMSEY,NJ  ,7446,BERGEN,RAMSEY BORO
86 MILL ST,NEWTON,NJ  ,7860,SUSSEX,NEWTON TOWN
1 HAMPTON HOUSE RD,HAMPTON TWP,NJ  ,7860,SUSSEX,HAMPTON TWP
260 FRANKLIN TPKE N,RAMSEY,NJ  ,7446,BERGEN,RAMSEY BORO
1065 RT 17,RAMSEY,NJ  ,7446,BERGEN,RAMSEY BORO
30 RINGWOOD AVE,RINGWOOD,NJ  ,7456,PASSAIC,RINGWOOD BORO
1275 RT 17 S,RAMSEY,NJ  ,7446,BERGEN,RAMSEY BORO
186 MAIN ST,OGDENSBURG,NJ  ,7439,SUSSEX,OGDENSBURG BORO
469 RIVER DR,ELMWOOD PARK,NJ  ,7407,BERGEN,ELMWOOD PARK BORO
141 JOHNSON AVE,HACKENSACK,NJ  ,7601,BERGEN,HACKENSACK CITY
503 21ST AVE,PATERSON,NJ  ,7503,PASSAIC,PATERSON CITY
51 HIBERNIA AVE,ROCKAWAY,NJ  ,7866,MORRIS,ROCKAWAY BORO
411 W MAIN ST,BOONTON,NJ  ,7005,MORRIS,BOONTON TOWN
303 WATERLOO VALLEY RD,MOUNT OLIVE,NJ  ,7828,MORRIS,MOUNT OLIVE TWP
315 RT 15,WHARTON,NJ  ,7885,MORRIS,WHARTON BORO
115 W MAIN ST,BOONTON,NJ  ,7005,MORRIS,BOONTON TOWN
17 DEMAREST DR,WAYNE,NJ  ,7470,PASSAIC,WAYNE TWP
556 MYRTLE AVE,BOONTON,NJ  ,7005,MORRIS,BOONTON TOWN
195 21ST AVE,PATERSON,NJ  ,7506,PASSAIC,PATERSON CITY
160 UNION BLVD,TOTOWA BORO,NJ  ,7512,PASSAIC,TOTOWA BORO
241 21ST AVE,PATERSON,NJ  ,7501,PASSAIC,PATERSON CITY
16 PEHLE AVE,SADDLE BROOK TWP,NJ  ,7663,BERGEN,SADDLE BROOK TWP
340 N MAIN ST,WHARTON,NJ  ,7885,MORRIS,WHARTON BORO
651 MYRTLE AVE,BOONTON,NJ  ,7005,MORRIS,BOONTON TOWN
650 MARKET ST,PATERSON,NJ  ,7513,PASSAIC,PATERSON CITY
100 UNION BLVD,TOTOWA BORO,NJ  ,7512,PASSAIC,TOTOWA BORO
353 RIVER DR,ELMWOOD PARK,NJ  ,7407,BERGEN,ELMWOOD PARK BORO
8 14 GREEN POND RD,ROCKAWAY TWP,NJ  ,7052,MORRIS,ROCKAWAY TWP
177 LAKESIDE BLVD,LANDING,NJ  ,7850,MORRIS,ROXBURY TWP
51 HAMPTON HOUSE RD,HAMPTON TWP,NJ  ,7860,SUSSEX,HAMPTON TWP
46 HIGHLAND DR,WEST MILFORD,NJ  ,7480,PASSAIC,WEST MILFORD TWP
236 SKYLINE DR,RINGWOOD,NJ  ,7456,PASSAIC,RINGWOOD BORO
99 MAIN ST,OGDENSBURG,NJ  ,7439,SUSSEX,OGDENSBURG BORO
389 RT 17,MAHWAH TWP,NJ  ,7430,BERGEN,MAHWAH TWP
1205 WESTBROOK RD,WEST MILFORD,NJ  ,7480,PASSAIC,WEST MILFORD TWP
99 SKYLINE DR,RINGWOOD,NJ  ,7456,PASSAIC,RINGWOOD BORO
35 RT 15 ,LAFAYETTE TWP,NJ  ,7848,SUSSEX,LAFAYETTE TWP
36 RT 15,LAFAYETTE,NJ  ,7848,SUSSEX,LAFAYETTE TWP
2770 RT 23,STOCKHOLM,NJ  ,7460,SUSSEX,HARDYSTON TWP
102 RT 17,MAHWAH TWP,NJ  ,7430,BERGEN,MAHWAH TWP
261 RT 17,MAHWAH TWP,NJ  ,7430,BERGEN,MAHWAH TWP
230 RT 17,MAHWAH TWP,NJ  ,7430,BERGEN,MAHWAH TWP
91 HAMPTON HOUSE RD,HAMPTON TWP,NJ  ,7860,SUSSEX,HAMPTON TWP
200 FRANKLIN TPKE,MAHWAH TWP,NJ  ,7430,BERGEN,MAHWAH TWP
197 FRANKLIN TPKE,MAHWAH TWP,NJ  ,7430,BERGEN,MAHWAH TWP
198 RT 17,MAHWAH TWP,NJ  ,7430,BERGEN,MAHWAH TWP
193 197 RT 17,MAHWAH TWP,NJ  ,7747,BERGEN,MAHWAH TWP
147 FRANKLIN TPKE,MAHWAH TWP,NJ  ,7430,BERGEN,MAHWAH TWP
142 RT 17,MAHWAH TWP,NJ  ,7430,BERGEN,MAHWAH TWP
100 132 FRANKLIN TPKE,MAHWAH TWP,NJ  ,7430,BERGEN,MAHWAH TWP
131 RT 17,MAHWAH TWP,NJ  ,7430,BERGEN,MAHWAH TWP
62 FRANKLIN TPKE,MAHWAH TWP,NJ  ,7747,BERGEN,MAHWAH TWP
16 W PASSAIC ST,ROCHELLE PARK,NJ  ,7662,BERGEN,ROCHELLE PARK TWP
339 MCBRIDE AVE,PATERSON,NJ  ,7501,PASSAIC,PATERSON CITY
1 GREEN POND RD,ROCKAWAY TWP,NJ  ,7866,MORRIS,ROCKAWAY TWP
253 MCBRIDE AVE,PATERSON,NJ  ,7501,PASSAIC,PATERSON CITY
19 E IVY LN,ENGLEWOOD,NJ  ,7631,BERGEN,ENGLEWOOD CITY
308 GRAND ST,PATERSON,NJ  ,7501,PASSAIC,PATERSON CITY
195 MCBRIDE AVE,PATERSON,NJ  ,7501,PASSAIC,PATERSON CITY
137 RT 17,PARAMUS,NJ  ,7652,BERGEN,PARAMUS BORO
10 18TH AVE,PATERSON,NJ  ,7524,PASSAIC,PATERSON CITY
SPRUCE ST & OLIVER ST,PATERSON,NJ  ,7501,PASSAIC,PATERSON CITY
60 RIVERVIEW DR,WAYNE TWP,NJ  ,7470,PASSAIC,WAYNE TWP
61 67 SPRUCE ST,PATERSON,NJ  ,7501,PASSAIC,PATERSON CITY
344 RT 4,PARAMUS,NJ  ,7652,BERGEN,PARAMUS BORO
401 RT 15 ,ROCKAWAY TWP,NJ  ,7801,MORRIS,ROCKAWAY TWP
44 GREENWOOD AVE,WAYNE,NJ  ,7470,PASSAIC,WAYNE TWP
525 HACKENSACK AVE,RIVER EDGE,NJ  ,7661,BERGEN,RIVER EDGE BORO
93 95 UNION AVE,PATERSON,NJ  ,7510,PASSAIC,PATERSON CITY
390 FLORAL LN,SADDLE BROOK TWP,NJ  ,7662,BERGEN,SADDLE BROOK TWP
420 S WASHINGTON AVE,BERGENFIELD,NJ  ,7621,BERGEN,BERGENFIELD BORO
423 HOPE BLAIRSTOWN RD,HOPE,NJ  ,7844,WARREN,HOPE TWP
310 PARK AVE,PATERSON,NJ  ,7504,PASSAIC,PATERSON CITY
48 FRANKLIN TPKE,MAHWAH TWP,NJ  ,7430,BERGEN,MAHWAH TWP
180 RT 23,FRANKLIN,NJ  ,7416,SUSSEX,FRANKLIN BORO
91 FRANKLIN AVE,FRANKLIN,NJ  ,7416,SUSSEX,FRANKLIN BORO
17 19 CARLETONDALE RD,RINGWOOD,NJ  ,7456,PASSAIC,RINGWOOD BORO
272 RT 23,FRANKLIN,NJ  ,7416,SUSSEX,FRANKLIN BORO
77 RT 206,AUGUSTA,NJ  ,7822,SUSSEX,FRANKFORD TWP
3010 RT 23,HARDYSTON TWP,NJ  ,7416,SUSSEX,HARDYSTON TWP
425 RT 23,FRANKLIN,NJ  ,7416,SUSSEX,FRANKLIN BORO
1367 UNION VALLEY RD,WEST MILFORD,NJ  ,7480,PASSAIC,WEST MILFORD TWP
460 RT 23,FRANKLIN,NJ  ,7416,SUSSEX,FRANKLIN BORO
4 MARSHALL HILL RD,WEST MILFORD,NJ  ,7480,PASSAIC,WEST MILFORD TWP
148 MARGARET KING AVE,RINGWOOD,NJ  ,7000,PASSAIC,RINGWOOD BORO
1150 GREENWOOD LAKE TPKE,RINGWOOD,NJ  ,7456,PASSAIC,RINGWOOD BORO
3289 RT 94,HARDYSTON TWP,NJ  ,7416,SUSSEX,HARDYSTON TWP
30 MARHILL RD,WEST MILFORD,NJ  ,7789,PASSAIC,WEST MILFORD TWP
151 MARSHALL HILL RD,WEST MILFORD TWP,NJ  ,7480,PASSAIC,WEST MILFORD TWP
222 RT 23 ,HAMBURG,NJ  ,7419,SUSSEX,HAMBURG BORO
13 NEWTON AVE,BRANCHVILLE,NJ  ,7826,SUSSEX,BRANCHVILLE BORO
170 RT 23,HAMBURG,NJ  ,7419,SUSSEX,HAMBURG BORO
1891 GREENWOOD LAKE TPKE,HEWITT,NJ  ,7421,PASSAIC,WEST MILFORD TWP
348 RT 206,FRANKFORD TWP,NJ  ,7826,SUSSEX,FRANKFORD TWP
1 LAKESIDE RD,HEWITT,NJ  ,7421,PASSAIC,WEST MILFORD TWP
69 NEW BRIDGE RD,BERGENFIELD,NJ  ,7621,BERGEN,BERGENFIELD BORO
152 BROOKLYN RD,STANHOPE,NJ  ,7874,SUSSEX,STANHOPE BORO
246 MARKET ST,PATERSON,NJ  ,7505,PASSAIC,PATERSON CITY
253 RT 4,PARAMUS,NJ  ,7652,BERGEN,PARAMUS BORO
391 RT 202,MONTVILLE,NJ  ,7045,MORRIS,MONTVILLE TWP
203 UNION AVE,PATERSON,NJ  ,8057,PASSAIC,PATERSON CITY
1 117 LAKESIDE BLVD,LANDING,NJ  ,7101,MORRIS,ROXBURY TWP
1150 RIVER RD,NEW MILFORD,NJ  ,7646,BERGEN,NEW MILFORD BORO
351 S WASHINGTON AVE,BERGENFIELD,NJ  ,7621,BERGEN,BERGENFIELD BORO
9 FOREST AVE,PARAMUS,NJ  ,7652,BERGEN,PARAMUS BORO
362 TOTOWA AVE,PATERSON,NJ  ,7510,PASSAIC,PATERSON CITY
308 UNION AVE,PATERSON,NJ  ,7502,PASSAIC,PATERSON CITY
102 RT 4,PARAMUS,NJ  ,7652,BERGEN,PARAMUS BORO
473 BROADWAY,PATERSON,NJ  ,7509,PASSAIC,PATERSON CITY
265 279 BROADWAY,PATERSON,NJ  ,7514,PASSAIC,PATERSON CITY
39 53 BROADWAY,ELMWOOD PARK BORO,NJ  ,7407,BERGEN,ELMWOOD PARK BORO
210 RT 15,WHARTON BORO,NJ  ,7885,MORRIS,WHARTON BORO
25 RT 46,KNOWLTON TWP,NJ  ,7832,WARREN,KNOWLTON TWP
1 RT 206,BYRAM TWP,NJ  ,7874,SUSSEX,BYRAM TWP
1067 RT 23,WAYNE,NJ  ,7470,PASSAIC,WAYNE TWP
121 BROADWAY,ELMWOOD PARK,NJ  ,7407,BERGEN,ELMWOOD PARK BORO
1707 RT 517,ALLAMUCHY TWP,NJ  ,7820,WARREN,ALLAMUCHY TWP
6 RT 23 N,HAMBURG,NJ  ,7419,SUSSEX,HAMBURG BORO
1910 UNION VALLEY RD,HEWITT,NJ  ,7840,PASSAIC,WEST MILFORD TWP
555 WARWICK TPKE,HEWITT,NJ  ,7421,PASSAIC,WEST MILFORD TWP
325 341 LAKESIDE RD,HEWITT,NJ  ,7421,PASSAIC,WEST MILFORD TWP
RT 94 N & RT 517 S,VERNON TWP,NJ  ,7000,SUSSEX,VERNON TWP
21 RT 206,SANDYSTON,NJ  ,7851,SUSSEX,SANDYSTON TWP
81 RT 94,MCAFEE,NJ  ,7428,SUSSEX,VERNON TWP
138 RT 23 ,WANTAGE TWP,NJ  ,7461,SUSSEX,WANTAGE TWP
189 BREAKNECK RD,HIGHLAND LAKES,NJ  ,7422,SUSSEX,VERNON TWP
270 RT 23 ,WANTAGE TWP,NJ  ,7461,SUSSEX,WANTAGE TWP
285 RT 23 ,WANTAGE TWP,NJ  ,7461,SUSSEX,WANTAGE TWP
259 RT 94,VERNON,NJ  ,7889,SUSSEX,VERNON TWP
534 RT 515,MCAFEE,NJ  ,7428,SUSSEX,VERNON TWP
372 374 RT 94,VERNON,NJ  ,7462,SUSSEX,VERNON TWP
312 RT 94,VERNON,NJ  ,7462,SUSSEX,VERNON TWP
5 OMEGA DR,VERNON,NJ  ,7462,SUSSEX,VERNON TWP
577 RT 517,VERNON,NJ  ,7642,SUSSEX,VERNON TWP
1 MAIN ST,SUSSEX,NJ  ,7461,SUSSEX,SUSSEX BORO
721 RT 23,WANTAGE TWP,NJ  ,7461,SUSSEX,WANTAGE TWP
501 RT 206,SANDYSTON,NJ  ,7826,SUSSEX,SANDYSTON TWP
299 RT 206,SANDYSTON,NJ  ,7851,SUSSEX,SANDYSTON TWP
420 RT 206,MONTAGUE,NJ  ,7827,SUSSEX,MONTAGUE TWP
15 RT 23,MONTAGUE TWP,NJ  ,7827,SUSSEX,MONTAGUE TWP
275 COMLEY RD,LINCOLN PARK,NJ  ,7035,MORRIS,LINCOLN PARK BORO
302 BROADWAY,ELMWOOD PARK,NJ  ,7407,BERGEN,ELMWOOD PARK BORO
350 PREAKNESS AVE,PATERSON,NJ  ,7502,PASSAIC,PATERSON CITY
5 11 BOONTON TPKE,LINCOLN PARK,NJ  ,7035,MORRIS,LINCOLN PARK BORO
308 310 CHAMBERLAIN AVE,PATERSON,NJ  ,7000,PASSAIC,PATERSON CITY
53 LAKESIDE BLVD,HOPATCONG,NJ  ,7843,SUSSEX,HOPATCONG BORO
146 DEAN DR,TENAFLY,NJ  ,7670,BERGEN,TENAFLY BORO
182 MAIN ST,LINCOLN PARK,NJ  ,7035,MORRIS,LINCOLN PARK BORO
226 MAIN ST,LINCOLN PARK,NJ  ,7632,MORRIS,LINCOLN PARK BORO
50 E 32ND ST,PATERSON,NJ  ,7514,PASSAIC,PATERSON CITY
23 07 BROADWAY,FAIR LAWN,NJ  ,7410,BERGEN,FAIR LAWN BORO
770 MCLEAN BLVD,PATERSON,NJ  ,7510,PASSAIC,PATERSON CITY
2610 BROADWAY,FAIR LAWN,NJ  ,7410,BERGEN,FAIR LAWN BORO
57 69 E 30TH ST,PATERSON,NJ  ,7514,PASSAIC,PATERSON CITY
27 RT 206,BYRAM TWP,NJ  ,7821,SUSSEX,BYRAM TWP
153 RT 4,PARAMUS,NJ  ,7652,BERGEN,PARAMUS BORO
25 STRAIGHT ST,PATERSON,NJ  ,7501,PASSAIC,PATERSON CITY
20 COUNTY RD,TENAFLY,NJ  ,7670,BERGEN,TENAFLY BORO
1217 RT 23,WAYNE,NJ  ,7470,PASSAIC,WAYNE TWP
536 ALPS RD,WAYNE TWP,NJ  ,7470,PASSAIC,WAYNE TWP
343 TENAFLY RD,TENAFLY,NJ  ,7670,BERGEN,TENAFLY BORO
191 201 LAFAYETTE ST,PATERSON,NJ  ,7510,PASSAIC,PATERSON CITY
16 RT 23 ,MONTAGUE,NJ  ,7827,SUSSEX,MONTAGUE TWP
9 RT 23,MONTAGUE,NJ  ,7827,SUSSEX,MONTAGUE TWP
8 RT 23,MONTAGUE TWP,NJ  ,7827,SUSSEX,MONTAGUE TWP
6 RT 23,MONTAGUE,NJ  ,7827,SUSSEX,MONTAGUE TWP
99 RIVER DR,GARFIELD,NJ  ,7026,BERGEN,GARFIELD CITY
360 BROAD AVE,LEONIA,NJ  ,7605,BERGEN,LEONIA BORO
423 RT 17,HASBROUCK HEIGHTS,NJ  ,7604,BERGEN,HASBROUCK HEIGHTS BORO
568 PAULISON AVE,CLIFTON,NJ  ,7015,PASSAIC,CLIFTON CITY
6 RT 46,FAIRFIELD,NJ  ,7006,ESSEX,FAIRFIELD TWP
595 PAULISON AVE,CLIFTON,NJ  ,7011,PASSAIC,CLIFTON CITY
975 VAN HOUTEN AVE,CLIFTON,NJ  ,7013,PASSAIC,CLIFTON CITY
379 QUAKER CHURCH RD,RANDOLPH TWP,NJ  ,7869,MORRIS,RANDOLPH TWP
7 13 RT 46,FAIRFIELD,NJ  ,7006,ESSEX,FAIRFIELD TWP
2470 LEMOINE AVE,FORT LEE,NJ  ,7024,BERGEN,FORT LEE BORO
956 VAN HOUTEN AVE,CLIFTON,NJ  ,7013,PASSAIC,CLIFTON CITY
PALISADES PKWY S,ENGLEWOOD CLIFFS,NJ  ,7631,BERGEN,ENGLEWOOD CLIFFS BORO
321 BOULEVARD,HASBROUCK HEIGHTS,NJ  ,7604,BERGEN,HASBROUCK HEIGHTS BORO
431 BROAD AVE,LEONIA,NJ  ,7605,BERGEN,LEONIA BORO
900 CLIFTON AVE,CLIFTON,NJ  ,7013,PASSAIC,CLIFTON CITY
441 BROAD AVE,LEONIA,NJ  ,7605,BERGEN,LEONIA BORO
901 HIGH ST,HACKETTSTOWN,NJ  ,7860,WARREN,HACKETTSTOWN TOWN
2284 RT 4,FORT LEE,NJ  ,7024,BERGEN,FORT LEE BORO
139 145 LEXINGTON AVE,PASSAIC,NJ  ,7055,PASSAIC,PASSAIC CITY
2295 RT 4,FORT LEE,NJ  ,7024,BERGEN,FORT LEE BORO
51 QUEEN ANN RD,BOGOTA,NJ  ,7603,BERGEN,BOGOTA BORO
216 218 REDWOOD AVE,PATERSON,NJ  ,7522,PASSAIC,PATERSON CITY
1220 RT 23,WAYNE,NJ  ,7470,PASSAIC,WAYNE TWP
858 RT 202,TOWACO,NJ  ,7082,MORRIS,MONTVILLE TWP
4010 BROADWAY,FAIR LAWN,NJ  ,7410,BERGEN,FAIR LAWN BORO
263 E 29TH ST,PATERSON,NJ  ,7514,PASSAIC,PATERSON CITY
558 ALPS RD,WAYNE,NJ  ,7470,PASSAIC,WAYNE TWP
536 KINDERKAMACK RD,RIVER EDGE,NJ  ,7661,BERGEN,RIVER EDGE BORO
1 CARLOUGH DR,PARAMUS,NJ  ,7652,BERGEN,PARAMUS BORO
34 RIVEREDGE RD,TENAFLY,NJ  ,7675,BERGEN,TENAFLY BORO
100 RT 17,PARAMUS,NJ  ,7652,BERGEN,PARAMUS BORO
96 W MAIN ST,BERGENFIELD,NJ  ,7621,BERGEN,BERGENFIELD BORO
51 E MAIN ST,BERGENFIELD,NJ  ,7621,BERGEN,BERGENFIELD BORO
171 GREEN POND RD,ROCKAWAY TWP,NJ  ,7866,MORRIS,ROCKAWAY TWP
55 RT 15 ,JEFFERSON TWP,NJ  ,7885,MORRIS,JEFFERSON TWP
540 VALLEY RD,WAYNE,NJ  ,7470,PASSAIC,WAYNE TWP
60 N WASHINGTON AVE,BERGENFIELD,NJ  ,7650,BERGEN,BERGENFIELD BORO
530 W BROADWAY,HALEDON,NJ  ,7508,PASSAIC,HALEDON BORO
606 PLAZA RD,FAIR LAWN,NJ  ,7410,BERGEN,FAIR LAWN BORO
720 722 RIVER RD,NEW MILFORD,NJ  ,7646,BERGEN,NEW MILFORD BORO
201 HENLEY AVE,NEW MILFORD,NJ  ,7646,BERGEN,NEW MILFORD BORO
135 N WASHINGTON AVE,BERGENFIELD,NJ  ,7654,BERGEN,BERGENFIELD BORO
1431 RT 23,WAYNE,NJ  ,7470,PASSAIC,WAYNE TWP
502 TERRACE AVE,HASBROUCK HEIGHTS,NJ  ,7604,BERGEN,HASBROUCK HEIGHTS BORO
153 PASSAIC ST,GARFIELD,NJ  ,7026,BERGEN,GARFIELD CITY
90 RT 46,FAIRFIELD,NJ  ,7006,ESSEX,FAIRFIELD TWP
1933 RT 46,PARSIPPANY,NJ  ,7054,MORRIS,PARSIPPANY-TROY HILLS
35 SYLVAN AVE,ENGLEWOOD CLIFFS,NJ  ,7632,BERGEN,ENGLEWOOD CLIFFS BORO
75 RT 46,FAIRFIELD,NJ  ,7006,ESSEX,FAIRFIELD TWP
114 RT 206,FLANDERS,NJ  ,7836,MORRIS,MOUNT OLIVE TWP
158 CLIFTON AVE,CLIFTON,NJ  ,7013,PASSAIC,CLIFTON CITY
2336 2338 RT 4,FORT LEE,NJ  ,7024,BERGEN,FORT LEE BORO
1947 RT 46,PARSIPPANY,NJ  ,7054,MORRIS,PARSIPPANY-TROY HILLS
39 MONROE ST,PASSAIC,NJ  ,7055,PASSAIC,PASSAIC CITY
966 VALLEY RD,CLIFTON,NJ  ,7013,PASSAIC,CLIFTON CITY
PALISADES PKWY N,ENGLEWOOD CLIFFS,NJ  ,7632,BERGEN,ENGLEWOOD CLIFFS BORO
491 RT 4 W,ENGLEWOOD,NJ  ,7631,BERGEN,ENGLEWOOD CITY
45 E KENNEDY ST,HACKENSACK,NJ  ,7601,BERGEN,HACKENSACK CITY
484 RT 4,ENGLEWOOD,NJ  ,7631,BERGEN,ENGLEWOOD CITY
426 BOULEVARD,HASBROUCK HEIGHTS,NJ  ,7604,BERGEN,HASBROUCK HEIGHTS BORO
475 RT 4 W,ENGLEWOOD,NJ  ,7631,BERGEN,ENGLEWOOD CITY
318 HUYLER ST,SOUTH HACKENSACK,NJ  ,7606,BERGEN,SOUTH HACKENSACK TWP
1201 VAN HOUTEN AVE,CLIFTON,NJ  ,7013,PASSAIC,CLIFTON CITY
287 CHANGE BRIDGE RD,PINE BROOK,NJ  ,7045,MORRIS,MONTVILLE TWP
2 SIMPSON RD,COLUMBIA,NJ  ,7832,WARREN,KNOWLTON TWP
1440 RT 23,WAYNE,NJ  ,7470,PASSAIC,WAYNE TWP
38 HOPATCONG RD,HOPATCONG,NJ  ,7843,SUSSEX,HOPATCONG BORO
RT 208 & PLAZA RD,FAIR LAWN,NJ  ,7410,BERGEN,FAIR LAWN BORO
268 COUNTY RD,TENAFLY,NJ  ,7670,BERGEN,TENAFLY BORO
602 FAIR LAWN AVE,FAIR LAWN,NJ  ,7410,BERGEN,FAIR LAWN BORO
414 SILVER LAKE MARKSBORO RD,HOPE,NJ  ,7000,WARREN,HOPE TWP
198 N WASHINGTON AVE,BERGENFIELD,NJ  ,7621,BERGEN,BERGENFIELD BORO
306 HALEDON AVE,PROSPECT PARK,NJ  ,7508,PASSAIC,PROSPECT PARK BORO
218 N WASHINGTON AVE,BERGENFIELD,NJ  ,7621,BERGEN,BERGENFIELD BORO
351 HALEDON AVE,HALEDON,NJ  ,7508,PASSAIC,HALEDON BORO
292 FOREST AVE,PARAMUS,NJ  ,7652,BERGEN,PARAMUS BORO
2 WAGARAW RD ,HAWTHORNE,NJ  ,7506,PASSAIC,HAWTHORNE BORO
1 ALADDIN AVE,DUMONT,NJ  ,7628,BERGEN,DUMONT BORO
265 RT 15,JEFFERSON TWP,NJ  ,7885,MORRIS,JEFFERSON TWP
2220 FAIR LAWN AVE,FAIR LAWN,NJ  ,7410,BERGEN,FAIR LAWN BORO
20 11 FAIR LAWN AVE,FAIR LAWN,NJ  ,7410,BERGEN,FAIR LAWN BORO
478 HALEDON AVE,HALEDON,NJ  ,7508,PASSAIC,HALEDON BORO
81 1ST AVE,PATERSON,NJ  ,7524,PASSAIC,PATERSON CITY
381 RIVER RD,NEW MILFORD,NJ  ,7646,BERGEN,NEW MILFORD BORO
229 KNICKERBOCKER RD,CRESSKILL,NJ  ,7626,BERGEN,CRESSKILL BORO
256 RT 10,RANDOLPH TWP,NJ  ,7869,MORRIS,RANDOLPH TWP
3019 RT 46,PARSIPPANY,NJ  ,7054,MORRIS,PARSIPPANY-TROY HILLS
213 RT 46,BUDD LAKE,NJ  ,7828,MORRIS,MOUNT OLIVE TWP
3143 RT 10,DENVILLE,NJ  ,7834,MORRIS,DENVILLE TWP
228 TEANECK RD,TEANECK,NJ  ,7865,BERGEN,TEANECK TWP
253 RT 46,VIENNA,NJ  ,7880,WARREN,INDEPENDENCE TWP
125 PASSAIC AVE,FAIRFIELD,NJ  ,7006,ESSEX,FAIRFIELD TWP
3144 RT 10,DENVILLE,NJ  ,7834,MORRIS,DENVILLE TWP
72 S MAIN ST,LODI,NJ  ,7644,BERGEN,LODI BORO
1050 PIAGET AVE,CLIFTON,NJ  ,7013,PASSAIC,CLIFTON CITY
3339 RT 46,PARSIPPANY-TROY HILLS TWP,NJ  ,7054,MORRIS,PARSIPPANY-TROY HILLS
295 LEXINGTON AVE,PASSAIC,NJ  ,7055,PASSAIC,PASSAIC CITY
918 920 RT 517,INDEPENDENCE TWP,NJ  ,7838,WARREN,INDEPENDENCE TWP
355 RT 46 E ,LITTLE FALLS,NJ  ,7424,PASSAIC,LITTLE FALLS TWP
256 LEXINGTON AVE,PASSAIC,NJ  ,7000,PASSAIC,PASSAIC CITY
211 HUDSON ST,HACKENSACK,NJ  ,7601,BERGEN,HACKENSACK CITY
289 RT 10 ,SUCCASUNNA,NJ  ,7876,MORRIS,ROXBURY TWP
1045 MAIN AVE,CLIFTON,NJ  ,7011,PASSAIC,CLIFTON CITY
1061 1065 MAIN AVE,CLIFTON,NJ  ,7670,PASSAIC,CLIFTON CITY
610 CLIFTON AVE,CLIFTON,NJ  ,7011,PASSAIC,CLIFTON CITY
275 RT 46,INDEPENDENCE TWP,NJ  ,7838,WARREN,INDEPENDENCE TWP
234 E FORT LEE RD,BOGOTA,NJ  ,7603,BERGEN,BOGOTA BORO
97 LAFAYETTE AVE,HAWTHORNE,NJ  ,7506,PASSAIC,HAWTHORNE BORO
957 KINDERKAMACK RD,RIVER EDGE,NJ  ,7890,BERGEN,RIVER EDGE BORO
108 PIERMONT RD,CRESSKILL,NJ  ,7626,BERGEN,CRESSKILL BORO
401 WAGARAW RD,FAIR LAWN,NJ  ,7410,BERGEN,FAIR LAWN BORO
1803 MAPLE AVE,FAIR LAWN,NJ  ,7412,BERGEN,FAIR LAWN BORO
415 WAGARAW RD,HAWTHORNE,NJ  ,7506,PASSAIC,HAWTHORNE BORO
320 ESPANONG RD,JEFFERSON TWP,NJ  ,7849,MORRIS,JEFFERSON TWP
345 MIDLAND AVE,PARAMUS,NJ  ,7652,BERGEN,PARAMUS BORO
335 RT 17,PARAMUS,NJ  ,7652,BERGEN,PARAMUS BORO
SCHOOL RD,ROCKAWAY TWP,NJ  ,7866,MORRIS,ROCKAWAY TWP
41 NEWARK POMPTON TPKE,PEQUANNOCK,NJ  ,7440,MORRIS,PEQUANNOCK TWP
442 450 POMPTON RD,WAYNE TWP,NJ  ,7470,PASSAIC,WAYNE TWP
357 RT 17,PARAMUS,NJ  ,7654,BERGEN,PARAMUS BORO
361 RT 17,PARAMUS,NJ  ,7652,BERGEN,PARAMUS BORO
252 ESPANONG RD,JEFFERSON TWP,NJ  ,7885,MORRIS,JEFFERSON TWP
1016 CLOSTER DOCK RD,ALPINE BORO,NJ  ,7620,BERGEN,ALPINE BORO
242 NEWARK POMPTON TPKE,PEQUANNOCK,NJ  ,7440,MORRIS,PEQUANNOCK TWP
58 E MIDLAND AVE,PARAMUS,NJ  ,7652,BERGEN,PARAMUS BORO
169 MIDLAND AVE,PARAMUS,NJ  ,7652,BERGEN,PARAMUS BORO
1028 CLOSTER DOCK RD,ALPINE,NJ  ,7620,BERGEN,ALPINE BORO
325 PIERMONT RD,CRESSKILL,NJ  ,7626,BERGEN,CRESSKILL BORO
346 HIGH MOUNTAIN RD,NORTH HALEDON,NJ  ,7508,PASSAIC,NORTH HALEDON BORO
485 RT 46,LITTLE FALLS,NJ  ,7424,PASSAIC,LITTLE FALLS TWP
152 PASSAIC AVE,FAIRFIELD,NJ  ,7006,ESSEX,FAIRFIELD TWP
3503 RT 46,PARSIPPANY,NJ  ,7054,MORRIS,PARSIPPANY-TROY HILLS
3440 RT 46,PARSIPPANY,NJ  ,7054,MORRIS,PARSIPPANY-TROY HILLS
206 RT 46,LODI,NJ  ,7039,BERGEN,LODI BORO
258 S SALEM ST,RANDOLPH TWP,NJ  ,7869,MORRIS,RANDOLPH TWP
430 N BEVERWYCK RD,PARSIPPANY-TROY HILLS TWP,NJ  ,7054,MORRIS,PARSIPPANY-TROY HILLS
137 STATE ST,HACKENSACK,NJ  ,7601,BERGEN,HACKENSACK CITY
130 STATE ST,HACKENSACK,NJ  ,7601,BERGEN,HACKENSACK CITY
134 GREEN ST,HACKENSACK,NJ  ,7601,BERGEN,HACKENSACK CITY
284 SUMMIT AVE ,HACKENSACK,NJ  ,7601,BERGEN,HACKENSACK CITY
457 TEANECK RD,TEANECK,NJ  ,7666,BERGEN,TEANECK TWP
468 TEANECK RD,TEANECK,NJ  ,7666,BERGEN,TEANECK TWP
264 CLIFTON AVE,CLIFTON,NJ  ,7011,PASSAIC,CLIFTON CITY
245 RT 46,FAIRFIELD,NJ  ,7006,ESSEX,FAIRFIELD TWP
4 N BEVERWYCK RD,LAKE HIAWATHA,NJ  ,7034,MORRIS,PARSIPPANY-TROY HILLS
443 LEXINGTON AVE,CLIFTON,NJ  ,7011,PASSAIC,CLIFTON CITY
179 RT 46,LODI,NJ  ,7644,BERGEN,LODI BORO
250 CLIFTON AVE,CLIFTON,NJ  ,7011,PASSAIC,CLIFTON CITY
254 RT 46,FAIRFIELD,NJ  ,7006,ESSEX,FAIRFIELD TWP
150 POLIFLY RD,HACKENSACK,NJ  ,7801,BERGEN,HACKENSACK CITY
157 E MAIN ST,LITTLE FALLS,NJ  ,7424,PASSAIC,LITTLE FALLS TWP
419 WASHINGTON AVE,DUMONT,NJ  ,7628,BERGEN,DUMONT BORO
280 KINDERKAMACK RD,ORADELL,NJ  ,7649,BERGEN,ORADELL BORO
2122 SADDLE RIVER RD,FAIR LAWN,NJ  ,7410,BERGEN,FAIR LAWN BORO
385 LAFAYETTE AVE,HAWTHORNE,NJ  ,7506,PASSAIC,HAWTHORNE BORO
2428 MAPLE AVE,FAIR LAWN,NJ  ,7410,BERGEN,FAIR LAWN BORO
317 KINDERKAMACK RD,ORADELL,NJ  ,7649,BERGEN,ORADELL BORO
868 BELMONT AVE,NORTH HALEDON,NJ  ,7508,PASSAIC,NORTH HALEDON BORO
539 FOREST AVE,PARAMUS,NJ  ,7042,BERGEN,PARAMUS BORO
326 LINCOLN AVE,HAWTHORNE,NJ  ,7506,PASSAIC,HAWTHORNE BORO
650 RT 15,LAKE HOPATCONG,NJ  ,7849,MORRIS,JEFFERSON TWP
362 370 LINCOLN AVE,HAWTHORNE,NJ  ,7506,PASSAIC,HAWTHORNE BORO
403 NEWARK POMPTON TPKE,PEQUANNOCK,NJ  ,7440,MORRIS,PEQUANNOCK TWP
3 SCHRAALENBURGH RD,HAWORTH,NJ  ,7641,BERGEN,HAWORTH BORO
444 KINDERKAMACK RD,ORADELL,NJ  ,7649,BERGEN,ORADELL BORO
200 RT 23,POMPTON PLAINS,NJ  ,7444,MORRIS,PEQUANNOCK TWP
447 NEWARK POMPTON TPKE,PEQUANNOCK,NJ  ,7444,MORRIS,PEQUANNOCK TWP
716 GOFFLE RD,HAWTHORNE,NJ  ,7506,PASSAIC,HAWTHORNE BORO
1019 PATERSON HAMBURG TPKE,WAYNE TWP,NJ  ,7470,PASSAIC,WAYNE TWP
612 RT 17,PARAMUS,NJ  ,7652,BERGEN,PARAMUS BORO
565 RT 17,PARAMUS,NJ  ,7652,BERGEN,PARAMUS BORO
749 RT 15,JEFFERSON TWP,NJ  ,7438,MORRIS,JEFFERSON TWP
1150 PATERSON HAMBURG TPKE,WAYNE,NJ  ,7470,PASSAIC,WAYNE TWP
1194 1196 MAIN AVE,CLIFTON,NJ  ,7011,PASSAIC,CLIFTON CITY
330 PALISADE AVE,BOGOTA,NJ  ,7603,BERGEN,BOGOTA BORO
138 140 RT 46,LODI,NJ  ,7644,BERGEN,LODI BORO
185 S MORRIS ST,DOVER,NJ  ,7801,MORRIS,DOVER TOWN
151 W FORT LEE RD,BOGOTA,NJ  ,7603,BERGEN,BOGOTA BORO
627 RIVER DR,GARFIELD,NJ  ,7026,BERGEN,GARFIELD CITY
501 GRAND AVE,ENGLEWOOD,NJ  ,7631,BERGEN,ENGLEWOOD CITY
471 PIAGET AVE,CLIFTON,NJ  ,7011,PASSAIC,CLIFTON CITY
42 N BEVERWYCK RD,PARSIPPANY TROY-HILLS,NJ  ,7034,MORRIS,PARSIPPANY-TROY HILLS
31 N BEVERWYCK RD,LAKE HIAWATHA,NJ  ,7034,MORRIS,PARSIPPANY-TROY HILLS
200 RT 46,LITTLE FALLS,NJ  ,7424,PASSAIC,LITTLE FALLS TWP
155 S SALEM ST,DOVER,NJ  ,8753,MORRIS,DOVER TOWN
1101 RT 46,LEDGEWOOD,NJ  ,7852,MORRIS,ROXBURY TWP
971 RT 46,KENVIL,NJ  ,8741,MORRIS,ROXBURY TWP
666 RT 46,ROXBURY TWP,NJ  ,7847,MORRIS,ROXBURY TWP
1260 MAIN AVE,CLIFTON,NJ  ,7011,PASSAIC,CLIFTON CITY
274 RT 46,MINE HILL,NJ  ,7802,MORRIS,MINE HILL TWP
GARDEN STATE PKWY MM 156 N,CLIFTON,NJ  ,7015,PASSAIC,CLIFTON CITY
747 755 RT 46,KENVIL,NJ  ,7847,MORRIS,ROXBURY TWP
120 RT 46,LODI,NJ  ,7644,BERGEN,LODI BORO
235 RT 46,MINE HILL,NJ  ,7801,MORRIS,MINE HILL TWP
1174 RT 46,ROXBURY TWP,NJ  ,7876,MORRIS,ROXBURY TWP
1592 ALPS RD,WAYNE,NJ  ,7470,PASSAIC,WAYNE TWP
1118 PATERSON HAMBURG TPKE,WAYNE,NJ  ,7470,PASSAIC,WAYNE TWP
170 SCHRAALENBERGH RD,HAWORTH,NJ  ,7641,BERGEN,HAWORTH BORO
341 RT 23,POMPTON PLAINS,NJ  ,7444,MORRIS,PEQUANNOCK TWP
594 RT 17,PARAMUS,NJ  ,7652,BERGEN,PARAMUS BORO
650 MAPLE AVE,GLEN ROCK,NJ  ,7452,BERGEN,GLEN ROCK BORO
640 RT 17,PARAMUS,NJ  ,7652,BERGEN,PARAMUS BORO
1405 PATERSON HAMBURG TPKE,WAYNE,NJ  ,7470,PASSAIC,WAYNE TWP
639 RT 17,PARAMUS,NJ  ,7652,BERGEN,PARAMUS BORO
786 RT 15,JEFFERSON TWP,NJ  ,7849,MORRIS,JEFFERSON TWP
778 RT 15,LAKE HOPATCONG,NJ  ,7438,MORRIS,JEFFERSON TWP
655 RT 17,PARAMUS,NJ  ,7652,BERGEN,PARAMUS BORO
902 GOFFLE RD,HAWTHORNE,NJ  ,7506,PASSAIC,HAWTHORNE BORO
540 GREEN POND RD,ROCKAWAY TWP,NJ  ,7866,MORRIS,ROCKAWAY TWP
473 DOREMUS AVE,GLEN ROCK,NJ  ,7452,BERGEN,GLEN ROCK BORO
547 NEWARK POMPTON TPKE,PEQUANNOCK,NJ  ,7444,MORRIS,PEQUANNOCK TWP
484 CLOSTER DOCK RD,CLOSTER,NJ  ,7624,BERGEN,CLOSTER BORO
681 PIERMONT RD,CLOSTER,NJ  ,7624,BERGEN,CLOSTER BORO
5 9 HELLERS LN,LAKE HOPATCONG,NJ  ,7849,MORRIS,JEFFERSON TWP
86 RIDGEWOOD AVE,PARAMUS,NJ  ,7652,BERGEN,PARAMUS BORO
467 CLOSTER DOCK RD,CLOSTER,NJ  ,7624,BERGEN,CLOSTER BORO
540 RT 23,POMPTON PLAINS,NJ  ,7444,MORRIS,PEQUANNOCK TWP
445 RT 17,HACKENSACK,NJ  ,7601,BERGEN,HACKENSACK CITY
490 SYLVAN AVE,ENGLEWOOD CLIFFS,NJ  ,7632,BERGEN,ENGLEWOOD CLIFFS BORO
132 RT 46,BUDD LAKE,NJ  ,7828,MORRIS,MOUNT OLIVE TWP
3 STEVENS AVE,LITTLE FALLS,NJ  ,7424,PASSAIC,LITTLE FALLS TWP
7 JEWELL ST,GARFIELD,NJ  ,7026,BERGEN,GARFIELD CITY
1237 RT 46,ROXBURY TWP,NJ  ,7000,MORRIS,ROXBURY TWP
301 FAIRFIELD RD,FAIRFIELD,NJ  ,7004,ESSEX,FAIRFIELD TWP
375 BROAD ST,CLIFTON,NJ  ,7013,PASSAIC,CLIFTON CITY
70 RT 4 E,ENGLEWOOD,NJ  ,7631,BERGEN,ENGLEWOOD CITY
113 RT 46,BUDD LAKE,NJ  ,7828,MORRIS,MOUNT OLIVE TWP
279 E MAIN ST ,DENVILLE,NJ  ,7834,MORRIS,DENVILLE TWP
786 RIVER DR,GARFIELD,NJ  ,7026,BERGEN,GARFIELD CITY
326 RT 46,MOUNTAIN LAKES,NJ  ,7046,MORRIS,MOUNTAIN LAKES BORO
101 RT 4,ENGLEWOOD,NJ  ,7631,BERGEN,ENGLEWOOD CITY
134 RT 4,ENGLEWOOD,NJ  ,7631,BERGEN,ENGLEWOOD CITY
119 RT 4,ENGLEWOOD,NJ  ,7631,BERGEN,ENGLEWOOD CITY
606 MIDLAND AVE,GARFIELD,NJ  ,7026,BERGEN,GARFIELD CITY
393 ESSEX ST,HACKENSACK,NJ  ,7601,BERGEN,HACKENSACK CITY
1500 RT 46 W,LITTLE FALLS,NJ  ,7424,PASSAIC,LITTLE FALLS TWP
137 RT 4,ENGLEWOOD,NJ  ,7631,BERGEN,ENGLEWOOD CITY
187 CHANGE BRIDGE RD,MONTVILLE,NJ  ,7045,MORRIS,MONTVILLE TWP
19 JACKSON AVE,POMPTON PLAINS,NJ  ,7440,MORRIS,PEQUANNOCK TWP
390 MAPLE AVE,GLEN ROCK,NJ  ,7452,BERGEN,GLEN ROCK BORO
1750 PATERSON HAMBURG TPKE,WAYNE,NJ  ,7470,PASSAIC,WAYNE TWP
652 RT 23,POMPTON PLAINS,NJ  ,7444,MORRIS,PEQUANNOCK TWP
138 RIDGEWOOD AVE,PARAMUS,NJ  ,7652,BERGEN,PARAMUS BORO
33 MAIN ST,ANDOVER,NJ  ,7821,SUSSEX,ANDOVER BORO
792 RT 17,PARAMUS,NJ  ,7652,BERGEN,PARAMUS BORO
729 RT 23,PEQUANNOCK TWP,NJ  ,7444,MORRIS,PEQUANNOCK TWP
465 475 GOFFLE RD,RIDGEWOOD,NJ  ,7450,BERGEN,RIDGEWOOD VILLAGE
161 KINDERKAMACK RD,EMERSON,NJ  ,7630,BERGEN,EMERSON BORO
845 RT 17,PARAMUS,NJ  ,7652,BERGEN,PARAMUS BORO
10 GODWIN AVE,RIDGEWOOD,NJ  ,7451,BERGEN,RIDGEWOOD VILLAGE
51 N WALNUT ST,RIDGEWOOD,NJ  ,7450,BERGEN,RIDGEWOOD VILLAGE
51 RT 94,BLAIRSTOWN,NJ  ,7825,WARREN,BLAIRSTOWN TWP
59 RT 94,BLAIRSTOWN,NJ  ,7825,WARREN,BLAIRSTOWN TWP
61 RT 94,BLAIRSTOWN TWP,NJ  ,7825,WARREN,BLAIRSTOWN TWP
1 KNICKERBOCKER RD,CLOSTER,NJ  ,7626,BERGEN,CLOSTER BORO
401 GOFFLE RD,WYCKOFF,NJ  ,7481,BERGEN,WYCKOFF TWP
315 OLD HOOK RD,WESTWOOD,NJ  ,7675,BERGEN,WESTWOOD BORO
320 OLD HOOK RD,WESTWOOD,NJ  ,7675,BERGEN,WESTWOOD BORO
310 OLD HOOK RD,WESTWOOD,NJ  ,7675,BERGEN,WESTWOOD BORO
36 RT 23,RIVERDALE,NJ  ,7457,MORRIS,RIVERDALE BORO